{"type": "FeatureCollection", "features": [{"type": "Feature", "properties": {"HRU_ID": 2736, "SubId": 43, "AQUIFER_PROFILE": "VALLEY_ALLUVIUM"}, "geometry": {"type": "Polygon", "coordinates": [[[-125.58663092660767, 59.43430093675832], [-125.58669007892118, 59.429159795048925], [-125.62864113266146, 59.40224119276417], [-125.82760943925012, 59.428097336636284], [-125.61246677267368, 59.471359684271924], [-125.58663092660767, 59.43430093675832]]]}}, {"type": "Feature", "properties": {"HRU_ID": 2745, "SubId": 43, "AQUIFER_PROFILE": "VALLEY_ALLUVIUM"}, "geometry": {"type": "Polygon", "coordinates": [[[-125.5706906252083, 59.471919300243485], [-125.59978376845486, 59.475549107414295], [-125.6319288733485, 59.867033397658616], [-125.55, 59.8625], [-125.525, 59.8083], [-125.3875, 59.8417], [-125.3458, 59.7958], [-125.28865846830175, 59.80804111647349], [-125.5706906252083, 59.471919300243485]]]}}, {"type": "Feature", "properties": {"HRU_ID": 2747, "SubId": 43, "AQUIFER_PROFILE": "VALLEY_ALLUVIUM"}, "geometry": {"type": "Polygon", "coordinates": [[[-125.41528225160376, 59.349136320533034], [-125.18357635463063, 59.206770140283055], [-125.15057426145839, 59.181827653506375], [-125.2958, 59.1875], [-125.2791, 59.1292], [-125.3375, 59.0917], [-125.36739941577059, 59.085832679352315], [-125.68155171772264, 59.2478068156861], [-125.63552042218568, 59.2845612466984], [-125.4926023349171, 59.339625517936554], [-125.41528225160376, 59.349136320533034]]]}}, {"type": "Feature", "properties": {"HRU_ID": 2748, "SubId": 43, "AQUIFER_PROFILE": "VALLEY_ALLUVIUM"}, "geometry": {"type": "Polygon", "coordinates": [[[-125.42050713399905, 59.36122196037168], [-125.41528225160376, 59.349136320533034], [-125.4926023349171, 59.339625517936554], [-125.58263860941459, 59.3717268720012], [-125.58349156893827, 59.385716040726244], [-125.44743677194467, 59.40871228151056], [-125.42050713399905, 59.36122196037168]]]}}, {"type": "Feature", "properties": {"HRU_ID": 2753, "SubId": 43, "AQUIFER_PROFILE": "VALLEY_ALLUVIUM"}, "geometry": {"type": "Polygon", "coordinates": [[[-125.55059120698112, 59.46731262524926], [-125.58663092660767, 59.43430093675832], [-125.61246677267368, 59.471359684271924], [-125.59978376845486, 59.475549107414295], [-125.5706906252083, 59.471919300243485], [-125.55059120698112, 59.46731262524926]]]}}, {"type": "Feature", "properties": {"HRU_ID": 2758, "SubId": 43, "AQUIFER_PROFILE": "VALLEY_ALLUVIUM"}, "geometry": {"type": "Polygon", "coordinates": [[[-125.82760943925012, 59.428097336636284], [-125.62864113266146, 59.40224119276417], [-125.58349156893827, 59.385716040726244], [-125.58263860941459, 59.3717268720012], [-125.63552042218568, 59.2845612466984], [-125.68155171772264, 59.2478068156861], [-126.07148774387187, 59.32874634184487], [-126.0791, 59.4167], [-126.046412590989, 59.42759580300367], [-125.82760943925012, 59.428097336636284]]]}}, {"type": "Feature", "properties": {"HRU_ID": 2767, "SubId": 43, "AQUIFER_PROFILE": "VALLEY_ALLUVIUM"}, "geometry": {"type": "Polygon", "coordinates": [[[-125.59978376845486, 59.475549107414295], [-125.61246677267368, 59.471359684271924], [-125.82760943925012, 59.428097336636284], [-126.046412590989, 59.42759580300367], [-126.0416, 59.4292], [-126.0625, 59.625], [-126.1208, 59.6625], [-126.125, 59.7375], [-126.2541, 59.75], [-126.1791, 59.8375], [-126.0958, 59.875], [-125.9958, 59.8917], [-125.8708, 59.8667], [-125.7833, 59.8875], [-125.7, 59.8708], [-125.6319288733485, 59.867033397658616], [-125.59978376845486, 59.475549107414295]]]}}, {"type": "Feature", "properties": {"HRU_ID": 2775, "SubId": 43, "AQUIFER_PROFILE": "VALLEY_ALLUVIUM"}, "geometry": {"type": "Polygon", "coordinates": [[[-125.28865846830175, 59.80804111647349], [-125.2291, 59.8208], [-125.22278897482616, 59.81628902667987], [-125.2240505427143, 59.80577699923873], [-125.41753742210489, 59.45456095008864], [-125.42488093610419, 59.450635816199444], [-125.43696145356454, 59.45140029404968], [-125.55059120698112, 59.46731262524926], [-125.5706906252083, 59.471919300243485], [-125.28865846830175, 59.80804111647349]]]}}, {"type": "Feature", "properties": {"HRU_ID": 2780, "SubId": 43, "AQUIFER_PROFILE": "VALLEY_ALLUVIUM"}, "geometry": {"type": "Polygon", "coordinates": [[[-125.68155171772264, 59.2478068156861], [-125.36739941577059, 59.085832679352315], [-125.55, 59.05], [-125.5833, 59.0125], [-125.6625, 59.0125], [-125.6583, 58.9458], [-125.625, 58.9042], [-125.6041, 58.85], [-125.8041, 58.8333], [-125.9208, 58.8375], [-126.0, 58.8042], [-126.1, 58.7958], [-126.1416, 58.8583], [-126.1625, 58.9458], [-126.125, 59.0], [-126.05, 59.0375], [-126.1166, 59.1375], [-126.1291, 59.1875], [-126.1916, 59.2083], [-126.1583, 59.2542], [-126.0416, 59.2958], [-126.0708, 59.3208], [-126.07148774387187, 59.32874634184487], [-125.68155171772264, 59.2478068156861]]]}}, {"type": "Feature", "properties": {"HRU_ID": 2819, "SubId": 43, "AQUIFER_PROFILE": "VALLEY_ALLUVIUM"}, "geometry": {"type": "Polygon", "coordinates": [[[-125.43696145356454, 59.45140029404968], [-125.58669007892118, 59.429159795048925], [-125.58663092660767, 59.43430093675832], [-125.55059120698112, 59.46731262524926], [-125.43696145356454, 59.45140029404968]]]}}, {"type": "Feature", "properties": {"HRU_ID": 2825, "SubId": 43, "AQUIFER_PROFILE": "VALLEY_ALLUVIUM"}, "geometry": {"type": "Polygon", "coordinates": [[[-125.02279987432216, 59.39165295890422], [-125.14155252218075, 59.5151556305594], [-125.2240505427143, 59.80577699923873], [-125.22278897482616, 59.81628902667987], [-125.2, 59.8], [-125.0958, 59.8042], [-125.0166, 59.7833], [-124.9958, 59.7333], [-124.9166, 59.7083], [-124.8958, 59.6708], [-124.775, 59.6792], [-124.7833, 59.7208], [-124.7041, 59.7458], [-124.6083, 59.7458], [-124.5833, 59.7792], [-124.4583, 59.75], [-124.5333, 59.6458], [-124.6208, 59.6208], [-124.5958, 59.5792], [-124.6083, 59.5083], [-124.6541, 59.4583], [-124.7416, 59.4625], [-124.775, 59.4], [-124.7, 59.3667], [-124.6791, 59.3083], [-124.5875, 59.2375], [-124.5833, 59.1583], [-124.6416, 59.1458], [-124.725, 59.1917], [-124.7438451801515, 59.1745418337922], [-125.02279987432216, 59.39165295890422]]]}}, {"type": "Feature", "properties": {"HRU_ID": 2835, "SubId": 43, "AQUIFER_PROFILE": "VALLEY_ALLUVIUM"}, "geometry": {"type": "Polygon", "coordinates": [[[-125.44743677194467, 59.40871228151056], [-125.58349156893827, 59.385716040726244], [-125.62864113266146, 59.40224119276417], [-125.58669007892118, 59.429159795048925], [-125.43696145356454, 59.45140029404968], [-125.42488093610419, 59.450635816199444], [-125.44743677194467, 59.40871228151056]]]}}, {"type": "Feature", "properties": {"HRU_ID": 2842, "SubId": 43, "AQUIFER_PROFILE": "VALLEY_ALLUVIUM"}, "geometry": {"type": "Polygon", "coordinates": [[[-125.14155252218075, 59.5151556305594], [-125.02279987432216, 59.39165295890422], [-125.2332984774484, 59.42297666560275], [-125.23829074166053, 59.4268582969552], [-125.14155252218075, 59.5151556305594]]]}}, {"type": "Feature", "properties": {"HRU_ID": 2849, "SubId": 43, "AQUIFER_PROFILE": "VALLEY_ALLUVIUM"}, "geometry": {"type": "Polygon", "coordinates": [[[-125.2332984774484, 59.42297666560275], [-125.02279987432216, 59.39165295890422], [-124.7438451801515, 59.1745418337922], [-124.7708, 59.15], [-124.8583, 59.175], [-124.8916, 59.1542], [-125.0125, 59.15], [-125.0833, 59.1792], [-125.1321688639016, 59.18110876033122], [-125.2332984774484, 59.42297666560275]]]}}, {"type": "Feature", "properties": {"HRU_ID": 2854, "SubId": 43, "AQUIFER_PROFILE": "VALLEY_ALLUVIUM"}, "geometry": {"type": "Polygon", "coordinates": [[[-125.63552042218568, 59.2845612466984], [-125.58263860941459, 59.3717268720012], [-125.4926023349171, 59.339625517936554], [-125.63552042218568, 59.2845612466984]]]}}, {"type": "Feature", "properties": {"HRU_ID": 2863, "SubId": 43, "AQUIFER_PROFILE": "VALLEY_ALLUVIUM"}, "geometry": {"type": "Polygon", "coordinates": [[[-125.2240505427143, 59.80577699923873], [-125.14155252218075, 59.5151556305594], [-125.23829074166053, 59.4268582969552], [-125.30701501512756, 59.423126379862694], [-125.41753742210489, 59.45456095008864], [-125.2240505427143, 59.80577699923873]]]}}, {"type": "Feature", "properties": {"HRU_ID": 2865, "SubId": 43, "AQUIFER_PROFILE": "VALLEY_ALLUVIUM"}, "geometry": {"type": "Polygon", "coordinates": [[[-125.30032634792592, 59.39881757471969], [-125.18357635463063, 59.206770140283055], [-125.41528225160376, 59.349136320533034], [-125.42050713399905, 59.36122196037168], [-125.30032634792592, 59.39881757471969]]]}}, {"type": "Feature", "properties": {"HRU_ID": 2866, "SubId": 43, "AQUIFER_PROFILE": "VALLEY_ALLUVIUM"}, "geometry": {"type": "Polygon", "coordinates": [[[-125.41753742210489, 59.45456095008864], [-125.30701501512756, 59.423126379862694], [-125.30032634792592, 59.39881757471969], [-125.42050713399905, 59.36122196037168], [-125.44743677194467, 59.40871228151056], [-125.42488093610419, 59.450635816199444], [-125.41753742210489, 59.45456095008864]]]}}, {"type": "Feature", "properties": {"HRU_ID": 2871, "SubId": 43, "AQUIFER_PROFILE": "VALLEY_ALLUVIUM"}, "geometry": {"type": "Polygon", "coordinates": [[[-125.23829074166053, 59.4268582969552], [-125.2332984774484, 59.42297666560275], [-125.1321688639016, 59.18110876033122], [-125.15057426145839, 59.181827653506375], [-125.18357635463063, 59.206770140283055], [-125.30032634792592, 59.39881757471969], [-125.30701501512756, 59.423126379862694], [-125.23829074166053, 59.4268582969552]]]}}, {"type": "Feature", "properties": {"HRU_ID": 3193, "SubId": 48, "AQUIFER_PROFILE": "VALLEY_ALLUVIUM"}, "geometry": {"type": "Polygon", "coordinates": [[[-124.95317560046723, 58.72924506347762], [-125.11259926915059, 58.816356995624965], [-125.03639484070918, 58.83288042690606], [-124.7638567219359, 58.724824594315514], [-124.95167051566267, 58.72894643891946], [-124.95317560046723, 58.72924506347762]]]}}, {"type": "Feature", "properties": {"HRU_ID": 3195, "SubId": 48, "AQUIFER_PROFILE": "VALLEY_ALLUVIUM"}, "geometry": {"type": "Polygon", "coordinates": [[[-124.95317560046723, 58.72924506347762], [-124.98110397046939, 58.73430783618991], [-125.12378501395152, 58.78695704045998], [-125.14552471335983, 58.812235142252845], [-125.11259926915059, 58.816356995624965], [-124.95317560046723, 58.72924506347762]]]}}, {"type": "Feature", "properties": {"HRU_ID": 3196, "SubId": 48, "AQUIFER_PROFILE": "VALLEY_ALLUVIUM"}, "geometry": {"type": "Polygon", "coordinates": [[[-125.03639484070918, 58.83288042690606], [-125.11259926915059, 58.816356995624965], [-125.14552471335983, 58.812235142252845], [-125.24083431361458, 58.8409890790279], [-125.04421182505965, 58.840897849598484], [-125.03639484070918, 58.83288042690606]]]}}, {"type": "Feature", "properties": {"HRU_ID": 3201, "SubId": 48, "AQUIFER_PROFILE": "VALLEY_ALLUVIUM"}, "geometry": {"type": "Polygon", "coordinates": [[[-125.05456116756842, 58.86921580997819], [-125.04774116110784, 58.847066404540946], [-125.34663188131313, 58.86680112643277], [-125.64926769951744, 58.934516405403166], [-125.6583, 58.9458], [-125.6625, 59.0125], [-125.5833, 59.0125], [-125.55, 59.05], [-125.48983612725678, 59.06180627526302], [-125.05456116756842, 58.86921580997819]]]}}, {"type": "Feature", "properties": {"HRU_ID": 3204, "SubId": 48, "AQUIFER_PROFILE": "VALLEY_ALLUVIUM"}, "geometry": {"type": "Polygon", "coordinates": [[[-125.24083431361458, 58.8409890790279], [-125.34663188131313, 58.86680112643277], [-125.04774116110784, 58.847066404540946], [-125.04421182505965, 58.840897849598484], [-125.24083431361458, 58.8409890790279]]]}}, {"type": "Feature", "properties": {"HRU_ID": 3214, "SubId": 48, "AQUIFER_PROFILE": "VALLEY_ALLUVIUM"}, "geometry": {"type": "Polygon", "coordinates": [[[-125.4166, 58.75034316517596], [-125.4166, 58.7917], [-125.3458, 58.825], [-125.4208, 58.8833], [-125.625, 58.9042], [-125.64926769951744, 58.934516405403166], [-125.34663188131313, 58.86680112643277], [-125.24083431361458, 58.8409890790279], [-125.14552471335983, 58.812235142252845], [-125.12378501395152, 58.78695704045998], [-125.16101130755322, 58.771752495588615], [-125.18340520402596, 58.768730097611275], [-125.4166, 58.75034316517596]]]}}, {"type": "Feature", "properties": {"HRU_ID": 3216, "SubId": 48, "AQUIFER_PROFILE": "VALLEY_ALLUVIUM"}, "geometry": {"type": "Polygon", "coordinates": [[[-125.18340520402596, 58.768730097611275], [-125.10490547013123, 58.740461078737184], [-125.4309085775303, 58.72013591007838], [-125.4166, 58.75], [-125.4166, 58.75034316517596], [-125.18340520402596, 58.768730097611275]]]}}, {"type": "Feature", "properties": {"HRU_ID": 3219, "SubId": 48, "AQUIFER_PROFILE": "UPLAND_TILL"}, "geometry": {"type": "Polygon", "coordinates": [[[-125.12087599815739, 58.65256480447306], [-125.10797505371411, 58.67531967405641], [-125.05347480561326, 58.70476648300781], [-124.95167051566267, 58.72894643891946], [-124.7638567219359, 58.724824594315514], [-124.76329810723809, 58.72475211196331], [-124.6958, 58.6792], [-124.69875882537079, 58.63164490307671], [-124.9489780330828, 58.631528411319714], [-125.10712554514126, 58.640916030928004], [-125.12087599815739, 58.65256480447306]]]}}, {"type": "Feature", "properties": {"HRU_ID": 3222, "SubId": 48, "AQUIFER_PROFILE": "VALLEY_ALLUVIUM"}, "geometry": {"type": "Polygon", "coordinates": [[[-125.12378501395152, 58.78695704045998], [-124.98110397046939, 58.73430783618991], [-125.10387456588404, 58.74049335654466], [-125.16101130755322, 58.771752495588615], [-125.12378501395152, 58.78695704045998]]]}}, {"type": "Feature", "properties": {"HRU_ID": 3225, "SubId": 48, "AQUIFER_PROFILE": "VALLEY_ALLUVIUM"}, "geometry": {"type": "Polygon", "coordinates": [[[-125.16101130755322, 58.771752495588615], [-125.10387456588404, 58.74049335654466], [-125.10490547013123, 58.740461078737184], [-125.18340520402596, 58.768730097611275], [-125.16101130755322, 58.771752495588615]]]}}, {"type": "Feature", "properties": {"HRU_ID": 3240, "SubId": 48, "AQUIFER_PROFILE": "UPLAND_TILL"}, "geometry": {"type": "Polygon", "coordinates": [[[-125.24074296721064, 58.664749204846565], [-125.10797505371411, 58.67531967405641], [-125.12087599815739, 58.65256480447306], [-125.24074296721064, 58.664749204846565]]]}}, {"type": "Feature", "properties": {"HRU_ID": 3241, "SubId": 48, "AQUIFER_PROFILE": "UPLAND_TILL"}, "geometry": {"type": "Polygon", "coordinates": [[[-125.16466621260987, 58.61310386449611], [-125.10712554514126, 58.640916030928004], [-124.9489780330828, 58.631528411319714], [-125.12347110192808, 58.61010150322392], [-125.16466621260987, 58.61310386449611]]]}}, {"type": "Feature", "properties": {"HRU_ID": 3242, "SubId": 48, "AQUIFER_PROFILE": "UPLAND_TILL"}, "geometry": {"type": "Polygon", "coordinates": [[[-125.25280995510157, 58.60008542012201], [-125.38005649612404, 58.59852053334211], [-125.4125, 58.65], [-125.4625, 58.6542], [-125.45503544491154, 58.669779616066975], [-125.24074296721064, 58.664749204846565], [-125.12087599815739, 58.65256480447306], [-125.10712554514126, 58.640916030928004], [-125.16466621260987, 58.61310386449611], [-125.21783731223252, 58.603519231562245], [-125.25280995510157, 58.60008542012201]]]}}, {"type": "Feature", "properties": {"HRU_ID": 3243, "SubId": 48, "AQUIFER_PROFILE": "UPLAND_TILL"}, "geometry": {"type": "Polygon", "coordinates": [[[-125.05347480561326, 58.70476648300781], [-125.10797505371411, 58.67531967405641], [-125.24074296721064, 58.664749204846565], [-125.45503544491154, 58.669779616066975], [-125.44927949204688, 58.681793129889094], [-125.05347480561326, 58.70476648300781]]]}}, {"type": "Feature", "properties": {"HRU_ID": 3244, "SubId": 48, "AQUIFER_PROFILE": "VALLEY_ALLUVIUM"}, "geometry": {"type": "Polygon", "coordinates": [[[-125.10490547013123, 58.740461078737184], [-125.10387456588404, 58.74049335654466], [-124.98110397046939, 58.73430783618991], [-124.95317560046723, 58.72924506347762], [-124.95167051566267, 58.72894643891946], [-125.05347480561326, 58.70476648300781], [-125.44927949204688, 58.681793129889094], [-125.4309085775303, 58.72013591007838], [-125.10490547013123, 58.740461078737184]]]}}, {"type": "Feature", "properties": {"HRU_ID": 3250, "SubId": 48, "AQUIFER_PROFILE": "VALLEY_ALLUVIUM"}, "geometry": {"type": "Polygon", "coordinates": [[[-125.0811076909444, 58.5535015034409], [-125.30003762578507, 58.470823779510376], [-125.45722372784766, 58.477029116634], [-125.4166, 58.5292], [-125.3416, 58.5375], [-125.38005649612404, 58.59852053334211], [-125.25280995510157, 58.60008542012201], [-125.1155137179992, 58.566057841994485], [-125.0811076909444, 58.5535015034409]]]}}, {"type": "Feature", "properties": {"HRU_ID": 3256, "SubId": 48, "AQUIFER_PROFILE": "UPLAND_TILL"}, "geometry": {"type": "Polygon", "coordinates": [[[-124.87790502920173, 58.56877329648094], [-125.08948162768071, 58.59283124455658], [-125.12347110192808, 58.61010150322392], [-124.9489780330828, 58.631528411319714], [-124.69875882537079, 58.63164490307671], [-124.7022424006451, 58.575655873969104], [-124.87790502920173, 58.56877329648094]]]}}, {"type": "Feature", "properties": {"HRU_ID": 3257, "SubId": 48, "AQUIFER_PROFILE": "UPLAND_TILL"}, "geometry": {"type": "Polygon", "coordinates": [[[-125.08948162768071, 58.59283124455658], [-124.87790502920173, 58.56877329648094], [-124.89668934515755, 58.56718548597464], [-124.94389733682799, 58.563837404080374], [-125.05083868975443, 58.55663755695365], [-125.11534199468973, 58.585595294766335], [-125.11790659092654, 58.58833503522142], [-125.08948162768071, 58.59283124455658]]]}}, {"type": "Feature", "properties": {"HRU_ID": 3258, "SubId": 48, "AQUIFER_PROFILE": "UPLAND_TILL"}, "geometry": {"type": "Polygon", "coordinates": [[[-125.11534199468973, 58.585595294766335], [-125.1155137179992, 58.566057841994485], [-125.25280995510157, 58.60008542012201], [-125.21783731223252, 58.603519231562245], [-125.11790659092654, 58.58833503522142], [-125.11534199468973, 58.585595294766335]]]}}, {"type": "Feature", "properties": {"HRU_ID": 3259, "SubId": 48, "AQUIFER_PROFILE": "UPLAND_TILL"}, "geometry": {"type": "Polygon", "coordinates": [[[-125.21783731223252, 58.603519231562245], [-125.16466621260987, 58.61310386449611], [-125.12347110192808, 58.61010150322392], [-125.08948162768071, 58.59283124455658], [-125.11790659092654, 58.58833503522142], [-125.21783731223252, 58.603519231562245]]]}}, {"type": "Feature", "properties": {"HRU_ID": 3260, "SubId": 48, "AQUIFER_PROFILE": "[NONE]"}, "geometry": {"type": "Polygon", "coordinates": [[[-125.0441021376586, 58.3608164274708], [-125.04399445495713, 58.3530004398238], [-125.04620935796243, 58.35200200745495], [-125.05555927423737, 58.35668985886095], [-125.06219750538872, 58.36445927344864], [-125.06181464330378, 58.36472042465959], [-125.0441021376586, 58.3608164274708]]]}}, {"type": "Feature", "properties": {"HRU_ID": 3261, "SubId": 48, "AQUIFER_PROFILE": "[NONE]"}, "geometry": {"type": "Polygon", "coordinates": [[[-125.30003762578507, 58.470823779510376], [-125.28477363386172, 58.46871439966162], [-125.13719740430248, 58.44589749318142], [-125.12452055995723, 58.39272503976766], [-125.21423851260039, 58.272217410387455], [-125.225, 58.2958], [-125.3, 58.325], [-125.3666, 58.3958], [-125.4291, 58.4083], [-125.475, 58.4542], [-125.45722372784766, 58.477029116634], [-125.30003762578507, 58.470823779510376]]]}}, {"type": "Feature", "properties": {"HRU_ID": 3262, "SubId": 48, "AQUIFER_PROFILE": "[NONE]"}, "geometry": {"type": "Polygon", "coordinates": [[[-125.12452055995723, 58.39272503976766], [-125.1027906458525, 58.37415416728807], [-125.09648421913062, 58.361501220265936], [-125.13845358890451, 58.285354262461624], [-125.17941621845789, 58.24868089871439], [-125.2041, 58.25], [-125.21423851260039, 58.272217410387455], [-125.12452055995723, 58.39272503976766]]]}}, {"type": "Feature", "properties": {"HRU_ID": 3271, "SubId": 48, "AQUIFER_PROFILE": "UPLAND_TILL"}, "geometry": {"type": "Polygon", "coordinates": [[[-125.05083868975443, 58.55663755695365], [-125.0811076909444, 58.5535015034409], [-125.1155137179992, 58.566057841994485], [-125.11534199468973, 58.585595294766335], [-125.05083868975443, 58.55663755695365]]]}}, {"type": "Feature", "properties": {"HRU_ID": 3272, "SubId": 48, "AQUIFER_PROFILE": "UPLAND_TILL"}, "geometry": {"type": "Polygon", "coordinates": [[[-124.87790502920173, 58.56877329648094], [-124.7022424006451, 58.575655873969104], [-124.7041, 58.5458], [-124.6791, 58.525], [-124.70793358289535, 58.48837695244447], [-125.0974298862841, 58.446651811436], [-125.13719740430248, 58.44589749318142], [-125.28477363386172, 58.46871439966162], [-125.20095532939118, 58.49035226116105], [-124.89668934515755, 58.56718548597464], [-124.87790502920173, 58.56877329648094]]]}}, {"type": "Feature", "properties": {"HRU_ID": 3273, "SubId": 48, "AQUIFER_PROFILE": "UPLAND_TILL"}, "geometry": {"type": "Polygon", "coordinates": [[[-125.20095532939118, 58.49035226116105], [-125.28477363386172, 58.46871439966162], [-125.30003762578507, 58.470823779510376], [-125.0811076909444, 58.5535015034409], [-125.05083868975443, 58.55663755695365], [-124.94389733682799, 58.563837404080374], [-125.20095532939118, 58.49035226116105]]]}}, {"type": "Feature", "properties": {"HRU_ID": 3274, "SubId": 48, "AQUIFER_PROFILE": "UPLAND_TILL"}, "geometry": {"type": "Polygon", "coordinates": [[[-125.20095532939118, 58.49035226116105], [-124.94389733682799, 58.563837404080374], [-124.89668934515755, 58.56718548597464], [-125.20095532939118, 58.49035226116105]]]}}, {"type": "Feature", "properties": {"HRU_ID": 3275, "SubId": 48, "AQUIFER_PROFILE": "[NONE]"}, "geometry": {"type": "Polygon", "coordinates": [[[-125.02195002873069, 58.34060415393275], [-125.01983395462378, 58.354405165673306], [-124.99531338777518, 58.369839534720214], [-124.70948227376286, 58.415735960748556], [-124.6958, 58.3708], [-124.65, 58.3542], [-124.6458, 58.2792], [-124.66293152264791, 58.27348949245069], [-125.02195002873069, 58.34060415393275]]]}}, {"type": "Feature", "properties": {"HRU_ID": 3276, "SubId": 48, "AQUIFER_PROFILE": "[NONE]"}, "geometry": {"type": "Polygon", "coordinates": [[[-125.04620935796243, 58.35200200745495], [-125.06736112375823, 58.32996918417606], [-125.06883600011285, 58.329285121443384], [-125.06742928002056, 58.35457276852554], [-125.05555927423737, 58.35668985886095], [-125.04620935796243, 58.35200200745495]]]}}, {"type": "Feature", "properties": {"HRU_ID": 3277, "SubId": 48, "AQUIFER_PROFILE": "[NONE]"}, "geometry": {"type": "Polygon", "coordinates": [[[-125.0708773746179, 58.36155331392821], [-125.06742928002056, 58.35457276852554], [-125.06883600011285, 58.329285121443384], [-125.13845358890451, 58.285354262461624], [-125.09648421913062, 58.361501220265936], [-125.0708773746179, 58.36155331392821]]]}}, {"type": "Feature", "properties": {"HRU_ID": 3278, "SubId": 48, "AQUIFER_PROFILE": "[NONE]"}, "geometry": {"type": "Polygon", "coordinates": [[[-125.1027906458525, 58.37415416728807], [-125.12452055995723, 58.39272503976766], [-125.13719740430248, 58.44589749318142], [-125.0974298862841, 58.446651811436], [-125.0494511302003, 58.37737643689163], [-125.05902728145051, 58.37171363269657], [-125.1027906458525, 58.37415416728807]]]}}, {"type": "Feature", "properties": {"HRU_ID": 3287, "SubId": 48, "AQUIFER_PROFILE": "[NONE]"}, "geometry": {"type": "Polygon", "coordinates": [[[-125.06219750538872, 58.36445927344864], [-125.0708773746179, 58.36155331392821], [-125.09648421913062, 58.361501220265936], [-125.1027906458525, 58.37415416728807], [-125.05902728145051, 58.37171363269657], [-125.06181464330378, 58.36472042465959], [-125.06219750538872, 58.36445927344864]]]}}, {"type": "Feature", "properties": {"HRU_ID": 3288, "SubId": 48, "AQUIFER_PROFILE": "[NONE]"}, "geometry": {"type": "Polygon", "coordinates": [[[-125.05902728145051, 58.37171363269657], [-125.0494511302003, 58.37737643689163], [-125.02233848345205, 58.37137380687617], [-125.0441021376586, 58.3608164274708], [-125.06181464330378, 58.36472042465959], [-125.05902728145051, 58.37171363269657]]]}}, {"type": "Feature", "properties": {"HRU_ID": 3289, "SubId": 48, "AQUIFER_PROFILE": "[NONE]"}, "geometry": {"type": "Polygon", "coordinates": [[[-125.01983395462378, 58.354405165673306], [-125.02195002873069, 58.34060415393275], [-125.06736112375823, 58.32996918417606], [-125.04620935796243, 58.35200200745495], [-125.04399445495713, 58.3530004398238], [-125.01983395462378, 58.354405165673306]]]}}, {"type": "Feature", "properties": {"HRU_ID": 3290, "SubId": 48, "AQUIFER_PROFILE": "[NONE]"}, "geometry": {"type": "Polygon", "coordinates": [[[-125.05555927423737, 58.35668985886095], [-125.06742928002056, 58.35457276852554], [-125.0708773746179, 58.36155331392821], [-125.06219750538872, 58.36445927344864], [-125.05555927423737, 58.35668985886095]]]}}, {"type": "Feature", "properties": {"HRU_ID": 3304, "SubId": 48, "AQUIFER_PROFILE": "[NONE]"}, "geometry": {"type": "Polygon", "coordinates": [[[-124.99531338777518, 58.369839534720214], [-125.02233848345205, 58.37137380687617], [-125.0494511302003, 58.37737643689163], [-125.0974298862841, 58.446651811436], [-124.70793358289535, 58.48837695244447], [-124.725, 58.4667], [-124.70948227376286, 58.415735960748556], [-124.99531338777518, 58.369839534720214]]]}}, {"type": "Feature", "properties": {"HRU_ID": 3305, "SubId": 48, "AQUIFER_PROFILE": "[NONE]"}, "geometry": {"type": "Polygon", "coordinates": [[[-124.99531338777518, 58.369839534720214], [-125.01983395462378, 58.354405165673306], [-125.04399445495713, 58.3530004398238], [-125.0441021376586, 58.3608164274708], [-125.02233848345205, 58.37137380687617], [-124.99531338777518, 58.369839534720214]]]}}, {"type": "Feature", "properties": {"HRU_ID": 3306, "SubId": 48, "AQUIFER_PROFILE": "[NONE]"}, "geometry": {"type": "Polygon", "coordinates": [[[-125.02195002873069, 58.34060415393275], [-124.66293152264791, 58.27348949245069], [-124.7958, 58.2292], [-124.7875, 58.1917], [-124.8791, 58.1917], [-124.8916, 58.2333], [-125.17941621845789, 58.24868089871439], [-125.13845358890451, 58.285354262461624], [-125.06883600011285, 58.329285121443384], [-125.06736112375823, 58.32996918417606], [-125.02195002873069, 58.34060415393275]]]}}, {"type": "Feature", "properties": {"HRU_ID": 3312, "SubId": 48, "AQUIFER_PROFILE": "VALLEY_ALLUVIUM"}, "geometry": {"type": "Polygon", "coordinates": [[[-125.37948386419554, 59.0834612840614], [-125.3375, 59.0917], [-125.2791, 59.1292], [-125.2958, 59.1875], [-125.0833, 59.1792], [-125.0125, 59.15], [-124.8916, 59.1542], [-124.8583, 59.175], [-124.7708, 59.15], [-124.725, 59.1917], [-124.6416, 59.1458], [-124.6083, 59.075], [-124.5541, 59.0333], [-124.5875, 58.9667], [-124.7666, 58.9375], [-124.77222201263456, 58.90524917303051], [-124.96927278053721, 58.94521335483555], [-125.37948386419554, 59.0834612840614]]]}}, {"type": "Feature", "properties": {"HRU_ID": 3331, "SubId": 48, "AQUIFER_PROFILE": "VALLEY_ALLUVIUM"}, "geometry": {"type": "Polygon", "coordinates": [[[-124.7638567219359, 58.724824594315514], [-125.03639484070918, 58.83288042690606], [-125.04421182505965, 58.840897849598484], [-125.04774116110784, 58.847066404540946], [-125.05456116756842, 58.86921580997819], [-125.02877193923071, 58.8771484709555], [-124.77855899873268, 58.868896881521536], [-124.7833, 58.8417], [-124.8583, 58.825], [-124.8625, 58.7917], [-124.76329810723809, 58.72475211196331], [-124.7638567219359, 58.724824594315514]]]}}, {"type": "Feature", "properties": {"HRU_ID": 3333, "SubId": 48, "AQUIFER_PROFILE": "VALLEY_ALLUVIUM"}, "geometry": {"type": "Polygon", "coordinates": [[[-125.02877193923071, 58.8771484709555], [-124.96927278053721, 58.94521335483555], [-124.77222201263456, 58.90524917303051], [-124.77855899873268, 58.868896881521536], [-125.02877193923071, 58.8771484709555]]]}}, {"type": "Feature", "properties": {"HRU_ID": 3339, "SubId": 48, "AQUIFER_PROFILE": "VALLEY_ALLUVIUM"}, "geometry": {"type": "Polygon", "coordinates": [[[-125.05456116756842, 58.86921580997819], [-125.48983612725678, 59.06180627526302], [-125.37948386419554, 59.0834612840614], [-124.96927278053721, 58.94521335483555], [-125.02877193923071, 58.8771484709555], [-125.05456116756842, 58.86921580997819]]]}}, {"type": "Feature", "properties": {"HRU_ID": 3719, "SubId": 52, "AQUIFER_PROFILE": "UPLAND_TILL"}, "geometry": {"type": "Polygon", "coordinates": [[[-125.77423048440015, 58.62119908630704], [-125.79519445278244, 58.6277327585681], [-125.79599938816995, 58.63114576789476], [-125.77973985283178, 58.63395031880322], [-125.76450124129458, 58.62911633152055], [-125.76722729608784, 58.62414307690345], [-125.77423048440015, 58.62119908630704]]]}}, {"type": "Feature", "properties": {"HRU_ID": 3721, "SubId": 52, "AQUIFER_PROFILE": "UPLAND_TILL"}, "geometry": {"type": "Polygon", "coordinates": [[[-125.72336749443554, 58.611432614222664], [-125.762385618668, 58.60602552994603], [-125.77576225757139, 58.61713837487997], [-125.77423048440015, 58.62119908630704], [-125.76722729608784, 58.62414307690345], [-125.72336749443554, 58.611432614222664]]]}}, {"type": "Feature", "properties": {"HRU_ID": 3726, "SubId": 52, "AQUIFER_PROFILE": "VALLEY_ALLUVIUM"}, "geometry": {"type": "Polygon", "coordinates": [[[-125.76444348291213, 58.66431376631073], [-125.73977756711822, 58.64079139065054], [-125.76450124129458, 58.62911633152055], [-125.77973985283178, 58.63395031880322], [-125.76444348291213, 58.66431376631073]]]}}, {"type": "Feature", "properties": {"HRU_ID": 3728, "SubId": 52, "AQUIFER_PROFILE": "VALLEY_ALLUVIUM"}, "geometry": {"type": "Polygon", "coordinates": [[[-126.05837323134561, 58.79929664856697], [-126.0, 58.8042], [-125.9208, 58.8375], [-125.91408670771163, 58.8372583905089], [-125.78382772835188, 58.69049461071609], [-125.76444348291213, 58.66431376631073], [-125.77973985283178, 58.63395031880322], [-125.79599938816995, 58.63114576789476], [-126.05837323134561, 58.79929664856697]]]}}, {"type": "Feature", "properties": {"HRU_ID": 3739, "SubId": 52, "AQUIFER_PROFILE": "UPLAND_TILL"}, "geometry": {"type": "Polygon", "coordinates": [[[-125.80127695805162, 58.622914576070414], [-125.8473767701191, 58.631515559554174], [-126.08764425960544, 58.796837882193145], [-126.05837323134561, 58.79929664856697], [-125.79599938816995, 58.63114576789476], [-125.79519445278244, 58.6277327585681], [-125.80127695805162, 58.622914576070414]]]}}, {"type": "Feature", "properties": {"HRU_ID": 3740, "SubId": 52, "AQUIFER_PROFILE": "UPLAND_TILL"}, "geometry": {"type": "Polygon", "coordinates": [[[-125.78767612689032, 58.59010013840297], [-125.77716501111327, 58.59498024858088], [-125.73182860616404, 58.58584721121433], [-125.74781337210518, 58.58034235185486], [-125.79013593433356, 58.58711980912889], [-125.78767612689032, 58.59010013840297]]]}}, {"type": "Feature", "properties": {"HRU_ID": 3741, "SubId": 52, "AQUIFER_PROFILE": "UPLAND_TILL"}, "geometry": {"type": "Polygon", "coordinates": [[[-125.762385618668, 58.60602552994603], [-125.77582249332464, 58.59707438166043], [-125.79205634298279, 58.60975065661559], [-125.78142796149176, 58.61591102927376], [-125.77576225757139, 58.61713837487997], [-125.762385618668, 58.60602552994603]]]}}, {"type": "Feature", "properties": {"HRU_ID": 3742, "SubId": 52, "AQUIFER_PROFILE": "UPLAND_TILL"}, "geometry": {"type": "Polygon", "coordinates": [[[-125.77576225757139, 58.61713837487997], [-125.78142796149176, 58.61591102927376], [-125.80305424047472, 58.6191734007819], [-125.80127695805162, 58.622914576070414], [-125.79519445278244, 58.6277327585681], [-125.77423048440015, 58.62119908630704], [-125.77576225757139, 58.61713837487997]]]}}, {"type": "Feature", "properties": {"HRU_ID": 3747, "SubId": 52, "AQUIFER_PROFILE": "VALLEY_ALLUVIUM"}, "geometry": {"type": "Polygon", "coordinates": [[[-125.8673903225661, 58.606551653465196], [-125.87585481717038, 58.61078216934105], [-125.84256962862392, 58.61108377383733], [-125.84898053657255, 58.60192827186423], [-125.8673903225661, 58.606551653465196]]]}}, {"type": "Feature", "properties": {"HRU_ID": 3748, "SubId": 52, "AQUIFER_PROFILE": "VALLEY_ALLUVIUM"}, "geometry": {"type": "Polygon", "coordinates": [[[-125.84930389579124, 58.58912329676784], [-125.84098977787657, 58.58646845584101], [-125.84128765015602, 58.57802145176102], [-125.85123651145942, 58.57776179573989], [-125.85336929196005, 58.58253884209796], [-125.84930389579124, 58.58912329676784]]]}}, {"type": "Feature", "properties": {"HRU_ID": 3749, "SubId": 52, "AQUIFER_PROFILE": "VALLEY_ALLUVIUM"}, "geometry": {"type": "Polygon", "coordinates": [[[-125.84385053449247, 58.59780871258259], [-125.85093082933749, 58.59292803431443], [-125.86686430440814, 58.59122170766242], [-125.8673903225661, 58.606551653465196], [-125.84898053657255, 58.60192827186423], [-125.84612699476041, 58.60040154783048], [-125.84385053449247, 58.59780871258259]]]}}, {"type": "Feature", "properties": {"HRU_ID": 3760, "SubId": 52, "AQUIFER_PROFILE": "UPLAND_TILL"}, "geometry": {"type": "Polygon", "coordinates": [[[-125.82141066641152, 58.61316866082576], [-125.831951062699, 58.61796673693357], [-125.8473767701191, 58.631515559554174], [-125.80127695805162, 58.622914576070414], [-125.80305424047472, 58.6191734007819], [-125.81179444481221, 58.61298356496774], [-125.81915576221333, 58.61260723172696], [-125.82141066641152, 58.61316866082576]]]}}, {"type": "Feature", "properties": {"HRU_ID": 3761, "SubId": 52, "AQUIFER_PROFILE": "UPLAND_TILL"}, "geometry": {"type": "Polygon", "coordinates": [[[-125.75706900016019, 58.57528279934822], [-125.74781337210518, 58.58034235185486], [-125.73182860616404, 58.58584721121433], [-125.56277486419897, 58.59395626582129], [-125.53382038349413, 58.59023072813629], [-125.71007096328056, 58.56282190025982], [-125.75306693778306, 58.569199845227025], [-125.75706900016019, 58.57528279934822]]]}}, {"type": "Feature", "properties": {"HRU_ID": 3762, "SubId": 52, "AQUIFER_PROFILE": "UPLAND_TILL"}, "geometry": {"type": "Polygon", "coordinates": [[[-125.79049017478594, 58.58678978403333], [-125.79013593433356, 58.58711980912889], [-125.74781337210518, 58.58034235185486], [-125.75706900016019, 58.57528279934822], [-125.77646993829673, 58.57586205937674], [-125.79049017478594, 58.58678978403333]]]}}, {"type": "Feature", "properties": {"HRU_ID": 3763, "SubId": 52, "AQUIFER_PROFILE": "UPLAND_TILL"}, "geometry": {"type": "Polygon", "coordinates": [[[-125.81179444481221, 58.61298356496774], [-125.80305424047472, 58.6191734007819], [-125.78142796149176, 58.61591102927376], [-125.79205634298279, 58.60975065661559], [-125.80703197390956, 58.61112827692831], [-125.81179444481221, 58.61298356496774]]]}}, {"type": "Feature", "properties": {"HRU_ID": 3770, "SubId": 52, "AQUIFER_PROFILE": "VALLEY_ALLUVIUM"}, "geometry": {"type": "Polygon", "coordinates": [[[-125.87746953858208, 58.5880722125105], [-125.8684221619271, 58.57056410112515], [-125.98659006914295, 58.426963703334955], [-126.0208, 58.4583], [-126.0708, 58.4333], [-126.125, 58.4833], [-126.2, 58.4917], [-126.2625, 58.5458], [-126.3458, 58.5375], [-126.3291, 58.5917], [-126.3541, 58.6292], [-126.32634921819398, 58.674284603474646], [-125.87746953858208, 58.5880722125105]]]}}, {"type": "Feature", "properties": {"HRU_ID": 3772, "SubId": 52, "AQUIFER_PROFILE": "UPLAND_TILL"}, "geometry": {"type": "Polygon", "coordinates": [[[-125.84256962862392, 58.61108377383733], [-125.87585481717038, 58.61078216934105], [-126.2035997514363, 58.749755666028314], [-126.1, 58.7958], [-126.08764425960544, 58.796837882193145], [-125.8473767701191, 58.631515559554174], [-125.831951062699, 58.61796673693357], [-125.84256962862392, 58.61108377383733]]]}}, {"type": "Feature", "properties": {"HRU_ID": 3773, "SubId": 52, "AQUIFER_PROFILE": "UPLAND_TILL"}, "geometry": {"type": "Polygon", "coordinates": [[[-125.79933525764437, 58.596924438326596], [-125.80703197390956, 58.61112827692831], [-125.79205634298279, 58.60975065661559], [-125.77582249332464, 58.59707438166043], [-125.77716501111327, 58.59498024858088], [-125.78767612689032, 58.59010013840297], [-125.79933525764437, 58.596924438326596]]]}}, {"type": "Feature", "properties": {"HRU_ID": 3774, "SubId": 52, "AQUIFER_PROFILE": "UPLAND_TILL"}, "geometry": {"type": "Polygon", "coordinates": [[[-125.83112741049318, 58.59570026758791], [-125.84385053449247, 58.59780871258259], [-125.84612699476041, 58.60040154783048], [-125.82141066641152, 58.61316866082576], [-125.81915576221333, 58.61260723172696], [-125.8211378276451, 58.60136770973599], [-125.83112741049318, 58.59570026758791]]]}}, {"type": "Feature", "properties": {"HRU_ID": 3775, "SubId": 52, "AQUIFER_PROFILE": "UPLAND_TILL"}, "geometry": {"type": "Polygon", "coordinates": [[[-125.76450124129458, 58.62911633152055], [-125.73977756711822, 58.64079139065054], [-125.66233927450686, 58.61232020536203], [-125.72336749443554, 58.611432614222664], [-125.76722729608784, 58.62414307690345], [-125.76450124129458, 58.62911633152055]]]}}, {"type": "Feature", "properties": {"HRU_ID": 3776, "SubId": 52, "AQUIFER_PROFILE": "VALLEY_ALLUVIUM"}, "geometry": {"type": "Polygon", "coordinates": [[[-125.82141066641152, 58.61316866082576], [-125.84612699476041, 58.60040154783048], [-125.84898053657255, 58.60192827186423], [-125.84256962862392, 58.61108377383733], [-125.831951062699, 58.61796673693357], [-125.82141066641152, 58.61316866082576]]]}}, {"type": "Feature", "properties": {"HRU_ID": 3777, "SubId": 52, "AQUIFER_PROFILE": "VALLEY_ALLUVIUM"}, "geometry": {"type": "Polygon", "coordinates": [[[-125.83521459913706, 58.57722793250899], [-125.84128765015602, 58.57802145176102], [-125.84098977787657, 58.58646845584101], [-125.83062680277223, 58.5891209766734], [-125.83521459913706, 58.57722793250899]]]}}, {"type": "Feature", "properties": {"HRU_ID": 3779, "SubId": 52, "AQUIFER_PROFILE": "VALLEY_ALLUVIUM"}, "geometry": {"type": "Polygon", "coordinates": [[[-125.83062680277223, 58.5891209766734], [-125.84098977787657, 58.58646845584101], [-125.84930389579124, 58.58912329676784], [-125.85093082933749, 58.59292803431443], [-125.84385053449247, 58.59780871258259], [-125.83112741049318, 58.59570026758791], [-125.8269176069562, 58.591727013013944], [-125.83062680277223, 58.5891209766734]]]}}, {"type": "Feature", "properties": {"HRU_ID": 3780, "SubId": 52, "AQUIFER_PROFILE": "UPLAND_TILL"}, "geometry": {"type": "Polygon", "coordinates": [[[-125.8211378276451, 58.60136770973599], [-125.81915576221333, 58.61260723172696], [-125.81179444481221, 58.61298356496774], [-125.80703197390956, 58.61112827692831], [-125.79933525764437, 58.596924438326596], [-125.8211378276451, 58.60136770973599]]]}}, {"type": "Feature", "properties": {"HRU_ID": 3781, "SubId": 52, "AQUIFER_PROFILE": "UPLAND_TILL"}, "geometry": {"type": "Polygon", "coordinates": [[[-125.75306693778306, 58.569199845227025], [-125.71007096328056, 58.56282190025982], [-125.76229758567877, 58.54753180877549], [-125.75605907445727, 58.567567777144745], [-125.75306693778306, 58.569199845227025]]]}}, {"type": "Feature", "properties": {"HRU_ID": 3782, "SubId": 52, "AQUIFER_PROFILE": "UPLAND_TILL"}, "geometry": {"type": "Polygon", "coordinates": [[[-125.75605907445727, 58.567567777144745], [-125.76229758567877, 58.54753180877549], [-125.80798894047909, 58.52776287870995], [-125.7774051022572, 58.56740133140963], [-125.75605907445727, 58.567567777144745]]]}}, {"type": "Feature", "properties": {"HRU_ID": 3783, "SubId": 52, "AQUIFER_PROFILE": "UPLAND_TILL"}, "geometry": {"type": "Polygon", "coordinates": [[[-125.77582249332464, 58.59707438166043], [-125.762385618668, 58.60602552994603], [-125.72336749443554, 58.611432614222664], [-125.66233927450686, 58.61232020536203], [-125.60475877959556, 58.602339572716794], [-125.56277486419897, 58.59395626582129], [-125.73182860616404, 58.58584721121433], [-125.77716501111327, 58.59498024858088], [-125.77582249332464, 58.59707438166043]]]}}, {"type": "Feature", "properties": {"HRU_ID": 3792, "SubId": 52, "AQUIFER_PROFILE": "UPLAND_TILL"}, "geometry": {"type": "Polygon", "coordinates": [[[-125.87746953858208, 58.5880722125105], [-126.32634921819398, 58.674284603474646], [-126.3208, 58.6833], [-126.2541, 58.6833], [-126.2125, 58.7458], [-126.2035997514363, 58.749755666028314], [-125.87585481717038, 58.61078216934105], [-125.8673903225661, 58.606551653465196], [-125.86686430440814, 58.59122170766242], [-125.87114659037613, 58.589326680266744], [-125.87746953858208, 58.5880722125105]]]}}, {"type": "Feature", "properties": {"HRU_ID": 3793, "SubId": 52, "AQUIFER_PROFILE": "UPLAND_TILL"}, "geometry": {"type": "Polygon", "coordinates": [[[-125.80038316009284, 58.58425513017783], [-125.81740898656571, 58.571520404899026], [-125.83521459913706, 58.57722793250899], [-125.83062680277223, 58.5891209766734], [-125.8269176069562, 58.591727013013944], [-125.80038316009284, 58.58425513017783]]]}}, {"type": "Feature", "properties": {"HRU_ID": 3794, "SubId": 52, "AQUIFER_PROFILE": "UPLAND_TILL"}, "geometry": {"type": "Polygon", "coordinates": [[[-125.85336929196005, 58.58253884209796], [-125.85123651145942, 58.57776179573989], [-125.8684221619271, 58.57056410112515], [-125.87746953858208, 58.5880722125105], [-125.87114659037613, 58.589326680266744], [-125.85336929196005, 58.58253884209796]]]}}, {"type": "Feature", "properties": {"HRU_ID": 3795, "SubId": 52, "AQUIFER_PROFILE": "UPLAND_TILL"}, "geometry": {"type": "Polygon", "coordinates": [[[-125.79049017478594, 58.58678978403333], [-125.80038316009284, 58.58425513017783], [-125.8269176069562, 58.591727013013944], [-125.83112741049318, 58.59570026758791], [-125.8211378276451, 58.60136770973599], [-125.79933525764437, 58.596924438326596], [-125.78767612689032, 58.59010013840297], [-125.79013593433356, 58.58711980912889], [-125.79049017478594, 58.58678978403333]]]}}, {"type": "Feature", "properties": {"HRU_ID": 3796, "SubId": 52, "AQUIFER_PROFILE": "[NONE]"}, "geometry": {"type": "Polygon", "coordinates": [[[-125.46083690315525, 58.36861812222159], [-125.43143133694626, 58.358825886669], [-125.40677951283993, 58.31269199126028], [-125.4458, 58.3375], [-125.44772229797975, 58.3361250458704], [-125.46083690315525, 58.36861812222159]]]}}, {"type": "Feature", "properties": {"HRU_ID": 3801, "SubId": 52, "AQUIFER_PROFILE": "UPLAND_TILL"}, "geometry": {"type": "Polygon", "coordinates": [[[-125.75706900016019, 58.57528279934822], [-125.75306693778306, 58.569199845227025], [-125.75605907445727, 58.567567777144745], [-125.7774051022572, 58.56740133140963], [-125.77646993829673, 58.57586205937674], [-125.75706900016019, 58.57528279934822]]]}}, {"type": "Feature", "properties": {"HRU_ID": 3803, "SubId": 52, "AQUIFER_PROFILE": "UPLAND_TILL"}, "geometry": {"type": "Polygon", "coordinates": [[[-125.81702979403119, 58.52215719514478], [-125.80798894047909, 58.52776287870995], [-125.76229758567877, 58.54753180877549], [-125.71007096328056, 58.56282190025982], [-125.53382038349413, 58.59023072813629], [-125.4396249234576, 58.58499471570424], [-125.5933949301373, 58.468282775426786], [-125.6957308483196, 58.4134176145418], [-125.82272868111461, 58.367809152079346], [-125.85, 58.4042], [-125.91522240536254, 58.4086813407658], [-125.81702979403119, 58.52215719514478]]]}}, {"type": "Feature", "properties": {"HRU_ID": 3805, "SubId": 52, "AQUIFER_PROFILE": "UPLAND_TILL"}, "geometry": {"type": "Polygon", "coordinates": [[[-125.86686430440814, 58.59122170766242], [-125.85093082933749, 58.59292803431443], [-125.84930389579124, 58.58912329676784], [-125.85336929196005, 58.58253884209796], [-125.87114659037613, 58.589326680266744], [-125.86686430440814, 58.59122170766242]]]}}, {"type": "Feature", "properties": {"HRU_ID": 3807, "SubId": 52, "AQUIFER_PROFILE": "UPLAND_TILL"}, "geometry": {"type": "Polygon", "coordinates": [[[-125.81702979403119, 58.52215719514478], [-125.91522240536254, 58.4086813407658], [-125.9708, 58.4125], [-125.98659006914295, 58.426963703334955], [-125.8684221619271, 58.57056410112515], [-125.85123651145942, 58.57776179573989], [-125.84128765015602, 58.57802145176102], [-125.83521459913706, 58.57722793250899], [-125.81740898656571, 58.571520404899026], [-125.81702979403119, 58.52215719514478]]]}}, {"type": "Feature", "properties": {"HRU_ID": 3808, "SubId": 52, "AQUIFER_PROFILE": "UPLAND_TILL"}, "geometry": {"type": "Polygon", "coordinates": [[[-125.7774051022572, 58.56740133140963], [-125.80798894047909, 58.52776287870995], [-125.81702979403119, 58.52215719514478], [-125.81740898656571, 58.571520404899026], [-125.80038316009284, 58.58425513017783], [-125.79049017478594, 58.58678978403333], [-125.77646993829673, 58.57586205937674], [-125.7774051022572, 58.56740133140963]]]}}, {"type": "Feature", "properties": {"HRU_ID": 3809, "SubId": 52, "AQUIFER_PROFILE": "[NONE]"}, "geometry": {"type": "Polygon", "coordinates": [[[-125.35023075337885, 58.37839845854688], [-125.34564537813449, 58.373523915494324], [-125.43143133694626, 58.358825886669], [-125.46083690315525, 58.36861812222159], [-125.46773517888731, 58.37566837005086], [-125.36897728973186, 58.379315751231765], [-125.35023075337885, 58.37839845854688]]]}}, {"type": "Feature", "properties": {"HRU_ID": 3810, "SubId": 52, "AQUIFER_PROFILE": "[NONE]"}, "geometry": {"type": "Polygon", "coordinates": [[[-125.43143133694626, 58.358825886669], [-125.34564537813449, 58.373523915494324], [-125.3, 58.325], [-125.3541, 58.2792], [-125.40677951283993, 58.31269199126028], [-125.43143133694626, 58.358825886669]]]}}, {"type": "Feature", "properties": {"HRU_ID": 3811, "SubId": 52, "AQUIFER_PROFILE": "[NONE]"}, "geometry": {"type": "Polygon", "coordinates": [[[-125.46773517888731, 58.37566837005086], [-125.48050900993232, 58.37923116647778], [-125.43125066750079, 58.39784663822898], [-125.36897728973186, 58.379315751231765], [-125.46773517888731, 58.37566837005086]]]}}, {"type": "Feature", "properties": {"HRU_ID": 3812, "SubId": 52, "AQUIFER_PROFILE": "[NONE]"}, "geometry": {"type": "Polygon", "coordinates": [[[-125.46083690315525, 58.36861812222159], [-125.44772229797975, 58.3361250458704], [-125.5041, 58.2958], [-125.575, 58.3125], [-125.7875, 58.3208], [-125.82272868111461, 58.367809152079346], [-125.6957308483196, 58.4134176145418], [-125.48050900993232, 58.37923116647778], [-125.46773517888731, 58.37566837005086], [-125.46083690315525, 58.36861812222159]]]}}, {"type": "Feature", "properties": {"HRU_ID": 3821, "SubId": 52, "AQUIFER_PROFILE": "[NONE]"}, "geometry": {"type": "Polygon", "coordinates": [[[-125.44460844054746, 58.42107331068706], [-125.44203667631604, 58.42123667631603], [-125.43757419187108, 58.41677419187107], [-125.44460844054746, 58.42107331068706]]]}}, {"type": "Feature", "properties": {"HRU_ID": 3822, "SubId": 52, "AQUIFER_PROFILE": "[NONE]"}, "geometry": {"type": "Polygon", "coordinates": [[[-125.43125066750079, 58.39784663822898], [-125.48050900993232, 58.37923116647778], [-125.6957308483196, 58.4134176145418], [-125.5933949301373, 58.468282775426786], [-125.44460844054746, 58.42107331068706], [-125.43757419187108, 58.41677419187107], [-125.43295263649935, 58.41215263649935], [-125.43125066750079, 58.39784663822898]]]}}, {"type": "Feature", "properties": {"HRU_ID": 3823, "SubId": 52, "AQUIFER_PROFILE": "[NONE]"}, "geometry": {"type": "Polygon", "coordinates": [[[-125.44460844054746, 58.42107331068706], [-125.5933949301373, 58.468282775426786], [-125.4396249234576, 58.58499471570424], [-125.383947675814, 58.604694831157616], [-125.3416, 58.5375], [-125.4166, 58.5292], [-125.475, 58.4542], [-125.44203667631604, 58.42123667631603], [-125.44460844054746, 58.42107331068706]]]}}, {"type": "Feature", "properties": {"HRU_ID": 3824, "SubId": 52, "AQUIFER_PROFILE": "[NONE]"}, "geometry": {"type": "Polygon", "coordinates": [[[-125.36897728973186, 58.379315751231765], [-125.43125066750079, 58.39784663822898], [-125.43295263649935, 58.41215263649935], [-125.4291, 58.4083], [-125.3666, 58.3958], [-125.35023075337885, 58.37839845854688], [-125.36897728973186, 58.379315751231765]]]}}, {"type": "Feature", "properties": {"HRU_ID": 3831, "SubId": 52, "AQUIFER_PROFILE": "UPLAND_TILL"}, "geometry": {"type": "Polygon", "coordinates": [[[-125.78382772835188, 58.69049461071609], [-125.60475877959556, 58.602339572716794], [-125.66233927450686, 58.61232020536203], [-125.73977756711822, 58.64079139065054], [-125.76444348291213, 58.66431376631073], [-125.78382772835188, 58.69049461071609]]]}}, {"type": "Feature", "properties": {"HRU_ID": 3838, "SubId": 52, "AQUIFER_PROFILE": "VALLEY_ALLUVIUM"}, "geometry": {"type": "Polygon", "coordinates": [[[-125.91408670771163, 58.8372583905089], [-125.8041, 58.8333], [-125.6041, 58.85], [-125.625, 58.9042], [-125.4208, 58.8833], [-125.3458, 58.825], [-125.4166, 58.7917], [-125.4166, 58.75], [-125.4625, 58.6542], [-125.4125, 58.65], [-125.383947675814, 58.604694831157616], [-125.4396249234576, 58.58499471570424], [-125.53382038349413, 58.59023072813629], [-125.56277486419897, 58.59395626582129], [-125.60475877959556, 58.602339572716794], [-125.78382772835188, 58.69049461071609], [-125.91408670771163, 58.8372583905089]]]}}]}