{"type":"FeatureCollection","features":[{"type":"Feature","geometry":{"type":"Polygon","coordinates":[[[-127.2041,62.3208],[-127.2458,62.3708],[-127.3541,62.3708],[-127.4458,62.3333],[-127.4875,62.375],[-127.6708,62.3542],[-127.775,62.2708],[-127.8291,62.2625],[-127.9083,62.2],[-128.0375,62.2],[-128.0375,62.2542],[-127.9583,62.3333],[-127.875,62.3167],[-127.7541,62.3292],[-127.7208,62.3667],[-127.8791,62.45],[-128.0541,62.4625],[-128.2958,62.4375],[-128.3958,62.5083],[-128.5541,62.5292],[-128.6125,62.5667],[-128.625,62.6583],[-128.5916,62.675],[-128.4375,62.8167],[-128.4625,62.8792],[-128.5375,62.9333],[-128.6208,62.8958],[-128.7041,62.9167],[-128.5083,63.025],[-128.25,63.0292],[-128.1708,63.0042],[-128.0375,63.0042],[-127.8708,62.9667],[-127.8666,62.8917],[-127.7708,62.8542],[-127.7125,62.9125],[-127.6416,62.8625],[-127.6583,62.7583],[-127.4708,62.7042],[-127.4541,62.5917],[-127.3583,62.6042],[-127.2666,62.5208],[-127.2166,62.5125],[-127.1666,62.4542],[-127.1666,62.3333],[-127.2041,62.3208]]]},"properties":{"Area":3488.5791,"BBasin":"Nahanni","Sub_B":"SUB_1","Downstream":"SUB_3","Gauged":0,"Reach":29.8636,"Checked":1,"B":1,"SubId":1,"rvhName":"SUB_1","DowSubId":"3","BasArea":3488480000,"rmapshaperid":0}},{"type":"Feature","geometry":{"type":"Polygon","coordinates":[[[-128.7041,62.9167],[-128.6208,62.8958],[-128.5375,62.9333],[-128.4625,62.8792],[-128.4375,62.8167],[-128.5916,62.675],[-128.625,62.6583],[-128.6125,62.5667],[-128.5541,62.5292],[-128.3958,62.5083],[-128.2958,62.4375],[-128.0541,62.4625],[-127.8791,62.45],[-127.7208,62.3667],[-127.7541,62.3292],[-127.875,62.3167],[-127.9583,62.3333],[-128.0375,62.2542],[-128.0375,62.2],[-128.0708,62.1667],[-128.0291,62.1042],[-128.1666,62.05],[-128.3208,62.0625],[-128.4333,62.0292],[-128.4916,62.0625],[-128.6041,62.0917],[-128.6958,62.1333],[-128.7416,62.0958],[-128.75,62.025],[-128.8125,62.0292],[-128.9041,62.1083],[-129.0125,62.125],[-129.0583,62.1083],[-129.1958,62.1083],[-129.25,62.1542],[-129.2208,62.2042],[-129.25,62.2917],[-129.3,62.3],[-129.2791,62.3625],[-129.2041,62.3708],[-129.2,62.4083],[-129.3416,62.45],[-129.4,62.4833],[-129.4833,62.4708],[-129.525,62.6125],[-129.5708,62.6875],[-129.5791,62.7625],[-129.6833,62.7792],[-129.7083,62.8333],[-129.7833,62.8708],[-129.9416,62.875],[-129.9416,62.95],[-129.8791,62.9583],[-129.9625,63.0625],[-129.7583,63.0875],[-129.6875,63.0375],[-129.5541,63.0708],[-129.5166,62.9917],[-129.375,62.9875],[-129.3458,62.9583],[-129.2458,62.9542],[-129.2,62.9958],[-129.1166,62.9958],[-129.0833,63.0708],[-129.15,63.0792],[-129.15,63.125],[-129.0541,63.1667],[-128.9916,63.1125],[-128.9166,63.1167],[-128.9041,62.8875],[-128.7041,62.9167]]]},"properties":{"Area":6190.9676,"BBasin":"Nahanni","Sub_B":"SUB_2","Downstream":"SUB_1","Gauged":0,"Reach":102.4737,"Checked":1,"B":2,"SubId":2,"rvhName":"SUB_2","DowSubId":"3","BasArea":6190920000,"rmapshaperid":1}},{"type":"Feature","geometry":{"type":"Polygon","coordinates":[[[-127.2041,62.3208],[-127.15,62.2667],[-126.9791,62.2625],[-126.9083,62.2417],[-126.8166,62.2542],[-126.7541,62.2],[-126.7041,62.1292],[-126.6541,62.1458],[-126.5416,62.1333],[-126.4208,62.0542],[-126.3291,62.0542],[-126.3083,62.0125],[-126.2375,61.9958],[-126.175,61.875],[-126.0958,61.8583],[-126.0625,61.8042],[-125.9375,61.725],[-125.8958,61.725],[-125.7791,61.6667],[-125.825,61.6208],[-125.8416,61.5583],[-125.9708,61.5458],[-126.125,61.5958],[-126.1625,61.6458],[-126.2375,61.6583],[-126.25,61.7],[-126.3208,61.7417],[-126.425,61.7375],[-126.5041,61.6875],[-126.6125,61.7],[-126.7083,61.775],[-126.7041,61.8375],[-126.7875,61.8375],[-126.8333,61.7958],[-127.0083,61.7333],[-127.025,61.6667],[-127.1333,61.7],[-127.3,61.6833],[-127.3291,61.7458],[-127.4875,61.7542],[-127.6708,61.8542],[-127.7208,61.8292],[-127.8625,61.8458],[-127.9416,61.8875],[-128,61.8875],[-127.9833,61.9625],[-128.075,61.9875],[-128.1666,62.05],[-128.0291,62.1042],[-128.0708,62.1667],[-128.0375,62.2],[-127.9083,62.2],[-127.8291,62.2625],[-127.775,62.2708],[-127.6708,62.3542],[-127.4875,62.375],[-127.4458,62.3333],[-127.3541,62.3708],[-127.2458,62.3708],[-127.2041,62.3208]]]},"properties":{"Area":5338.522,"BBasin":"Nahanni","Sub_B":"SUB_3","Downstream":"SUB_4","Gauge":"10EB001","Gauged":1,"Reach":146.7642,"Checked":1,"B":3,"SubId":3,"rvhName":"SUB_3","DowSubId":"4","BasArea":5338520000,"rmapshaperid":2}},{"type":"Feature","geometry":{"type":"Polygon","coordinates":[[[-125.0166,61.8917],[-125.0416,61.8042],[-125.1083,61.7583],[-125.1666,61.8083],[-125.2541,61.8083],[-125.3,61.7042],[-125.3416,61.6625],[-125.3166,61.625],[-125.35,61.5375],[-125.4125,61.5375],[-125.5291,61.55],[-125.65,61.5417],[-125.6916,61.5],[-125.7958,61.4875],[-125.9166,61.5042],[-125.9708,61.5458],[-125.8416,61.5583],[-125.825,61.6208],[-125.7791,61.6667],[-125.8958,61.725],[-125.9375,61.725],[-126.0625,61.8042],[-126.0958,61.8583],[-126.175,61.875],[-126.2375,61.9958],[-126.3083,62.0125],[-126.3291,62.0542],[-126.4208,62.0542],[-126.5416,62.1333],[-126.6541,62.1458],[-126.7041,62.1292],[-126.7541,62.2],[-126.7041,62.3083],[-126.4041,62.3125],[-126.4041,62.25],[-126.45,62.2125],[-126.3625,62.1917],[-126.3375,62.2417],[-126.1833,62.1917],[-125.9958,62.1917],[-125.9625,62.1458],[-125.8541,62.1542],[-125.7875,62.1792],[-125.7208,62.1125],[-125.6208,62.0958],[-125.4708,62.1083],[-125.4,62.0458],[-125.3291,62.0917],[-125.1416,62.0833],[-125.0666,62.0042],[-125.0166,61.8917]]]},"properties":{"Area":3534.402,"BBasin":"Nahanni","Sub_B":"SUB_4","Downstream":"SUB_11","Gauged":0,"Reach":41.9721,"Checked":1,"B":4,"SubId":4,"rvhName":"SUB_4","DowSubId":"11","BasArea":3534400000,"rmapshaperid":3}},{"type":"Feature","geometry":{"type":"Polygon","coordinates":[[[-128.4333,62.0292],[-128.375,61.9542],[-128.2875,61.9542],[-128.2541,61.8792],[-128.1916,61.8542],[-128.0708,61.8375],[-128.05,61.7833],[-128.0958,61.7125],[-128.1541,61.7042],[-128.225,61.6167],[-128.175,61.5542],[-128.1916,61.5125],[-128.3208,61.4417],[-128.4375,61.4792],[-128.4416,61.5167],[-128.5666,61.5625],[-128.6541,61.5792],[-128.6458,61.65],[-128.6708,61.7],[-128.6458,61.7583],[-128.6666,61.8],[-128.8958,61.8083],[-128.9083,61.7583],[-129.05,61.8083],[-129.0208,61.9458],[-129.0291,62.0333],[-129.0541,62.0625],[-129.2,62.0792],[-129.1958,62.1083],[-129.0583,62.1083],[-129.0125,62.125],[-128.9041,62.1083],[-128.8125,62.0292],[-128.75,62.025],[-128.7416,62.0958],[-128.6958,62.1333],[-128.6041,62.0917],[-128.4916,62.0625],[-128.4333,62.0292]]]},"properties":{"Area":2087.7109,"BBasin":"Upper Liard","Sub_B":"SUB_5","Downstream":"SUB_10","Gauge":"10AD002","Gauged":1,"Reach":0,"Checked":1,"B":5,"SubId":5,"rvhName":"SUB_5","DowSubId":"10","BasArea":2087700000,"rmapshaperid":4}},{"type":"Feature","geometry":{"type":"Polygon","coordinates":[[[-130.2625,61.6875],[-130.2333,61.7458],[-130.0916,61.7125],[-130.0833,61.7792],[-130.1041,61.875],[-130.1875,61.8792],[-130.2541,61.9208],[-130.2416,61.9917],[-130.1625,61.9708],[-130.0708,61.9792],[-129.9041,61.9125],[-129.8291,61.9458],[-129.8708,62.0583],[-129.7208,62.0917],[-129.6708,62.0625],[-129.4833,62.0542],[-129.4791,62.1083],[-129.3541,62.2],[-129.25,62.1542],[-129.1958,62.1083],[-129.2,62.0792],[-129.0541,62.0625],[-129.0291,62.0333],[-129.0208,61.9458],[-129.05,61.8083],[-128.9083,61.7583],[-128.8958,61.8083],[-128.6666,61.8],[-128.6458,61.7583],[-128.6708,61.7],[-128.6458,61.65],[-128.6541,61.5792],[-128.7125,61.6292],[-128.8333,61.625],[-128.8583,61.5625],[-128.925,61.4875],[-129.0041,61.4958],[-129.0458,61.5792],[-129.15,61.5792],[-129.1708,61.5375],[-129.2583,61.4875],[-129.3416,61.5042],[-129.3416,61.5417],[-129.4907,61.544],[-129.5458,61.4958],[-129.5333,61.4292],[-129.5964,61.3909],[-129.7166,61.3833],[-129.8041,61.3417],[-129.8041,61.15],[-129.8708,61.0667],[-130.0041,61.1333],[-130.0041,61.1708],[-130.0708,61.2083],[-130.1208,61.1833],[-130.2125,61.1958],[-130.2458,61.1708],[-130.3041,61.1958],[-130.3916,61.1792],[-130.45,61.2333],[-130.4291,61.3125],[-130.5083,61.3375],[-130.5333,61.3833],[-130.4875,61.4375],[-130.4416,61.4667],[-130.4208,61.5333],[-130.3666,61.5333],[-130.3916,61.6],[-130.35,61.675],[-130.2625,61.6875]]]},"properties":{"Area":5648.4653,"BBasin":"Upper Liard","Sub_B":"SUB_6","Downstream":"SUB_16","Gauge":"10AB002","Gauged":1,"Reach":27.3982,"Checked":1,"B":6,"SubId":6,"rvhName":"SUB_6","DowSubId":"16","BasArea":5648480000,"rmapshaperid":5}},{"type":"Feature","geometry":{"type":"Polygon","coordinates":[[[-128.1666,62.05],[-128.075,61.9875],[-127.9833,61.9625],[-128,61.8875],[-127.9416,61.8875],[-127.8625,61.8458],[-127.7208,61.8292],[-127.6708,61.8542],[-127.4875,61.7542],[-127.3291,61.7458],[-127.3,61.6833],[-127.1333,61.7],[-127.025,61.6667],[-127.0083,61.7333],[-126.8333,61.7958],[-126.7875,61.8375],[-126.7041,61.8375],[-126.7083,61.775],[-126.6125,61.7],[-126.5041,61.6875],[-126.425,61.7375],[-126.3208,61.7417],[-126.25,61.7],[-126.2375,61.6583],[-126.1625,61.6458],[-126.125,61.5958],[-125.9708,61.5458],[-125.9166,61.5042],[-125.7958,61.4875],[-125.6916,61.5],[-125.65,61.5417],[-125.5291,61.55],[-125.4125,61.5375],[-125.3916,61.5042],[-125.4833,61.4792],[-125.5375,61.4417],[-125.5333,61.4],[-125.7291,61.3625],[-125.8041,61.2917],[-125.8916,61.3167],[-125.9083,61.35],[-125.8333,61.3917],[-125.8708,61.4292],[-126.1958,61.4333],[-126.2833,61.425],[-126.3083,61.4667],[-126.4708,61.45],[-126.4416,61.3917],[-126.5541,61.2792],[-126.6541,61.2292],[-126.7458,61.2125],[-126.7458,61.1542],[-126.8375,61.1458],[-126.9291,61.2042],[-127.0291,61.2083],[-127.0833,61.3083],[-127.0916,61.3875],[-127.1916,61.4],[-127.2375,61.4792],[-127.325,61.5042],[-127.4458,61.4458],[-127.4833,61.4917],[-127.6708,61.5375],[-127.8208,61.6],[-127.8625,61.6417],[-128.0208,61.7167],[-128.05,61.7833],[-128.0708,61.8375],[-128.1916,61.8542],[-128.2541,61.8792],[-128.2875,61.9542],[-128.375,61.9542],[-128.4333,62.0292],[-128.3208,62.0625],[-128.1666,62.05]]]},"properties":{"Area":4590.0594,"BBasin":"Nahanni","Sub_B":"SUB_8","Downstream":"SUB_11","Gauge":"10EA003","Gauged":1,"Reach":109.2443,"Checked":1,"B":8,"SubId":8,"rvhName":"SUB_8","DowSubId":"11","BasArea":4590050000,"rmapshaperid":6}},{"type":"Feature","geometry":{"type":"Polygon","coordinates":[[[-127.6708,61.5375],[-127.8208,61.5167],[-127.7291,61.3792],[-127.5916,61.3208],[-127.6083,61.2417],[-127.6875,61.1833],[-127.8666,61.2],[-127.8958,61.2208],[-128.1041,61.2042],[-128.1291,61.0875],[-128.0291,61.0417],[-128.025,60.9708],[-128.0666,60.875],[-128.1375,60.8792],[-128.3416,60.7875],[-128.475,60.8042],[-128.5708,60.8875],[-128.7208,60.8708],[-128.8333,60.8958],[-128.8875,60.9542],[-128.825,60.9667],[-128.8083,61.0958],[-128.8583,61.1083],[-128.8916,61.2083],[-128.7375,61.2958],[-128.5666,61.3],[-128.4916,61.3292],[-128.3958,61.4042],[-128.4416,61.4208],[-128.4375,61.4792],[-128.3208,61.4417],[-128.1916,61.5125],[-128.175,61.5542],[-128.225,61.6167],[-128.1541,61.7042],[-128.0958,61.7125],[-128.05,61.7833],[-128.0208,61.7167],[-127.8625,61.6417],[-127.8208,61.6],[-127.6708,61.5375]]]},"properties":{"Area":3544.3613,"BBasin":"Upper Liard","Sub_B":"SUB_10","Downstream":"SUB_24","Gauged":0,"Reach":78.4272,"Checked":1,"B":10,"SubId":10,"rvhName":"SUB_10","DowSubId":"24","BasArea":3544350000,"rmapshaperid":7}},{"type":"Feature","geometry":{"type":"Polygon","coordinates":[[[-124.7375,61.5875],[-124.4625,61.4458],[-124.3666,61.4208],[-124.2875,61.4375],[-124.1208,61.3458],[-124.075,61.3083],[-124.0791,61.2458],[-124.1541,61.2667],[-124.3,61.2458],[-124.3166,61.1917],[-124.3875,61.1208],[-124.4875,61.1083],[-124.6291,61.0292],[-124.6083,60.9542],[-124.7125,60.9417],[-124.8208,60.9625],[-124.8625,60.9042],[-124.8625,60.8583],[-125.0416,60.8542],[-125.1208,60.8333],[-125.2458,60.8333],[-125.3458,60.7458],[-125.4125,60.75],[-125.4416,60.7917],[-125.5125,60.7958],[-125.5958,60.8417],[-125.7375,60.8167],[-125.7875,60.8667],[-125.8291,60.95],[-125.8708,60.9417],[-125.8833,60.9958],[-125.8375,61.0208],[-125.8,61.225],[-125.8041,61.2917],[-125.7291,61.3625],[-125.5333,61.4],[-125.5375,61.4417],[-125.4833,61.4792],[-125.3916,61.5042],[-125.4125,61.5375],[-125.35,61.5375],[-125.3166,61.625],[-125.3416,61.6625],[-125.3,61.7042],[-125.2541,61.8083],[-125.1666,61.8083],[-125.1083,61.7583],[-125.0416,61.8042],[-125.0166,61.8917],[-124.9375,61.8792],[-124.8958,61.7958],[-124.7916,61.7667],[-124.7458,61.7208],[-124.7375,61.5875]]]},"properties":{"Area":6199.1571,"BBasin":"Nahanni","Sub_B":"SUB_11","Downstream":"SUB_12","Gauge":"10EC001","Gauged":1,"Reach":129.5803,"Checked":1,"B":11,"SubId":11,"rvhName":"SUB_11","DowSubId":"12","BasArea":6199170000,"rmapshaperid":8}},{"type":"Feature","geometry":{"type":"Polygon","coordinates":[[[-123.4666,61.4083],[-123.4166,61.3792],[-123.3958,61.2625],[-123.3125,61.2792],[-123.1958,61.2708],[-123.025,61.275],[-122.8125,61.0708],[-122.5625,61.0583],[-122.5416,61.0292],[-122.4416,61.0292],[-122.4666,60.9708],[-122.4458,60.8958],[-122.5666,60.8542],[-122.5583,60.8042],[-122.6208,60.7625],[-122.6708,60.8042],[-122.85,60.725],[-122.9333,60.775],[-123.0083,60.7917],[-123.1583,60.7917],[-123.2041,60.8708],[-123.225,61.0083],[-123.2791,61.05],[-123.3416,61.0042],[-123.4333,61.0042],[-123.5208,60.9667],[-123.5958,61.0167],[-123.6625,61.0208],[-123.7541,60.9458],[-123.8875,60.95],[-124.05,60.8833],[-124.0625,60.8458],[-124.1416,60.8292],[-124.2666,60.8375],[-124.3333,60.8833],[-124.3791,60.8167],[-124.4458,60.8417],[-124.5666,60.85],[-124.575,60.9333],[-124.6083,60.9542],[-124.6291,61.0292],[-124.4875,61.1083],[-124.3875,61.1208],[-124.3166,61.1917],[-124.3,61.2458],[-124.1541,61.2667],[-124.0791,61.2458],[-124.075,61.3083],[-124.1208,61.3458],[-124.2875,61.4375],[-124.3666,61.4208],[-124.4625,61.4458],[-124.4,61.5042],[-124.2,61.4833],[-123.975,61.3792],[-123.825,61.3583],[-123.7416,61.3917],[-123.6791,61.4542],[-123.675,61.4958],[-123.6166,61.525],[-123.6083,61.4042],[-123.5708,61.3125],[-123.4666,61.3208],[-123.4666,61.4083]]]},"properties":{"Area":4652.786,"BBasin":"Lower Liard","Sub_B":"SUB_12","Downstream":"SUB_13","Gauge":"10ED008","Gauged":1,"Reach":102.1641,"Checked":1,"B":12,"SubId":12,"rvhName":"SUB_12","DowSubId":"13","BasArea":4652750000,"rmapshaperid":9}},{"type":"Feature","geometry":{"type":"Polygon","coordinates":[[[-122.6,61.5667],[-122.5041,61.5542],[-122.5,61.5542],[-122.4958,61.5583],[-122.4166,61.5042],[-122.1708,61.4542],[-122.0708,61.3375],[-122.0708,61.3042],[-122.1583,61.1958],[-122.05,61.125],[-121.8958,61.1125],[-121.825,61],[-121.8541,60.9917],[-121.8291,60.8625],[-121.8791,60.8125],[-121.9916,60.7625],[-121.9916,60.7333],[-122.1791,60.7542],[-122.2333,60.8083],[-122.3416,60.8375],[-122.4458,60.8958],[-122.4666,60.9708],[-122.4416,61.0292],[-122.5416,61.0292],[-122.5625,61.0583],[-122.8125,61.0708],[-123.025,61.275],[-123.1958,61.2708],[-123.3125,61.2792],[-123.3958,61.2625],[-123.4166,61.3792],[-123.4666,61.4083],[-123.4666,61.4417],[-123.3791,61.5375],[-123.3875,61.575],[-123.3291,61.6458],[-123.1958,61.6083],[-123.1625,61.6375],[-123.0375,61.65],[-122.9041,61.6333],[-122.7458,61.5917],[-122.6416,61.5958],[-122.6,61.5667]]]},"properties":{"Area":4295.003,"BBasin":"Lower Liard","Sub_B":"SUB_13","Downstream":"SUB_9","Gauge":"10ED003","Gauged":1,"Reach":52.6371,"Checked":1,"B":13,"SubId":13,"rvhName":"SUB_13","DowSubId":"9","BasArea":4294990000,"rmapshaperid":10}},{"type":"Feature","geometry":{"type":"Polygon","coordinates":[[[-125.8041,61.2917],[-125.8,61.225],[-125.8375,61.0208],[-125.8833,60.9958],[-125.8708,60.9417],[-125.9625,60.8708],[-126.0041,60.7708],[-125.9666,60.7375],[-126.05,60.7167],[-126.0583,60.7917],[-126.1291,60.8667],[-126.2208,60.8333],[-126.3333,60.8625],[-126.3708,60.7958],[-126.4208,60.7708],[-126.5208,60.8167],[-126.6125,60.8042],[-126.6541,60.7542],[-126.7416,60.7917],[-126.8083,60.7667],[-126.9,60.7625],[-126.8708,60.8667],[-126.9083,60.8875],[-126.9583,61.0542],[-127.0916,61.0292],[-127.1291,61.0667],[-127.0083,61.1375],[-127.0291,61.2083],[-126.9291,61.2042],[-126.8375,61.1458],[-126.7458,61.1542],[-126.7458,61.2125],[-126.6541,61.2292],[-126.5541,61.2792],[-126.4416,61.3917],[-126.4708,61.45],[-126.3083,61.4667],[-126.2833,61.425],[-126.1958,61.4333],[-125.8708,61.4292],[-125.8333,61.3917],[-125.9083,61.35],[-125.8916,61.3167],[-125.8041,61.2917]]]},"properties":{"Area":3514.0674,"BBasin":"Nahanni","Sub_B":"SUB_14","Downstream":"SUB_8","Gauged":0,"Reach":35.2488,"Checked":1,"B":14,"SubId":14,"rvhName":"SUB_14","DowSubId":"8","BasArea":3514070000,"rmapshaperid":11}},{"type":"Feature","geometry":{"type":"Polygon","coordinates":[[[-130.4875,61.4375],[-130.5333,61.3833],[-130.5083,61.3375],[-130.4291,61.3125],[-130.45,61.2333],[-130.3916,61.1792],[-130.3041,61.1958],[-130.2458,61.1708],[-130.2375,61.1167],[-130.3125,61.1083],[-130.3125,61.0375],[-130.2125,61.0083],[-130.1875,60.9792],[-130.0791,61.0083],[-129.9625,60.95],[-129.8958,60.9667],[-129.7708,60.8917],[-129.825,60.8375],[-129.7666,60.7917],[-129.8041,60.7375],[-129.85,60.725],[-129.8291,60.675],[-129.8916,60.6167],[-130.0791,60.6167],[-130.1875,60.6625],[-130.5916,60.5875],[-130.6041,60.5458],[-130.6916,60.4958],[-130.875,60.5292],[-130.9458,60.5875],[-131.05,60.575],[-131.125,60.5875],[-131.1916,60.6333],[-131.2041,60.6833],[-131.3041,60.6833],[-131.3958,60.65],[-131.475,60.6833],[-131.4625,60.7417],[-131.4958,60.7667],[-131.6,60.7667],[-131.5916,60.8292],[-131.6333,60.9],[-131.8291,60.8792],[-131.9458,60.9625],[-132.0041,60.9667],[-131.9791,61.0292],[-131.9166,61.0292],[-131.7833,61.1083],[-131.7708,61.225],[-131.7,61.2667],[-131.6166,61.2667],[-131.5833,61.3167],[-131.5958,61.3792],[-131.4875,61.3833],[-131.5041,61.325],[-131.475,61.3042],[-131.3708,61.3333],[-131.275,61.3417],[-131.1416,61.2875],[-131.1041,61.3542],[-131.225,61.3875],[-131.1041,61.4375],[-131.0625,61.375],[-130.7625,61.3708],[-130.7333,61.4333],[-130.5958,61.4542],[-130.4875,61.4375]]]},"properties":{"Area":7230.5486,"BBasin":"Upper Liard","Sub_B":"SUB_15","Downstream":"SUB_19","Gauged":0,"Reach":93.1266,"Checked":1,"B":15,"SubId":15,"rvhName":"SUB_15","DowSubId":"19","BasArea":7230130000,"rmapshaperid":12}},{"type":"Feature","geometry":{"type":"Polygon","coordinates":[[[-128.6541,61.5792],[-128.5666,61.5625],[-128.4416,61.5167],[-128.4375,61.4792],[-128.4416,61.4208],[-128.3958,61.4042],[-128.4916,61.3292],[-128.5666,61.3],[-128.7375,61.2958],[-128.8916,61.2083],[-128.8583,61.1083],[-128.8083,61.0958],[-128.825,60.9667],[-128.8875,60.9542],[-128.8333,60.8958],[-128.8583,60.8708],[-128.8458,60.8042],[-128.7583,60.8208],[-128.6875,60.7417],[-128.7458,60.7125],[-128.75,60.6458],[-128.7125,60.5417],[-128.7166,60.4625],[-128.75,60.425],[-128.8666,60.4833],[-128.8791,60.5208],[-128.95,60.5333],[-129.1041,60.45],[-129.1625,60.5042],[-129.2625,60.475],[-129.3583,60.5083],[-129.4125,60.575],[-129.4291,60.6292],[-129.35,60.6458],[-129.3666,60.7417],[-129.4041,60.7625],[-129.3833,60.8792],[-129.4791,60.8875],[-129.5375,60.8042],[-129.6875,60.7708],[-129.7666,60.7917],[-129.825,60.8375],[-129.7708,60.8917],[-129.8958,60.9667],[-129.9625,60.95],[-130.0791,61.0083],[-130.1875,60.9792],[-130.2125,61.0083],[-130.3125,61.0375],[-130.3125,61.1083],[-130.2375,61.1167],[-130.2458,61.1708],[-130.2125,61.1958],[-130.1208,61.1833],[-130.0708,61.2083],[-130.0041,61.1708],[-130.0041,61.1333],[-129.8708,61.0667],[-129.8041,61.15],[-129.8041,61.3417],[-129.7166,61.3833],[-129.5964,61.3909],[-129.5333,61.4292],[-129.5458,61.4958],[-129.4907,61.544],[-129.3416,61.5417],[-129.3416,61.5042],[-129.2583,61.4875],[-129.1708,61.5375],[-129.15,61.5792],[-129.0458,61.5792],[-129.0041,61.4958],[-128.925,61.4875],[-128.8583,61.5625],[-128.8333,61.625],[-128.7125,61.6292],[-128.6541,61.5792]]]},"properties":{"Area":6169.354,"BBasin":"Upper Liard","Sub_B":"SUB_16","Downstream":"SUB_25","Gauge":"10AB001","Gauged":1,"Reach":141.0273,"Checked":1,"B":16,"SubId":16,"rvhName":"SUB_16","DowSubId":"25","BasArea":6169370000,"rmapshaperid":13}},{"type":"Feature","geometry":{"type":"Polygon","coordinates":[[[-122.85,60.725],[-122.9041,60.6458],[-122.9291,60.5292],[-123.025,60.5083],[-123.1125,60.4375],[-123.1375,60.3583],[-123.2166,60.3708],[-123.2958,60.3542],[-123.3375,60.3125],[-123.3208,60.2],[-123.4541,60.2292],[-123.6125,60.3833],[-123.6166,60.4375],[-123.6958,60.5042],[-123.7791,60.5458],[-123.8666,60.6625],[-124.0625,60.8458],[-124.05,60.8833],[-123.8875,60.95],[-123.7541,60.9458],[-123.6625,61.0208],[-123.5958,61.0167],[-123.5208,60.9667],[-123.4333,61.0042],[-123.3416,61.0042],[-123.2791,61.05],[-123.225,61.0083],[-123.2041,60.8708],[-123.1583,60.7917],[-123.0083,60.7917],[-122.9333,60.775],[-122.85,60.725]]]},"properties":{"Area":3157.7553,"BBasin":"Lower Liard","Sub_B":"SUB_17","Downstream":"SUB_12","Gauged":0,"Reach":137.9944,"Checked":1,"B":17,"SubId":17,"rvhName":"SUB_17","DowSubId":"12","BasArea":3157680000,"rmapshaperid":14}},{"type":"Feature","geometry":{"type":"Polygon","coordinates":[[[-124.8625,60.8583],[-124.85,60.7708],[-124.9791,60.7333],[-124.9583,60.6792],[-124.8875,60.6125],[-124.8875,60.4917],[-124.775,60.4375],[-124.7666,60.4],[-124.6958,60.3],[-124.7916,60.3],[-124.9541,60.2708],[-124.9666,60.1958],[-125.0375,60.1875],[-125.0583,60.2333],[-125.1416,60.2542],[-125.1458,60.2875],[-125.2083,60.3375],[-125.1916,60.3833],[-125.1375,60.4125],[-125.2041,60.4667],[-125.3,60.4833],[-125.3458,60.5458],[-125.4458,60.5458],[-125.4833,60.5792],[-125.5625,60.5792],[-125.5916,60.625],[-125.6916,60.6125],[-125.6916,60.5708],[-125.8041,60.5583],[-125.8791,60.575],[-125.8833,60.6833],[-125.9666,60.7375],[-126.0041,60.7708],[-125.9625,60.8708],[-125.8708,60.9417],[-125.8291,60.95],[-125.7875,60.8667],[-125.7375,60.8167],[-125.5958,60.8417],[-125.5125,60.7958],[-125.4416,60.7917],[-125.4125,60.75],[-125.3458,60.7458],[-125.2458,60.8333],[-125.1208,60.8333],[-125.0416,60.8542],[-124.8625,60.8583]]]},"properties":{"Area":2371.7787,"BBasin":"Central Liard","Sub_B":"SUB_18","Downstream":"SUB_23","Gauged":0,"Reach":0,"Checked":1,"B":18,"SubId":18,"rvhName":"SUB_18","DowSubId":"23","BasArea":2371770000,"rmapshaperid":15}},{"type":"Feature","geometry":{"type":"Polygon","coordinates":[[[-129.2625,60.475],[-129.3083,60.4375],[-129.3083,60.3875],[-129.2375,60.3167],[-129.2916,60.2375],[-129.4333,60.2333],[-129.5625,60.2458],[-129.6458,60.25],[-129.7541,60.3083],[-129.8291,60.3125],[-129.8958,60.2583],[-129.9833,60.25],[-130.0916,60.2708],[-130.125,60.2375],[-130.2291,60.2375],[-130.3,60.2583],[-130.4583,60.2292],[-130.575,60.225],[-130.6333,60.1583],[-130.7208,60.2292],[-130.85,60.2667],[-130.8458,60.3458],[-130.9125,60.3708],[-130.9958,60.3458],[-131.1791,60.35],[-131.2041,60.3875],[-131.275,60.4125],[-131.3166,60.4625],[-131.1416,60.5],[-131.0458,60.4875],[-130.9208,60.4958],[-130.875,60.5292],[-130.6916,60.4958],[-130.6041,60.5458],[-130.5916,60.5875],[-130.1875,60.6625],[-130.0791,60.6167],[-129.8916,60.6167],[-129.8291,60.675],[-129.85,60.725],[-129.8041,60.7375],[-129.7666,60.7917],[-129.6875,60.7708],[-129.5375,60.8042],[-129.4791,60.8875],[-129.3833,60.8792],[-129.4041,60.7625],[-129.3666,60.7417],[-129.35,60.6458],[-129.4291,60.6292],[-129.4125,60.575],[-129.3583,60.5083],[-129.2625,60.475]]]},"properties":{"Area":4169.0777,"BBasin":"Upper Liard","Sub_B":"SUB_19","Downstream":"SUB_25","Gauged":0,"Reach":66.8261,"Checked":1,"B":19,"SubId":19,"rvhName":"SUB_19","DowSubId":"25","BasArea":4169060000,"rmapshaperid":16}},{"type":"Feature","geometry":{"type":"Polygon","coordinates":[[[-127.0291,61.2083],[-127.0083,61.1375],[-127.1291,61.0667],[-127.1916,61.0208],[-127.2166,60.9167],[-127.275,60.8625],[-127.3416,60.8417],[-127.4208,60.7583],[-127.4041,60.6708],[-127.375,60.6375],[-127.3875,60.55],[-127.375,60.4708],[-127.4416,60.45],[-127.4375,60.4167],[-127.3166,60.3917],[-127.3333,60.3042],[-127.2916,60.3],[-127.2708,60.2208],[-127.1708,60.1958],[-127.15,60.1458],[-127.1416,60.1208],[-127.3,60.0625],[-127.4083,60.0958],[-127.4416,60.0667],[-127.625,60.0958],[-127.675,60.1583],[-127.7791,60.2],[-127.8208,60.3083],[-127.7541,60.3708],[-127.7666,60.4125],[-127.8416,60.4125],[-127.8666,60.4458],[-127.8875,60.55],[-127.8375,60.5708],[-127.9,60.6375],[-127.85,60.6792],[-127.8916,60.7542],[-127.9416,60.8875],[-128.0666,60.875],[-128.025,60.9708],[-128.0291,61.0417],[-128.1291,61.0875],[-128.1041,61.2042],[-127.8958,61.2208],[-127.8666,61.2],[-127.6875,61.1833],[-127.6083,61.2417],[-127.5916,61.3208],[-127.7291,61.3792],[-127.8208,61.5167],[-127.6708,61.5375],[-127.4833,61.4917],[-127.4458,61.4458],[-127.325,61.5042],[-127.2375,61.4792],[-127.1916,61.4],[-127.0916,61.3875],[-127.0833,61.3083],[-127.0291,61.2083]]]},"properties":{"Area":5107.9137,"BBasin":"Central Liard","Sub_B":"SUB_20","Downstream":"SUB_27","Gauged":0,"Reach":116.4773,"Checked":1,"B":20,"SubId":20,"rvhName":"SUB_20","DowSubId":"27","BasArea":5107900000,"rmapshaperid":17}},{"type":"Feature","geometry":{"type":"Polygon","coordinates":[[[-126.8083,60.7667],[-126.8375,60.7],[-126.8,60.6708],[-126.8833,60.5208],[-126.8375,60.45],[-126.7458,60.4708],[-126.6791,60.5167],[-126.5458,60.475],[-126.5708,60.45],[-126.5458,60.3958],[-126.5583,60.3083],[-126.6333,60.2875],[-126.7125,60.1958],[-126.8166,60.15],[-126.85,60.075],[-126.9041,60.0667],[-127.0125,60.0708],[-127.0083,60.1],[-127.15,60.1458],[-127.1708,60.1958],[-127.2708,60.2208],[-127.2916,60.3],[-127.3333,60.3042],[-127.3166,60.3917],[-127.4375,60.4167],[-127.4416,60.45],[-127.375,60.4708],[-127.3875,60.55],[-127.375,60.6375],[-127.4041,60.6708],[-127.4208,60.7583],[-127.3416,60.8417],[-127.275,60.8625],[-127.2166,60.9167],[-127.1916,61.0208],[-127.1291,61.0667],[-127.0916,61.0292],[-126.9583,61.0542],[-126.9083,60.8875],[-126.8708,60.8667],[-126.9,60.7625],[-126.8083,60.7667]]]},"properties":{"Area":2989.9483,"BBasin":"Central Liard","Sub_B":"SUB_21","Downstream":"SUB_27","Gauged":0,"Reach":24.5685,"Checked":1,"B":21,"SubId":21,"rvhName":"SUB_21","DowSubId":"27","BasArea":2989960000,"rmapshaperid":18}},{"type":"Feature","geometry":{"type":"Polygon","coordinates":[[[-122.2333,60.8083],[-122.2041,60.7125],[-122.0958,60.6667],[-122.0583,60.6125],[-121.9541,60.625],[-121.9166,60.65],[-121.775,60.6417],[-121.7833,60.5667],[-121.725,60.4958],[-121.7416,60.4583],[-121.6916,60.4292],[-121.6708,60.3375],[-121.5875,60.35],[-121.5291,60.4],[-121.4833,60.3375],[-121.4083,60.3083],[-121.2708,60.2875],[-121.2958,60.2042],[-121.2541,60.1375],[-121.2,60.1208],[-121.2583,60.075],[-121.2958,60.0875],[-121.3666,60.1292],[-121.5291,60.125],[-121.5541,60.0667],[-121.6791,60.0417],[-121.8541,60.0833],[-121.9291,60.0833],[-122.0958,60.1292],[-122.1375,60.1292],[-122.2291,60.1958],[-122.3208,60.225],[-122.4291,60.1958],[-122.4666,60.1083],[-122.45,60.0708],[-122.6458,60.0708],[-122.6875,60.025],[-122.9708,60.05],[-122.975,60.0792],[-123.0625,60.1042],[-123.2083,60.1208],[-123.2333,60.1875],[-123.3208,60.2],[-123.3375,60.3125],[-123.2958,60.3542],[-123.2166,60.3708],[-123.1375,60.3583],[-123.1125,60.4375],[-123.025,60.5083],[-122.9291,60.5292],[-122.9041,60.6458],[-122.85,60.725],[-122.6708,60.8042],[-122.6208,60.7625],[-122.5583,60.8042],[-122.5666,60.8542],[-122.4458,60.8958],[-122.3416,60.8375],[-122.2333,60.8083]]]},"properties":{"Area":5949.7437,"BBasin":"Lower Liard","Sub_B":"SUB_22","Downstream":"SUB_17","Gauged":0,"Reach":70.5525,"Checked":1,"B":22,"SubId":22,"rvhName":"SUB_22","DowSubId":"17","BasArea":5949770000,"rmapshaperid":19}},{"type":"Feature","geometry":{"type":"Polygon","coordinates":[[[-125.9666,60.7375],[-125.8833,60.6833],[-125.8791,60.575],[-125.8041,60.5583],[-125.6916,60.5708],[-125.6916,60.6125],[-125.5916,60.625],[-125.5625,60.5792],[-125.4833,60.5792],[-125.4458,60.5458],[-125.3458,60.5458],[-125.3,60.4833],[-125.2041,60.4667],[-125.1375,60.4125],[-125.1916,60.3833],[-125.2083,60.3375],[-125.1458,60.2875],[-125.1416,60.2542],[-125.0583,60.2333],[-125.0375,60.1875],[-124.9666,60.1958],[-124.9541,60.2708],[-124.7916,60.3],[-124.6958,60.3],[-124.6708,60.2333],[-124.575,60.2417],[-124.6041,60.1625],[-124.65,60.1375],[-124.875,60.1375],[-124.9291,60.0792],[-124.9333,60.0375],[-125.075,59.9667],[-125.1583,59.9792],[-125.2041,60.0125],[-125.3333,60.0167],[-125.4166,60.0833],[-125.525,60.0958],[-125.6125,60.0875],[-125.6208,60.1292],[-125.675,60.1583],[-125.6708,60.2167],[-125.8041,60.2375],[-125.7958,60.3125],[-125.8791,60.2917],[-125.9666,60.3542],[-126.175,60.4125],[-126.1875,60.4667],[-126.3833,60.4333],[-126.4541,60.4583],[-126.5708,60.45],[-126.5458,60.475],[-126.6791,60.5167],[-126.7458,60.4708],[-126.8375,60.45],[-126.8833,60.5208],[-126.8,60.6708],[-126.8375,60.7],[-126.8083,60.7667],[-126.7416,60.7917],[-126.6541,60.7542],[-126.6125,60.8042],[-126.5208,60.8167],[-126.4208,60.7708],[-126.3708,60.7958],[-126.3333,60.8625],[-126.2208,60.8333],[-126.1291,60.8667],[-126.0583,60.7917],[-126.05,60.7167],[-125.9666,60.7375]]]},"properties":{"Area":4505.9874,"BBasin":"Central Liard","Sub_B":"SUB_23","Downstream":"SUB_28","Gauge":"10BD001","Gauged":1,"Reach":89.642,"Checked":1,"B":23,"SubId":23,"rvhName":"SUB_23","DowSubId":"28","BasArea":4506010000,"rmapshaperid":20}},{"type":"Feature","geometry":{"type":"Polygon","coordinates":[[[-128.0666,60.875],[-127.9416,60.8875],[-127.8916,60.7542],[-127.85,60.6792],[-127.9,60.6375],[-127.8375,60.5708],[-127.8875,60.55],[-127.8666,60.4458],[-127.95,60.4083],[-127.9416,60.3542],[-128.0416,60.3458],[-128.0791,60.3167],[-128.0666,60.2667],[-128.0041,60.2125],[-128.0625,60.1833],[-128.0833,60.0958],[-128.0708,59.9833],[-128.1416,59.9375],[-128.2125,59.9875],[-128.3583,59.9833],[-128.3833,60.025],[-128.4958,60.0417],[-128.4791,60.075],[-128.6458,60.1292],[-128.6833,60.1958],[-128.6833,60.2542],[-128.7166,60.2792],[-128.7166,60.3375],[-128.7583,60.3875],[-128.75,60.425],[-128.7166,60.4625],[-128.7125,60.5417],[-128.75,60.6458],[-128.7458,60.7125],[-128.6875,60.7417],[-128.7583,60.8208],[-128.8458,60.8042],[-128.8583,60.8708],[-128.8333,60.8958],[-128.7208,60.8708],[-128.5708,60.8875],[-128.475,60.8042],[-128.3416,60.7875],[-128.1375,60.8792],[-128.0666,60.875]]]},"properties":{"Area":3776.1215,"BBasin":"Upper Liard","Sub_B":"SUB_24","Downstream":"SUB_31","Gauge":"10AD001","Gauged":1,"Reach":134.5956,"Checked":1,"B":24,"SubId":24,"rvhName":"SUB_24","DowSubId":"31","BasArea":3776110000,"rmapshaperid":21}},{"type":"Feature","geometry":{"type":"Polygon","coordinates":[[[-128.75,60.425],[-128.7583,60.3875],[-128.7166,60.3375],[-128.7166,60.2792],[-128.6833,60.2542],[-128.6833,60.1958],[-128.6458,60.1292],[-128.6333,60.0875],[-128.8833,60.075],[-128.9166,60.025],[-128.9875,60.025],[-129.0375,59.9583],[-129.3,59.9625],[-129.3416,59.875],[-129.4458,59.8333],[-129.5125,59.8042],[-129.5916,59.8083],[-129.6125,59.8458],[-129.6416,59.8958],[-129.6125,59.9292],[-129.6708,60.025],[-129.7375,60.0625],[-129.6458,60.1042],[-129.5875,60.1042],[-129.5375,60.1625],[-129.5458,60.2042],[-129.5554,60.2042],[-129.5625,60.2458],[-129.4333,60.2333],[-129.2916,60.2375],[-129.2375,60.3167],[-129.3083,60.3875],[-129.3083,60.4375],[-129.2625,60.475],[-129.1625,60.5042],[-129.1041,60.45],[-128.95,60.5333],[-128.8791,60.5208],[-128.8666,60.4833],[-128.75,60.425]]]},"properties":{"Area":2416.7122,"BBasin":"Upper Liard","Sub_B":"SUB_25","Downstream":"SUB_31","Gauge":"10AA001","Gauged":1,"Reach":101.9841,"Checked":1,"B":25,"SubId":25,"rvhName":"SUB_25","DowSubId":"31","BasArea":2416720000,"rmapshaperid":22}},{"type":"Feature","geometry":{"type":"Polygon","coordinates":[[[-129.5554,60.2042],[-129.5583,60.2042],[-129.8333,60.1833],[-129.8625,60.2125],[-130.0208,60.1958],[-130.05,60.1083],[-130.1375,60.1167],[-130.1166,60.0458],[-130.2083,60.0333],[-130.1958,59.9917],[-130.3125,59.8958],[-130.4333,59.875],[-130.5291,59.7333],[-130.6291,59.7292],[-130.6208,59.7708],[-130.7125,59.8167],[-130.725,59.8667],[-130.6791,59.9208],[-130.6833,60.0042],[-130.8916,59.9917],[-130.9416,60.0542],[-130.9166,60.125],[-130.9625,60.175],[-131.0708,60.1958],[-131.1333,60.2458],[-131.2125,60.2542],[-131.2833,60.2125],[-131.3125,60.2708],[-131.4166,60.3],[-131.3833,60.375],[-131.3333,60.3583],[-131.275,60.4125],[-131.2041,60.3875],[-131.1791,60.35],[-130.9958,60.3458],[-130.9125,60.3708],[-130.8458,60.3458],[-130.85,60.2667],[-130.7208,60.2292],[-130.6333,60.1583],[-130.575,60.225],[-130.4583,60.2292],[-130.3,60.2583],[-130.2291,60.2375],[-130.125,60.2375],[-130.0916,60.2708],[-129.9833,60.25],[-129.8958,60.2583],[-129.8291,60.3125],[-129.7541,60.3083],[-129.6458,60.25],[-129.5625,60.2458],[-129.5554,60.2042]]]},"properties":{"Area":2343.4179,"BBasin":"Upper Liard","Sub_B":"SUB_26","Downstream":"SUB_25","Gauged":0,"Reach":33.0907,"Checked":1,"B":26,"SubId":26,"rvhName":"SUB_26","DowSubId":"25","BasArea":2347170000,"rmapshaperid":23}},{"type":"Feature","geometry":{"type":"Polygon","coordinates":[[[-126.9041,60.0667],[-126.8625,60.0375],[-126.8958,59.9125],[-126.875,59.8792],[-126.8833,59.8],[-126.8083,59.7417],[-126.85,59.7125],[-126.8791,59.6875],[-126.9708,59.6875],[-127.0166,59.725],[-127.0958,59.7292],[-127.1958,59.7625],[-127.275,59.7542],[-127.3208,59.8083],[-127.3041,59.9042],[-127.2583,59.9375],[-127.2458,59.9875],[-127.2958,60],[-127.3,60.0625],[-127.1416,60.1208],[-127.15,60.1458],[-127.0083,60.1],[-127.0125,60.0708],[-126.9041,60.0667]]]},"properties":{"Area":920.778,"BBasin":"Central Liard","Sub_B":"SUB_27","Downstream":"SUB_38","Gauge":"10BC001","Gauged":1,"Reach":70.4698,"Checked":1,"B":27,"SubId":27,"rvhName":"SUB_27","DowSubId":"38","BasArea":920820000,"rmapshaperid":24}},{"type":"Feature","geometry":{"type":"Polygon","coordinates":[[[-124.575,60.2417],[-124.4791,60.2375],[-124.3541,60.15],[-124.1875,60.0875],[-124.3125,59.9625],[-124.2541,59.9042],[-124.1625,59.8667],[-124.0958,59.8125],[-124.225,59.7708],[-124.3041,59.7208],[-124.4583,59.75],[-124.5833,59.7792],[-124.6083,59.7458],[-124.7041,59.7458],[-124.7833,59.7208],[-124.775,59.6792],[-124.8958,59.6708],[-124.9166,59.7083],[-124.9958,59.7333],[-125.0166,59.7833],[-125.0958,59.8042],[-125.2,59.8],[-125.2291,59.8208],[-125.3458,59.7958],[-125.3875,59.8417],[-125.525,59.8083],[-125.55,59.8625],[-125.7,59.8708],[-125.7833,59.8875],[-125.8708,59.8667],[-125.9958,59.8917],[-125.9625,59.9375],[-125.8541,59.9917],[-125.8958,60.025],[-125.8875,60.0875],[-125.9583,60.1667],[-125.9541,60.25],[-125.8791,60.2917],[-125.7958,60.3125],[-125.8041,60.2375],[-125.6708,60.2167],[-125.675,60.1583],[-125.6208,60.1292],[-125.6125,60.0875],[-125.525,60.0958],[-125.4166,60.0833],[-125.3333,60.0167],[-125.2041,60.0125],[-125.1583,59.9792],[-125.075,59.9667],[-124.9333,60.0375],[-124.9291,60.0792],[-124.875,60.1375],[-124.65,60.1375],[-124.6041,60.1625],[-124.575,60.2417]]]},"properties":{"Area":3471.5988,"BBasin":"Central Liard","Sub_B":"SUB_28","Downstream":"SUB_32","Gauged":0,"Reach":99.8147,"Checked":1,"B":28,"SubId":28,"rvhName":"SUB_28","DowSubId":"32","BasArea":3471590000,"rmapshaperid":25}},{"type":"Feature","geometry":{"type":"Polygon","coordinates":[[[-125.8791,60.2917],[-125.9541,60.25],[-125.9583,60.1667],[-125.8875,60.0875],[-125.8958,60.025],[-125.8541,59.9917],[-125.9625,59.9375],[-125.9958,59.8917],[-126.0958,59.875],[-126.1791,59.8375],[-126.2541,59.75],[-126.125,59.7375],[-126.1208,59.6625],[-126.2291,59.6042],[-126.4125,59.6],[-126.4541,59.55],[-126.5625,59.6833],[-126.825,59.6833],[-126.85,59.7125],[-126.8083,59.7417],[-126.8833,59.8],[-126.875,59.8792],[-126.8958,59.9125],[-126.8625,60.0375],[-126.9041,60.0667],[-126.85,60.075],[-126.8166,60.15],[-126.7125,60.1958],[-126.6333,60.2875],[-126.5583,60.3083],[-126.5458,60.3958],[-126.5708,60.45],[-126.4541,60.4583],[-126.3833,60.4333],[-126.1875,60.4667],[-126.175,60.4125],[-125.9666,60.3542],[-125.8791,60.2917]]]},"properties":{"Area":3699.807,"BBasin":"Central Liard","Sub_B":"SUB_29","Downstream":"SUB_38","Gauge":"10BE013","Gauged":1,"Reach":67.2157,"Checked":1,"B":29,"SubId":29,"rvhName":"SUB_29","DowSubId":"38","BasArea":3699820000,"rmapshaperid":26}},{"type":"Feature","geometry":{"type":"Polygon","coordinates":[[[-121.2958,60.0875],[-121.4541,59.9917],[-121.5541,59.9875],[-121.6,59.9375],[-121.6791,59.8958],[-121.825,59.8833],[-121.8291,59.8],[-121.8083,59.6708],[-121.8583,59.65],[-121.9833,59.6375],[-122.0291,59.575],[-122.1375,59.5458],[-122.25,59.5542],[-122.4791,59.55],[-122.625,59.5708],[-122.675,59.6458],[-122.7666,59.6458],[-122.8083,59.6125],[-123.0166,59.6458],[-123.0666,59.6292],[-123.1916,59.6292],[-123.2666,59.6583],[-123.2875,59.75],[-123.4333,59.7875],[-123.4333,59.925],[-123.3208,59.9917],[-123.2541,59.9583],[-123.15,59.9542],[-123.0625,59.9875],[-122.9583,59.9833],[-122.9708,60.05],[-122.6875,60.025],[-122.6458,60.0708],[-122.45,60.0708],[-122.4666,60.1083],[-122.4291,60.1958],[-122.3208,60.225],[-122.2291,60.1958],[-122.1375,60.1292],[-122.0958,60.1292],[-121.9291,60.0833],[-121.8541,60.0833],[-121.6791,60.0417],[-121.5541,60.0667],[-121.5291,60.125],[-121.3666,60.1292],[-121.2958,60.0875]]]},"properties":{"Area":4729.734,"BBasin":"Petitot","Sub_B":"SUB_30","Downstream":"SUB_32","Gauge":"10DA001","Gauged":1,"Reach":90.5406,"Checked":1,"B":30,"SubId":30,"rvhName":"SUB_30","DowSubId":"32","BasArea":4729740000,"rmapshaperid":27}},{"type":"Feature","geometry":{"type":"Polygon","coordinates":[[[-127.3,60.0625],[-127.2958,60],[-127.2458,59.9875],[-127.2583,59.9375],[-127.3041,59.9042],[-127.3208,59.8083],[-127.275,59.7542],[-127.1958,59.7625],[-127.0958,59.7292],[-127.1916,59.7333],[-127.2416,59.6792],[-127.3541,59.6625],[-127.5291,59.6583],[-127.6541,59.6833],[-127.7458,59.6667],[-127.7458,59.6208],[-127.8041,59.6],[-127.9166,59.6125],[-128.0208,59.5708],[-128.0958,59.5875],[-128.1,59.625],[-128.1916,59.6208],[-128.375,59.6333],[-128.3791,59.5792],[-128.5416,59.55],[-128.6458,59.5458],[-128.6375,59.6083],[-128.7208,59.6792],[-128.7916,59.6708],[-128.7583,59.75],[-128.6333,59.7625],[-128.5625,59.8375],[-128.6666,59.9042],[-128.8666,59.9042],[-128.9291,59.8792],[-128.95,59.8292],[-129.0958,59.8375],[-129.1791,59.8125],[-129.3583,59.8167],[-129.4458,59.8333],[-129.3416,59.875],[-129.3,59.9625],[-129.0375,59.9583],[-128.9875,60.025],[-128.9166,60.025],[-128.8833,60.075],[-128.6333,60.0875],[-128.6458,60.1292],[-128.4791,60.075],[-128.4958,60.0417],[-128.3833,60.025],[-128.3583,59.9833],[-128.2125,59.9875],[-128.1416,59.9375],[-128.0708,59.9833],[-128.0833,60.0958],[-128.0625,60.1833],[-128.0041,60.2125],[-128.0666,60.2667],[-128.0791,60.3167],[-128.0416,60.3458],[-127.9416,60.3542],[-127.95,60.4083],[-127.8666,60.4458],[-127.8416,60.4125],[-127.7666,60.4125],[-127.7541,60.3708],[-127.8208,60.3083],[-127.7791,60.2],[-127.675,60.1583],[-127.625,60.0958],[-127.4416,60.0667],[-127.4083,60.0958],[-127.3,60.0625]]]},"properties":{"Area":4919.2374,"BBasin":"Upper Liard","Sub_B":"SUB_31","Downstream":"SUB_38","Gauge":"10BE006","Gauged":1,"Reach":195.2377,"Checked":1,"B":31,"SubId":31,"rvhName":"SUB_31","DowSubId":"38","BasArea":4919230000,"rmapshaperid":28}},{"type":"Feature","geometry":{"type":"Polygon","coordinates":[[[-124.6083,60.9542],[-124.575,60.9333],[-124.5666,60.85],[-124.4458,60.8417],[-124.3791,60.8167],[-124.3333,60.8833],[-124.2666,60.8375],[-124.1416,60.8292],[-124.0625,60.8458],[-123.8666,60.6625],[-123.7791,60.5458],[-123.6958,60.5042],[-123.6166,60.4375],[-123.6125,60.3833],[-123.4541,60.2292],[-123.3208,60.2],[-123.2333,60.1875],[-123.2083,60.1208],[-123.0625,60.1042],[-122.975,60.0792],[-122.9708,60.05],[-122.9583,59.9833],[-123.0625,59.9875],[-123.15,59.9542],[-123.2541,59.9583],[-123.3208,59.9917],[-123.4333,59.925],[-123.4333,59.7875],[-123.2875,59.75],[-123.2666,59.6583],[-123.1916,59.6292],[-123.3,59.6042],[-123.6541,59.6125],[-123.7375,59.575],[-124.0041,59.5292],[-124.1416,59.4583],[-124.1083,59.5083],[-124.2083,59.5],[-124.2916,59.4542],[-124.3791,59.4708],[-124.4666,59.4667],[-124.6083,59.5083],[-124.5958,59.5792],[-124.6208,59.6208],[-124.5333,59.6458],[-124.4583,59.75],[-124.3041,59.7208],[-124.225,59.7708],[-124.0958,59.8125],[-124.1625,59.8667],[-124.2541,59.9042],[-124.3125,59.9625],[-124.1875,60.0875],[-124.3541,60.15],[-124.4791,60.2375],[-124.575,60.2417],[-124.6708,60.2333],[-124.6958,60.3],[-124.7666,60.4],[-124.775,60.4375],[-124.8875,60.4917],[-124.8875,60.6125],[-124.9583,60.6792],[-124.9791,60.7333],[-124.85,60.7708],[-124.8625,60.8583],[-124.8625,60.9042],[-124.8208,60.9625],[-124.7125,60.9417],[-124.6083,60.9542]]]},"properties":{"Area":8608.1243,"BBasin":"Lower Liard","Sub_B":"SUB_32","Downstream":"SUB_17","Gauge":"10ED001","Gauged":1,"Reach":235.2451,"Checked":1,"B":32,"SubId":32,"rvhName":"SUB_32","DowSubId":"17","BasArea":8608130000,"rmapshaperid":29}},{"type":"Feature","geometry":{"type":"Polygon","coordinates":[[[-118.5625,59.4417],[-118.6416,59.4375],[-118.7041,59.5],[-118.7125,59.55],[-118.8125,59.5958],[-118.8875,59.5958],[-118.9625,59.625],[-119.0041,59.7208],[-119.1,59.725],[-119.25,59.7667],[-119.2875,59.8],[-119.2833,59.8708],[-119.1583,59.95],[-119.1458,60.0333],[-119.2125,60.0583],[-119.2083,60.0917],[-118.9,60.1292],[-118.8166,60.1292],[-118.7791,60.1583],[-118.625,60.1458],[-118.5208,60.1125],[-118.4333,60.1417],[-118.2041,60.1458],[-118.1416,60.1208],[-118.0166,60.2],[-117.8708,60.1875],[-117.9458,60.0917],[-117.8083,60.0542],[-117.8,59.9917],[-117.7333,60.0083],[-117.6708,59.9917],[-117.7,59.9292],[-117.65,59.9083],[-117.7,59.85],[-117.825,59.8042],[-117.8125,59.7458],[-117.9333,59.7083],[-117.875,59.675],[-117.8791,59.6125],[-118.1375,59.525],[-118.2916,59.5583],[-118.3041,59.5917],[-118.3833,59.6083],[-118.4333,59.5542],[-118.4833,59.5583],[-118.5625,59.4417]]]},"properties":{"Area":4719.2934,"BBasin":"Petitot","Sub_B":"SUB_33","Downstream":"SUB_36","Gauged":0,"Reach":40.2283,"Checked":1,"B":33,"SubId":33,"rvhName":"SUB_33","DowSubId":"36","BasArea":4719290000,"rmapshaperid":30}},{"type":"Feature","geometry":{"type":"Polygon","coordinates":[[[-128.6458,59.5458],[-128.6625,59.4917],[-128.8583,59.4167],[-128.975,59.5542],[-129.025,59.5583],[-129.0791,59.5],[-129.125,59.5167],[-129.0875,59.5708],[-129.2125,59.6],[-129.3208,59.5875],[-129.3875,59.6125],[-129.4333,59.65],[-129.4291,59.6958],[-129.3625,59.7417],[-129.1625,59.7708],[-129.0875,59.8],[-129.0958,59.8375],[-128.95,59.8292],[-128.9291,59.8792],[-128.8666,59.9042],[-128.6666,59.9042],[-128.5625,59.8375],[-128.6333,59.7625],[-128.7583,59.75],[-128.7916,59.6708],[-128.7208,59.6792],[-128.6375,59.6083],[-128.6458,59.5458]]]},"properties":{"Area":1321.3153,"BBasin":"Upper Liard","Sub_B":"SUB_34","Downstream":"SUB_31","Gauge":"10AC006","Gauged":1,"Reach":61.9879,"Checked":1,"B":34,"SubId":34,"rvhName":"SUB_34","DowSubId":"31","BasArea":1321320000,"rmapshaperid":31}},{"type":"Feature","geometry":{"type":"Polygon","coordinates":[[[-129.6125,59.8458],[-129.7333,59.7833],[-129.6166,59.7625],[-129.6208,59.7375],[-129.7416,59.7375],[-129.925,59.6708],[-129.9833,59.6125],[-130.0041,59.55],[-130.1833,59.5417],[-130.1541,59.5083],[-130.2125,59.4625],[-130.1916,59.4083],[-130.3166,59.4458],[-130.3666,59.4125],[-130.4416,59.4875],[-130.4125,59.5667],[-130.5625,59.5458],[-130.65,59.5875],[-130.6166,59.6458],[-130.6291,59.7292],[-130.5291,59.7333],[-130.4333,59.875],[-130.3125,59.8958],[-130.1958,59.9917],[-130.2083,60.0333],[-130.1166,60.0458],[-130.1375,60.1167],[-130.05,60.1083],[-130.0208,60.1958],[-129.8625,60.2125],[-129.8333,60.1833],[-129.5583,60.2042],[-129.5458,60.2042],[-129.5375,60.1625],[-129.5875,60.1042],[-129.6458,60.1042],[-129.7375,60.0625],[-129.6708,60.025],[-129.6125,59.9292],[-129.6416,59.8958],[-129.6125,59.8458]]]},"properties":{"Area":2674.9161,"BBasin":"Upper Liard","Sub_B":"SUB_35","Downstream":"SUB_25","Gauge":"10AA004","Gauged":1,"Reach":0,"Checked":1,"B":35,"SubId":35,"rvhName":"SUB_35","DowSubId":"25","BasArea":2674920000,"rmapshaperid":32}},{"type":"Feature","geometry":{"type":"Polygon","coordinates":[[[-119.2833,59.8708],[-119.2875,59.8],[-119.25,59.7667],[-119.1,59.725],[-119.0041,59.7208],[-118.9625,59.625],[-118.8875,59.5958],[-118.8125,59.5958],[-118.7125,59.55],[-118.7041,59.5],[-118.6416,59.4375],[-118.5625,59.4417],[-118.5833,59.3542],[-118.625,59.3083],[-118.8333,59.2708],[-119.0125,59.2792],[-119.1083,59.3125],[-119.1166,59.3375],[-119.3166,59.4],[-119.3333,59.4292],[-119.4666,59.4208],[-119.5458,59.4542],[-119.5833,59.425],[-119.5625,59.3708],[-119.6958,59.3417],[-119.7833,59.3042],[-119.8708,59.3458],[-119.9291,59.4458],[-119.9333,59.4833],[-120.0208,59.5167],[-120.1333,59.5167],[-120.1708,59.5458],[-120.3,59.55],[-120.4208,59.525],[-120.4875,59.5458],[-120.4916,59.575],[-120.6333,59.6125],[-120.6791,59.6375],[-120.6791,59.7417],[-120.7208,59.75],[-120.7,59.8625],[-120.7708,59.8792],[-120.8,59.9375],[-120.7625,60.0208],[-120.6166,60.1125],[-120.5583,60.1],[-120.4083,60.1958],[-120.3083,60.1958],[-120.2875,60.1625],[-120.325,60.0583],[-120.2916,59.9958],[-120.2291,59.95],[-120.1,59.9458],[-120.0583,60.0042],[-120.0083,60.0042],[-119.8791,59.9542],[-119.8,59.9708],[-119.7666,59.9333],[-119.6416,59.9292],[-119.5666,59.8875],[-119.2833,59.8708]]]},"properties":{"Area":5962.884,"BBasin":"Petitot","Sub_B":"SUB_36","Downstream":"SUB_40","Gauged":0,"Reach":116.8864,"Checked":1,"B":36,"SubId":36,"rvhName":"SUB_36","DowSubId":"40","BasArea":5962880000,"rmapshaperid":33}},{"type":"Feature","geometry":{"type":"Polygon","coordinates":[[[-129.0958,59.8375],[-129.0875,59.8],[-129.1625,59.7708],[-129.3625,59.7417],[-129.4291,59.6958],[-129.4333,59.65],[-129.3875,59.6125],[-129.4916,59.6125],[-129.5291,59.5833],[-129.5541,59.5042],[-129.7041,59.4708],[-129.6958,59.3958],[-129.8291,59.3375],[-129.9333,59.3375],[-129.9333,59.3],[-130.0208,59.2792],[-130.1458,59.2917],[-130.225,59.325],[-130.1916,59.4083],[-130.2125,59.4625],[-130.1541,59.5083],[-130.1833,59.5417],[-130.0041,59.55],[-129.9833,59.6125],[-129.925,59.6708],[-129.7416,59.7375],[-129.6208,59.7375],[-129.6166,59.7625],[-129.7333,59.7833],[-129.6125,59.8458],[-129.5916,59.8083],[-129.5125,59.8042],[-129.4458,59.8333],[-129.3583,59.8167],[-129.1791,59.8125],[-129.0958,59.8375]]]},"properties":{"Area":1580.7382,"BBasin":"Upper Liard","Sub_B":"SUB_37","Downstream":"SUB_34","Gauged":0,"Reach":0,"Checked":1,"B":37,"SubId":37,"rvhName":"SUB_37","DowSubId":"34","BasArea":1580740000,"rmapshaperid":34}},{"type":"Feature","geometry":{"type":"Polygon","coordinates":[[[-127.0958,59.7292],[-127.0166,59.725],[-126.9708,59.6875],[-126.8791,59.6875],[-126.85,59.7125],[-126.825,59.6833],[-126.5625,59.6833],[-126.4541,59.55],[-126.4125,59.6],[-126.2291,59.6042],[-126.1208,59.6625],[-126.0625,59.625],[-126.0416,59.4292],[-126.0791,59.4167],[-126.0708,59.3208],[-126.0416,59.2958],[-126.1583,59.2542],[-126.1916,59.2083],[-126.3333,59.1958],[-126.4083,59.1667],[-126.4791,59.2208],[-126.6625,59.2292],[-126.8458,59.225],[-126.8458,59.2542],[-126.9875,59.3542],[-127.1375,59.4208],[-127.1375,59.525],[-127.0958,59.5333],[-127.0875,59.6167],[-127.1458,59.6125],[-127.2875,59.5708],[-127.2958,59.6125],[-127.3541,59.6625],[-127.2416,59.6792],[-127.1916,59.7333],[-127.0958,59.7292]]]},"properties":{"Area":2802.0989,"BBasin":"Central Liard","Sub_B":"SUB_38","Downstream":"SUB_43","Gauge":"10BE001","Gauged":1,"Reach":101.2701,"Checked":1,"B":38,"SubId":38,"rvhName":"SUB_38","DowSubId":"43","BasArea":2802060000,"rmapshaperid":35}},{"type":"Feature","geometry":{"type":"Polygon","coordinates":[[[-120.6166,60.1125],[-120.7625,60.0208],[-120.8,59.9375],[-120.7708,59.8792],[-120.7,59.8625],[-120.7208,59.75],[-120.6791,59.7417],[-120.6791,59.6375],[-120.6333,59.6125],[-120.4916,59.575],[-120.4875,59.5458],[-120.5416,59.4292],[-120.5833,59.4125],[-120.5541,59.3042],[-120.5666,59.2208],[-120.6541,59.2],[-120.75,59.1167],[-120.8375,59.1542],[-120.9625,59.1708],[-121.0041,59.2583],[-121.1291,59.25],[-121.1625,59.2083],[-121.3291,59.1958],[-121.3958,59.2042],[-121.5416,59.2292],[-121.5958,59.2625],[-121.6208,59.3458],[-121.7291,59.3917],[-121.9041,59.3583],[-122.0791,59.3375],[-122.1208,59.3667],[-122.125,59.4167],[-122.2375,59.4458],[-122.25,59.5542],[-122.1375,59.5458],[-122.0291,59.575],[-121.9833,59.6375],[-121.8583,59.65],[-121.8083,59.6708],[-121.8291,59.8],[-121.825,59.8833],[-121.6791,59.8958],[-121.6,59.9375],[-121.5541,59.9875],[-121.4541,59.9917],[-121.2958,60.0875],[-121.2583,60.075],[-121.0208,60.0375],[-120.85,60.0542],[-120.8,60.0917],[-120.675,60.125],[-120.6166,60.1125]]]},"properties":{"Area":6252.1169,"BBasin":"Petitot","Sub_B":"SUB_40","Downstream":"SUB_30","Gauged":0,"Reach":91.5324,"Checked":1,"B":40,"SubId":40,"rvhName":"SUB_40","DowSubId":"30","BasArea":6252100000,"rmapshaperid":36}},{"type":"Feature","geometry":{"type":"Polygon","coordinates":[[[-127.3541,59.6625],[-127.2958,59.6125],[-127.2875,59.5708],[-127.4583,59.4375],[-127.3791,59.4125],[-127.3916,59.3583],[-127.4916,59.3042],[-127.5166,59.2167],[-127.53,59.09],[-127.6,59.075],[-127.6125,58.9625],[-127.7875,59.0458],[-127.925,59.0583],[-128.0666,59.0083],[-128.2291,58.9792],[-128.4041,58.9833],[-128.4416,59.025],[-128.425,59.0833],[-128.5291,59.1208],[-128.5,59.1542],[-128.5708,59.2042],[-128.575,59.2667],[-128.6666,59.2792],[-128.7333,59.2625],[-128.7791,59.2917],[-128.8583,59.4167],[-128.6625,59.4917],[-128.6458,59.5458],[-128.5416,59.55],[-128.3791,59.5792],[-128.375,59.6333],[-128.1916,59.6208],[-128.1,59.625],[-128.0958,59.5875],[-128.0208,59.5708],[-127.9166,59.6125],[-127.8041,59.6],[-127.7458,59.6208],[-127.7458,59.6667],[-127.6541,59.6833],[-127.5291,59.6583],[-127.3541,59.6625]]]},"properties":{"Area":4380.0838,"BBasin":"Central Liard","Sub_B":"SUB_41","Downstream":"SUB_38","Gauge":"10BB001","Gauged":1,"Reach":115.5441,"Checked":1,"B":41,"SubId":41,"rvhName":"SUB_41","DowSubId":"38","BasArea":4380130000,"rmapshaperid":37}},{"type":"Feature","geometry":{"type":"Polygon","coordinates":[[[-123.1916,59.6292],[-123.0666,59.6292],[-123.0166,59.6458],[-122.8083,59.6125],[-122.7666,59.6458],[-122.675,59.6458],[-122.625,59.5708],[-122.4791,59.55],[-122.25,59.5542],[-122.2375,59.4458],[-122.125,59.4167],[-122.1208,59.3667],[-122.0791,59.3375],[-122.1,59.2583],[-122.1,59.1625],[-122.1791,59.1417],[-122.3375,59.1333],[-122.3916,59.1083],[-122.4541,59.0333],[-122.4625,58.9542],[-122.4208,58.9],[-122.4,58.775],[-122.3583,58.7083],[-122.3583,58.65],[-122.3291,58.5708],[-122.4541,58.5917],[-122.5208,58.6583],[-122.6041,58.675],[-122.6958,58.6125],[-122.7666,58.6208],[-122.7,58.7458],[-122.7666,58.7792],[-122.8833,58.8042],[-122.8916,58.8875],[-123.0416,58.8958],[-123.1458,58.9458],[-123.2125,59],[-123.2791,58.9958],[-123.3333,59.025],[-123.4166,59],[-123.525,58.9917],[-123.5708,59.0292],[-123.6583,59.0583],[-123.7666,59.0625],[-123.7708,59.0958],[-123.8791,59.0917],[-123.9166,59.1375],[-124.0125,59.1667],[-124.0291,59.25],[-124.1291,59.3458],[-124.2125,59.3708],[-124.1416,59.4583],[-124.0041,59.5292],[-123.7375,59.575],[-123.6541,59.6125],[-123.3,59.6042],[-123.1916,59.6292]]]},"properties":{"Area":7643.8812,"BBasin":"Fort Nelson","Sub_B":"SUB_42","Downstream":"SUB_32","Gauged":0,"Reach":212.6303,"Checked":1,"B":42,"SubId":42,"rvhName":"SUB_42","DowSubId":"32","BasArea":7643900000,"rmapshaperid":38}},{"type":"Feature","geometry":{"type":"Polygon","coordinates":[[[-125.9958,59.8917],[-125.8708,59.8667],[-125.7833,59.8875],[-125.7,59.8708],[-125.55,59.8625],[-125.525,59.8083],[-125.3875,59.8417],[-125.3458,59.7958],[-125.2291,59.8208],[-125.2,59.8],[-125.0958,59.8042],[-125.0166,59.7833],[-124.9958,59.7333],[-124.9166,59.7083],[-124.8958,59.6708],[-124.775,59.6792],[-124.7833,59.7208],[-124.7041,59.7458],[-124.6083,59.7458],[-124.5833,59.7792],[-124.4583,59.75],[-124.5333,59.6458],[-124.6208,59.6208],[-124.5958,59.5792],[-124.6083,59.5083],[-124.6541,59.4583],[-124.7416,59.4625],[-124.775,59.4],[-124.7,59.3667],[-124.6791,59.3083],[-124.5875,59.2375],[-124.5833,59.1583],[-124.6416,59.1458],[-124.725,59.1917],[-124.7708,59.15],[-124.8583,59.175],[-124.8916,59.1542],[-125.0125,59.15],[-125.0833,59.1792],[-125.2958,59.1875],[-125.2791,59.1292],[-125.3375,59.0917],[-125.55,59.05],[-125.5833,59.0125],[-125.6625,59.0125],[-125.6583,58.9458],[-125.625,58.9042],[-125.6041,58.85],[-125.8041,58.8333],[-125.9208,58.8375],[-126,58.8042],[-126.1,58.7958],[-126.1416,58.8583],[-126.1625,58.9458],[-126.125,59],[-126.05,59.0375],[-126.1166,59.1375],[-126.1291,59.1875],[-126.1916,59.2083],[-126.1583,59.2542],[-126.0416,59.2958],[-126.0708,59.3208],[-126.0791,59.4167],[-126.0416,59.4292],[-126.0625,59.625],[-126.1208,59.6625],[-126.125,59.7375],[-126.2541,59.75],[-126.1791,59.8375],[-126.0958,59.875],[-125.9958,59.8917]]]},"properties":{"Area":7102.5161,"BBasin":"Central Liard","Sub_B":"SUB_43","Downstream":"SUB_32","Gauge":"10BE005","Gauged":1,"Reach":187.2356,"Checked":1,"B":43,"SubId":43,"rvhName":"SUB_43","DowSubId":"32","BasArea":7102510000,"rmapshaperid":39}},{"type":"Feature","geometry":{"type":"Polygon","coordinates":[[[-124.1416,59.4583],[-124.2125,59.3708],[-124.1291,59.3458],[-124.0291,59.25],[-124.0125,59.1667],[-123.9166,59.1375],[-123.8791,59.0917],[-123.7708,59.0958],[-123.7666,59.0625],[-123.7916,59.0417],[-124.0125,59.025],[-124.125,58.9417],[-124.2166,58.9208],[-124.15,58.8667],[-124.0375,58.8833],[-124.0625,58.7833],[-123.9916,58.75],[-124.0041,58.6958],[-124.0791,58.6958],[-124.2583,58.6667],[-124.2833,58.6917],[-124.4666,58.6917],[-124.5666,58.6667],[-124.6958,58.6792],[-124.8625,58.7917],[-124.8583,58.825],[-124.7833,58.8417],[-124.7666,58.9375],[-124.5875,58.9667],[-124.5541,59.0333],[-124.6083,59.075],[-124.6416,59.1458],[-124.5833,59.1583],[-124.5875,59.2375],[-124.6791,59.3083],[-124.7,59.3667],[-124.775,59.4],[-124.7416,59.4625],[-124.6541,59.4583],[-124.6083,59.5083],[-124.4666,59.4667],[-124.3791,59.4708],[-124.2916,59.4542],[-124.2083,59.5],[-124.1083,59.5083],[-124.1416,59.4583]]]},"properties":{"Area":3199.3167,"BBasin":"Central Liard","Sub_B":"SUB_44","Downstream":"SUB_32","Gauged":0,"Reach":50.4267,"Checked":1,"B":44,"SubId":44,"rvhName":"SUB_44","DowSubId":"32","BasArea":3199270000,"rmapshaperid":40}},{"type":"Feature","geometry":{"type":"Polygon","coordinates":[[[-126.1916,59.2083],[-126.1291,59.1875],[-126.1166,59.1375],[-126.05,59.0375],[-126.125,59],[-126.1625,58.9458],[-126.1416,58.8583],[-126.1,58.7958],[-126.2125,58.7458],[-126.2541,58.6833],[-126.3208,58.6833],[-126.3541,58.6292],[-126.4333,58.6042],[-126.6,58.5875],[-126.7291,58.6708],[-126.8583,58.6458],[-126.8708,58.7792],[-126.9208,58.8083],[-127.0166,58.7875],[-127.0541,58.8375],[-127,58.9125],[-126.9208,58.9792],[-126.9708,59.0417],[-126.9666,59.1167],[-127.0166,59.1417],[-127.125,59.1292],[-127.1875,59.2],[-127.15,59.2583],[-127.1916,59.3333],[-127.3166,59.3125],[-127.3916,59.3583],[-127.3791,59.4125],[-127.4583,59.4375],[-127.2875,59.5708],[-127.1458,59.6125],[-127.0875,59.6167],[-127.0958,59.5333],[-127.1375,59.525],[-127.1375,59.4208],[-126.9875,59.3542],[-126.8458,59.2542],[-126.8458,59.225],[-126.6625,59.2292],[-126.4791,59.2208],[-126.4083,59.1667],[-126.3333,59.1958],[-126.1916,59.2083]]]},"properties":{"Area":3613.6359,"BBasin":"Central Liard","Sub_B":"SUB_45","Downstream":"SUB_38","Gauge":"10BE012","Gauged":1,"Reach":68.7757,"Checked":1,"B":45,"SubId":45,"rvhName":"SUB_45","DowSubId":"38","BasArea":3613670000,"rmapshaperid":41}},{"type":"Feature","geometry":{"type":"Polygon","coordinates":[[[-128.8583,59.4167],[-128.7791,59.2917],[-128.7333,59.2625],[-128.6666,59.2792],[-128.575,59.2667],[-128.5708,59.2042],[-128.5,59.1542],[-128.5291,59.1208],[-128.425,59.0833],[-128.4416,59.025],[-128.4041,58.9833],[-128.4791,58.9542],[-128.4791,58.925],[-128.5583,58.8875],[-128.65,58.7625],[-128.775,58.7708],[-128.9,58.7417],[-128.8875,58.6875],[-128.9583,58.6792],[-129,58.6208],[-129.0875,58.6],[-129.15,58.5583],[-129.1625,58.6125],[-129.3541,58.6333],[-129.3541,58.6625],[-129.4875,58.6833],[-129.5166,58.8042],[-129.575,58.8625],[-129.5166,58.9458],[-129.5208,58.9792],[-129.2916,59.0292],[-129.2208,59.0833],[-129.2458,59.1],[-129.2083,59.175],[-129.2,59.3083],[-129.2458,59.3417],[-129.3416,59.3417],[-129.3333,59.3],[-129.4666,59.3125],[-129.475,59.3375],[-129.6125,59.3375],[-129.6958,59.3958],[-129.7041,59.4708],[-129.5541,59.5042],[-129.5291,59.5833],[-129.4916,59.6125],[-129.3875,59.6125],[-129.3208,59.5875],[-129.2125,59.6],[-129.0875,59.5708],[-129.125,59.5167],[-129.0791,59.5],[-129.025,59.5583],[-128.975,59.5542],[-128.8583,59.4167]]]},"properties":{"Area":4489.7772,"BBasin":"Upper Liard","Sub_B":"SUB_46","Downstream":"SUB_34","Gauged":0,"Reach":65.926,"Checked":1,"B":46,"SubId":46,"rvhName":"SUB_46","DowSubId":"34","BasArea":4489810000,"rmapshaperid":42}},{"type":"Feature","geometry":{"type":"Polygon","coordinates":[[[-121.3958,59.2042],[-121.4291,59.15],[-121.425,59.0792],[-121.475,59.0583],[-121.375,59.025],[-121.1916,59.0167],[-121.1958,58.925],[-121.3666,58.8708],[-121.3875,58.8417],[-121.475,58.8292],[-121.5041,58.7875],[-121.6625,58.7167],[-121.7,58.725],[-121.7583,58.6542],[-121.8458,58.6167],[-122.0333,58.6167],[-122.0541,58.5875],[-122.15,58.5708],[-122.1958,58.5917],[-122.3291,58.5708],[-122.3583,58.65],[-122.3583,58.7083],[-122.4,58.775],[-122.4208,58.9],[-122.4625,58.9542],[-122.4541,59.0333],[-122.3916,59.1083],[-122.3375,59.1333],[-122.1791,59.1417],[-122.1,59.1625],[-122.1,59.2583],[-122.0791,59.3375],[-121.9041,59.3583],[-121.7291,59.3917],[-121.6208,59.3458],[-121.5958,59.2625],[-121.5416,59.2292],[-121.3958,59.2042]]]},"properties":{"Area":3951.5565,"BBasin":"Fort Nelson","Sub_B":"SUB_47","Downstream":"SUB_42","Gauged":0,"Reach":0,"Checked":1,"B":47,"SubId":47,"rvhName":"SUB_47","DowSubId":"42","BasArea":3951560000,"rmapshaperid":43}},{"type":"Feature","geometry":{"type":"Polygon","coordinates":[[[-124.6416,59.1458],[-124.6083,59.075],[-124.5541,59.0333],[-124.5875,58.9667],[-124.7666,58.9375],[-124.7833,58.8417],[-124.8583,58.825],[-124.8625,58.7917],[-124.6958,58.6792],[-124.7041,58.5458],[-124.6791,58.525],[-124.725,58.4667],[-124.6958,58.3708],[-124.65,58.3542],[-124.6458,58.2792],[-124.7958,58.2292],[-124.7875,58.1917],[-124.8791,58.1917],[-124.8916,58.2333],[-125.2041,58.25],[-125.225,58.2958],[-125.3,58.325],[-125.3666,58.3958],[-125.4291,58.4083],[-125.475,58.4542],[-125.4166,58.5292],[-125.3416,58.5375],[-125.4125,58.65],[-125.4625,58.6542],[-125.4166,58.75],[-125.4166,58.7917],[-125.3458,58.825],[-125.4208,58.8833],[-125.625,58.9042],[-125.6583,58.9458],[-125.6625,59.0125],[-125.5833,59.0125],[-125.55,59.05],[-125.3375,59.0917],[-125.2791,59.1292],[-125.2958,59.1875],[-125.0833,59.1792],[-125.0125,59.15],[-124.8916,59.1542],[-124.8583,59.175],[-124.7708,59.15],[-124.725,59.1917],[-124.6416,59.1458]]]},"properties":{"Area":4192.1282,"BBasin":"Central Liard","Sub_B":"SUB_48","Downstream":"SUB_43","Gauge":"10BE010","Gauged":1,"Reach":77.6297,"Checked":1,"B":48,"SubId":48,"rvhName":"SUB_48","DowSubId":"43","BasArea":4192140000,"rmapshaperid":44}},{"type":"Feature","geometry":{"type":"Polygon","coordinates":[[[-130.6583,58.8458],[-130.5208,58.825],[-130.4666,58.875],[-130.4083,58.8875],[-130.1166,58.8417],[-130.0375,58.7792],[-130.0291,58.725],[-129.8583,58.7125],[-129.8333,58.6583],[-129.9458,58.6125],[-129.8833,58.5792],[-129.925,58.5417],[-129.8,58.4167],[-129.9333,58.4208],[-130.0458,58.4375],[-130.0708,58.4583],[-130.2083,58.4875],[-130.2,58.5417],[-130.3291,58.5292],[-130.4083,58.5417],[-130.4291,58.4792],[-130.5083,58.4458],[-130.5291,58.4917],[-130.5375,58.6167],[-130.6291,58.6833],[-130.65,58.7583],[-130.725,58.7958],[-130.7166,58.8375],[-130.6583,58.8458]]]},"properties":{"Area":1544.8186,"BBasin":"Upper Liard","Sub_B":"SUB_49","Downstream":"SUB_50","Gauge":"10AC003","Gauged":1,"Reach":0,"Checked":1,"B":49,"SubId":49,"rvhName":"SUB_49","DowSubId":"50","BasArea":1544780000,"rmapshaperid":45}},{"type":"Feature","geometry":{"type":"Polygon","coordinates":[[[-130.6583,58.8458],[-130.6375,58.9458],[-130.55,58.9417],[-130.4666,58.9583],[-130.475,59.05],[-130.4458,59.1375],[-130.3625,59.1417],[-130.3291,59.1792],[-130.3666,59.2125],[-130.45,59.2375],[-130.4083,59.3375],[-130.3541,59.3292],[-130.3666,59.4125],[-130.3166,59.4458],[-130.1916,59.4083],[-130.225,59.325],[-130.1458,59.2917],[-130.0208,59.2792],[-129.9333,59.3],[-129.9333,59.3375],[-129.8291,59.3375],[-129.6958,59.3958],[-129.6125,59.3375],[-129.475,59.3375],[-129.4666,59.3125],[-129.3333,59.3],[-129.3416,59.3417],[-129.2458,59.3417],[-129.2,59.3083],[-129.2083,59.175],[-129.2458,59.1],[-129.2208,59.0833],[-129.2916,59.0292],[-129.5208,58.9792],[-129.5166,58.9458],[-129.575,58.8625],[-129.5166,58.8042],[-129.4875,58.6833],[-129.3541,58.6625],[-129.3541,58.6333],[-129.1625,58.6125],[-129.15,58.5583],[-129.1291,58.475],[-129.2541,58.45],[-129.2958,58.375],[-129.4458,58.3875],[-129.5291,58.4208],[-129.6375,58.4542],[-129.6291,58.4042],[-129.7875,58.3875],[-129.8,58.4167],[-129.925,58.5417],[-129.8833,58.5792],[-129.9458,58.6125],[-129.8333,58.6583],[-129.8583,58.7125],[-130.0291,58.725],[-130.0375,58.7792],[-130.1166,58.8417],[-130.4083,58.8875],[-130.4666,58.875],[-130.5208,58.825],[-130.6583,58.8458]]]},"properties":{"Area":5158.1139,"BBasin":"Upper Liard","Sub_B":"SUB_50","Downstream":"SUB_46","Gauge":"10AC002","Gauged":1,"Reach":72.1639,"Checked":1,"B":50,"SubId":50,"rvhName":"SUB_50","DowSubId":"46","BasArea":5350060000,"rmapshaperid":46}},{"type":"Feature","geometry":{"type":"Polygon","coordinates":[[[-128.4041,58.9833],[-128.2291,58.9792],[-128.0666,59.0083],[-127.925,59.0583],[-127.7875,59.0458],[-127.6125,58.9625],[-127.625,58.8917],[-127.6583,58.8583],[-127.6458,58.7917],[-127.5541,58.7292],[-127.3625,58.7125],[-127.3375,58.6833],[-127.3583,58.6292],[-127.425,58.6417],[-127.4708,58.575],[-127.45,58.4833],[-127.4958,58.4167],[-127.5708,58.3583],[-127.6333,58.35],[-127.7916,58.3625],[-127.8083,58.4083],[-127.8916,58.4],[-128.0208,58.4417],[-128.1083,58.4125],[-128.175,58.4292],[-128.2958,58.4083],[-128.3083,58.3167],[-128.2958,58.2042],[-128.4166,58.1708],[-128.5791,58.1625],[-128.5916,58.2125],[-128.6416,58.2292],[-128.65,58.2792],[-128.825,58.25],[-128.8708,58.2708],[-128.9208,58.2083],[-129.05,58.25],[-129.15,58.25],[-129.225,58.2875],[-129.425,58.3125],[-129.5125,58.2542],[-129.6291,58.2792],[-129.5416,58.3583],[-129.5291,58.4208],[-129.4458,58.3875],[-129.2958,58.375],[-129.2541,58.45],[-129.1291,58.475],[-129.15,58.5583],[-129.0875,58.6],[-129,58.6208],[-128.9583,58.6792],[-128.8875,58.6875],[-128.9,58.7417],[-128.775,58.7708],[-128.65,58.7625],[-128.5583,58.8875],[-128.4791,58.925],[-128.4791,58.9542],[-128.4041,58.9833]]]},"properties":{"Area":6381.1866,"BBasin":"Central Liard","Sub_B":"SUB_51","Downstream":"SUB_41","Gauge":"10BA001","Gauged":1,"Reach":124.2511,"Checked":1,"B":51,"SubId":51,"rvhName":"SUB_51","DowSubId":"41","BasArea":6381170000,"rmapshaperid":47}},{"type":"Feature","geometry":{"type":"Polygon","coordinates":[[[-125.3,58.325],[-125.3541,58.2792],[-125.4458,58.3375],[-125.5041,58.2958],[-125.575,58.3125],[-125.7875,58.3208],[-125.85,58.4042],[-125.9708,58.4125],[-126.0208,58.4583],[-126.0708,58.4333],[-126.125,58.4833],[-126.2,58.4917],[-126.2625,58.5458],[-126.3458,58.5375],[-126.3291,58.5917],[-126.3541,58.6292],[-126.3208,58.6833],[-126.2541,58.6833],[-126.2125,58.7458],[-126.1,58.7958],[-126,58.8042],[-125.9208,58.8375],[-125.8041,58.8333],[-125.6041,58.85],[-125.625,58.9042],[-125.4208,58.8833],[-125.3458,58.825],[-125.4166,58.7917],[-125.4166,58.75],[-125.4625,58.6542],[-125.4125,58.65],[-125.3416,58.5375],[-125.4166,58.5292],[-125.475,58.4542],[-125.4291,58.4083],[-125.3666,58.3958],[-125.3,58.325]]]},"properties":{"Area":2498.2248,"BBasin":"Central Liard","Sub_B":"SUB_52","Downstream":"SUB_48","Gauge":"10BE004","Gauged":1,"Reach":0,"Checked":1,"B":52,"SubId":52,"rvhName":"SUB_52","DowSubId":"48","BasArea":2498210000,"rmapshaperid":48}},{"type":"Feature","geometry":{"type":"Polygon","coordinates":[[[-127.3916,59.3583],[-127.3166,59.3125],[-127.1916,59.3333],[-127.15,59.2583],[-127.1875,59.2],[-127.125,59.1292],[-127.0166,59.1417],[-126.9666,59.1167],[-126.9708,59.0417],[-126.9208,58.9792],[-127,58.9125],[-127.0541,58.8375],[-127.0166,58.7875],[-126.9208,58.8083],[-126.8708,58.7792],[-126.8583,58.6458],[-126.9166,58.5792],[-126.9833,58.5458],[-126.9458,58.4792],[-127.0208,58.4625],[-127.2666,58.475],[-127.3291,58.4417],[-127.325,58.3917],[-127.4291,58.3375],[-127.4541,58.3042],[-127.5375,58.275],[-127.6041,58.3],[-127.6333,58.35],[-127.5708,58.3583],[-127.4958,58.4167],[-127.45,58.4833],[-127.4708,58.575],[-127.425,58.6417],[-127.3583,58.6292],[-127.3375,58.6833],[-127.3625,58.7125],[-127.5541,58.7292],[-127.6458,58.7917],[-127.6583,58.8583],[-127.625,58.8917],[-127.6125,58.9625],[-127.6,59.075],[-127.53,59.09],[-127.5166,59.2167],[-127.4916,59.3042],[-127.3916,59.3583]]]},"properties":{"Area":3100.0157,"BBasin":"Central Liard","Sub_B":"SUB_53","Downstream":"SUB_41","Gauge":"10BB002","Gauged":1,"Reach":81.6226,"Checked":1,"B":53,"SubId":53,"rvhName":"SUB_53","DowSubId":"41","BasArea":3100010000,"rmapshaperid":49}},{"type":"Feature","geometry":{"type":"Polygon","coordinates":[[[-122.7666,58.7792],[-122.8291,58.6583],[-123.0625,58.6542],[-123.1166,58.675],[-123.1666,58.6208],[-123.1708,58.5333],[-123.2625,58.5208],[-123.2875,58.4917],[-123.4625,58.4542],[-123.5375,58.4],[-123.6125,58.4042],[-123.6833,58.5292],[-123.825,58.5583],[-123.9875,58.4833],[-124.1,58.5167],[-124.2083,58.5042],[-124.3125,58.4667],[-124.3666,58.3833],[-124.4583,58.3542],[-124.4875,58.3083],[-124.5666,58.2708],[-124.6458,58.2792],[-124.65,58.3542],[-124.6958,58.3708],[-124.725,58.4667],[-124.6791,58.525],[-124.7041,58.5458],[-124.6958,58.6792],[-124.5666,58.6667],[-124.4666,58.6917],[-124.2833,58.6917],[-124.2583,58.6667],[-124.0791,58.6958],[-124.0041,58.6958],[-123.9916,58.75],[-124.0625,58.7833],[-124.0375,58.8833],[-124.15,58.8667],[-124.2166,58.9208],[-124.125,58.9417],[-124.0125,59.025],[-123.7916,59.0417],[-123.7666,59.0625],[-123.6583,59.0583],[-123.5708,59.0292],[-123.525,58.9917],[-123.4166,59],[-123.3333,59.025],[-123.2791,58.9958],[-123.2125,59],[-123.1458,58.9458],[-123.0416,58.8958],[-122.8916,58.8875],[-122.8833,58.8042],[-122.7666,58.7792]]]},"properties":{"Area":4668.4348,"BBasin":"Fort Nelson","Sub_B":"SUB_54","Downstream":"SUB_58","Gauged":0,"Reach":105.3357,"Checked":1,"B":54,"SubId":54,"rvhName":"SUB_54","DowSubId":"58","BasArea":4668370000,"rmapshaperid":50}},{"type":"Feature","geometry":{"type":"Polygon","coordinates":[[[-122.3291,58.5708],[-122.1958,58.5917],[-122.15,58.5708],[-122.0541,58.5875],[-122.0333,58.6167],[-121.8458,58.6167],[-121.7583,58.6542],[-121.7,58.725],[-121.6625,58.7167],[-121.5041,58.7875],[-121.5333,58.7292],[-121.5916,58.7208],[-121.5833,58.6167],[-121.5583,58.5417],[-121.3125,58.525],[-121.2916,58.4083],[-121.4625,58.3333],[-121.5833,58.3333],[-121.7625,58.3042],[-121.7958,58.2667],[-121.8625,58.2667],[-121.875,58.2125],[-121.75,58.1125],[-121.8208,58.0958],[-121.8958,58.0083],[-121.9958,57.9958],[-122.225,58],[-122.4416,57.9625],[-122.5291,57.9208],[-122.6,57.9375],[-122.5333,58.0042],[-122.5125,58.0667],[-122.5541,58.1375],[-122.5333,58.1792],[-122.4708,58.1958],[-122.5125,58.2708],[-122.575,58.3208],[-122.6208,58.3167],[-122.6125,58.3917],[-122.5,58.4583],[-122.425,58.4625],[-122.3958,58.5333],[-122.5375,58.575],[-122.675,58.5917],[-122.6958,58.6125],[-122.6041,58.675],[-122.5208,58.6583],[-122.4541,58.5917],[-122.3291,58.5708]]]},"properties":{"Area":3741.8907,"BBasin":"Fort Nelson","Sub_B":"SUB_55","Downstream":"SUB_42","Gauge":"10CC002","Gauged":1,"Reach":84.6465,"Checked":1,"B":55,"SubId":55,"rvhName":"SUB_55","DowSubId":"42","BasArea":3742640000,"rmapshaperid":51}},{"type":"Feature","geometry":{"type":"Polygon","coordinates":[[[-126.3541,58.6292],[-126.3291,58.5917],[-126.3458,58.5375],[-126.2625,58.5458],[-126.2,58.4917],[-126.125,58.4833],[-126.0708,58.4333],[-126.0208,58.4583],[-125.9708,58.4125],[-125.85,58.4042],[-125.7875,58.3208],[-125.575,58.3125],[-125.5041,58.2958],[-125.4458,58.3375],[-125.3541,58.2792],[-125.3,58.325],[-125.225,58.2958],[-125.2041,58.25],[-124.8916,58.2333],[-124.8791,58.1917],[-124.85,58.1458],[-124.8625,58.1],[-124.9125,58.0625],[-124.95,58],[-125.0708,58.025],[-125.2166,58.0208],[-125.3,57.9958],[-125.4541,57.975],[-125.4625,57.9417],[-125.5375,57.9375],[-125.5625,57.9083],[-125.6458,57.9292],[-125.7,57.8667],[-125.7791,57.8917],[-125.8,57.9708],[-125.8291,58.0167],[-125.7833,58.0417],[-125.8625,58.075],[-125.9,58.1417],[-126.0083,58.1875],[-126.0083,58.2083],[-126.1125,58.2458],[-126.1666,58.1917],[-126.3541,58.2375],[-126.4166,58.2375],[-126.5,58.2875],[-126.4041,58.3417],[-126.4625,58.3917],[-126.5458,58.4],[-126.6208,58.375],[-126.7583,58.45],[-126.7916,58.5167],[-126.9166,58.5792],[-126.8583,58.6458],[-126.7291,58.6708],[-126.6,58.5875],[-126.4333,58.6042],[-126.3541,58.6292]]]},"properties":{"Area":3586.9257,"BBasin":"Central Liard","Sub_B":"SUB_56","Downstream":"SUB_53","Gauged":0,"Reach":63.6074,"Checked":1,"B":56,"SubId":56,"rvhName":"SUB_56","DowSubId":"53","BasArea":3586930000,"rmapshaperid":52}},{"type":"Feature","geometry":{"type":"Polygon","coordinates":[[[-125.8,57.9708],[-125.9666,57.9875],[-126.0583,57.9708],[-126.0583,57.9208],[-126.125,57.9125],[-126.175,57.9417],[-126.2375,57.925],[-126.2333,57.8833],[-126.3,57.8542],[-126.375,57.925],[-126.6666,57.9625],[-126.6708,58.025],[-126.7541,57.9792],[-126.825,58],[-126.9291,58],[-126.975,57.9625],[-126.9291,57.8917],[-126.975,57.875],[-127.0333,57.8125],[-127.175,57.8042],[-127.2625,57.8208],[-127.2625,57.9333],[-127.4541,57.9],[-127.5125,57.9583],[-127.5041,58.0542],[-127.4125,58.1],[-127.4625,58.1375],[-127.5208,58.1292],[-127.575,58.1583],[-127.6791,58.1625],[-127.6708,58.2333],[-127.7,58.2958],[-127.6041,58.3],[-127.5375,58.275],[-127.4541,58.3042],[-127.4291,58.3375],[-127.325,58.3917],[-127.3291,58.4417],[-127.2666,58.475],[-127.0208,58.4625],[-126.9458,58.4792],[-126.9833,58.5458],[-126.9166,58.5792],[-126.7916,58.5167],[-126.7583,58.45],[-126.6208,58.375],[-126.5458,58.4],[-126.4625,58.3917],[-126.4041,58.3417],[-126.5,58.2875],[-126.4166,58.2375],[-126.3541,58.2375],[-126.1666,58.1917],[-126.1125,58.2458],[-126.0083,58.2083],[-126.0083,58.1875],[-125.9,58.1417],[-125.8625,58.075],[-125.7833,58.0417],[-125.8291,58.0167],[-125.8,57.9708]]]},"properties":{"Area":4742.4339,"BBasin":"Central Liard","Sub_B":"SUB_57","Downstream":"SUB_53","Gauged":0,"Reach":39.2196,"Checked":1,"B":57,"SubId":57,"rvhName":"SUB_57","DowSubId":"53","BasArea":4781480000,"rmapshaperid":53}},{"type":"Feature","geometry":{"type":"Polygon","coordinates":[[[-122.6958,58.6125],[-122.675,58.5917],[-122.5375,58.575],[-122.3958,58.5333],[-122.425,58.4625],[-122.5,58.4583],[-122.6125,58.3917],[-122.6208,58.3167],[-122.575,58.3208],[-122.5125,58.2708],[-122.4708,58.1958],[-122.5333,58.1792],[-122.5541,58.1375],[-122.5125,58.0667],[-122.5333,58.0042],[-122.6,57.9375],[-122.5291,57.9208],[-122.5333,57.8625],[-122.6791,57.8083],[-122.8291,57.8208],[-122.8708,57.8458],[-122.9666,57.85],[-123.1041,57.8917],[-123.1958,57.8458],[-123.3458,57.825],[-123.3041,57.8875],[-123.2833,57.9833],[-123.2041,58.0292],[-123.1958,58.0917],[-123.3208,58.1167],[-123.4208,58.1542],[-123.5333,58.2667],[-123.5583,58.3708],[-123.5375,58.4],[-123.4625,58.4542],[-123.2875,58.4917],[-123.2625,58.5208],[-123.1708,58.5333],[-123.1666,58.6208],[-123.1166,58.675],[-123.0625,58.6542],[-122.8291,58.6583],[-122.7666,58.7792],[-122.7,58.7458],[-122.7666,58.6208],[-122.6958,58.6125]]]},"properties":{"Area":4205.3222,"BBasin":"Fort Nelson","Sub_B":"SUB_58","Downstream":"SUB_42","Gauge":"10CD001","Gauged":1,"Reach":134.2339,"Checked":1,"B":58,"SubId":58,"rvhName":"SUB_58","DowSubId":"42","BasArea":4205270000,"rmapshaperid":54}},{"type":"Feature","geometry":{"type":"Polygon","coordinates":[[[-120.7333,57.4292],[-120.775,57.4958],[-120.7916,57.6083],[-120.9333,57.6875],[-120.9333,57.8208],[-121.0041,57.8625],[-120.9833,57.9125],[-121.0625,57.9125],[-121.0791,57.975],[-121.0083,58.0583],[-121.0916,58.1458],[-121.0916,58.1875],[-121.1791,58.2042],[-121.4208,58.1917],[-121.4583,58.2333],[-121.4625,58.3333],[-121.2916,58.4083],[-121.3125,58.525],[-121.2083,58.5292],[-121.1791,58.4875],[-121.0416,58.4833],[-120.9541,58.5125],[-120.8875,58.5125],[-120.6708,58.5667],[-120.6083,58.55],[-120.6041,58.5042],[-120.5541,58.4667],[-120.4625,58.4542],[-120.4625,58.4208],[-120.4,58.3625],[-120.4,58.3208],[-120.2833,58.3208],[-120.3,58.25],[-120.2375,58.1667],[-120.1166,58.1875],[-119.925,58.1875],[-119.7916,58.1708],[-119.775,58.1292],[-119.8291,58.0792],[-119.7875,58.0375],[-119.7125,58.0583],[-119.7125,57.9708],[-119.65,57.9667],[-119.6375,57.9125],[-119.5708,57.9083],[-119.6041,57.7875],[-119.6541,57.7667],[-119.85,57.7625],[-119.9125,57.725],[-119.9666,57.725],[-119.9375,57.6458],[-119.9791,57.6083],[-120.0708,57.5667],[-120.1041,57.5083],[-120.2,57.525],[-120.2375,57.4958],[-120.4541,57.4625],[-120.4791,57.425],[-120.7333,57.4292]]]},"properties":{"Area":7324.3979,"BBasin":"Fort Nelson","Sub_B":"SUB_59","Downstream":"SUB_61","Gauge":"10CA001","Gauged":1,"Reach":136.5355,"Checked":1,"B":59,"SubId":59,"rvhName":"SUB_59","DowSubId":"61","BasArea":7324400000,"rmapshaperid":55}},{"type":"Feature","geometry":{"type":"Polygon","coordinates":[[[-123.5375,58.4],[-123.5583,58.3708],[-123.5333,58.2667],[-123.4208,58.1542],[-123.3208,58.1167],[-123.1958,58.0917],[-123.2041,58.0292],[-123.2833,57.9833],[-123.3041,57.8875],[-123.3458,57.825],[-123.4125,57.825],[-123.4875,57.7917],[-123.6458,57.8],[-123.7375,57.7583],[-123.7458,57.7125],[-123.8208,57.7208],[-123.9,57.7042],[-124.1083,57.725],[-124.1208,57.7042],[-124.2333,57.6917],[-124.325,57.6125],[-124.4041,57.5792],[-124.45,57.6],[-124.4875,57.6875],[-124.5541,57.6958],[-124.6625,57.675],[-124.6958,57.7208],[-124.8083,57.7292],[-124.825,57.7667],[-124.9333,57.8333],[-124.925,57.9875],[-124.95,58],[-124.9125,58.0625],[-124.8625,58.1],[-124.85,58.1458],[-124.8791,58.1917],[-124.7875,58.1917],[-124.7958,58.2292],[-124.6458,58.2792],[-124.5666,58.2708],[-124.4875,58.3083],[-124.4583,58.3542],[-124.3666,58.3833],[-124.3125,58.4667],[-124.2083,58.5042],[-124.1,58.5167],[-123.9875,58.4833],[-123.825,58.5583],[-123.6833,58.5292],[-123.6125,58.4042],[-123.5375,58.4]]]},"properties":{"Area":6698.6078,"BBasin":"Fort Nelson","Sub_B":"SUB_60","Downstream":"SUB_54","Gauged":0,"Reach":71.5739,"Checked":1,"B":60,"SubId":60,"rvhName":"SUB_60","DowSubId":"54","BasArea":6698560000,"rmapshaperid":56}},{"type":"Feature","geometry":{"type":"Polygon","coordinates":[[[-121.4625,58.3333],[-121.4583,58.2333],[-121.4208,58.1917],[-121.1791,58.2042],[-121.0916,58.1875],[-121.0916,58.1458],[-121.0083,58.0583],[-121.0791,57.975],[-121.0625,57.9125],[-120.9833,57.9125],[-121.0041,57.8625],[-120.9333,57.8208],[-120.9333,57.6875],[-120.7916,57.6083],[-120.775,57.4958],[-120.7333,57.4292],[-120.8458,57.425],[-121.0166,57.3917],[-121.0541,57.4458],[-121.1791,57.4875],[-121.2875,57.4958],[-121.5583,57.4708],[-121.7333,57.475],[-121.8833,57.5042],[-121.9166,57.5708],[-121.8916,57.6125],[-121.8291,57.6333],[-121.825,57.6667],[-121.8958,57.7083],[-121.9208,57.7708],[-121.7083,57.8167],[-121.6083,57.8625],[-121.5583,57.9125],[-121.5666,57.975],[-121.6,58],[-121.7125,58.0083],[-121.7791,57.9875],[-121.8958,58.0083],[-121.8208,58.0958],[-121.75,58.1125],[-121.875,58.2125],[-121.8625,58.2667],[-121.7958,58.2667],[-121.7625,58.3042],[-121.5833,58.3333],[-121.4625,58.3333]]]},"properties":{"Area":4270.6574,"BBasin":"Fort Nelson","Sub_B":"SUB_61","Downstream":"SUB_55","Gauged":0,"Reach":74.6502,"Checked":1,"B":61,"SubId":61,"rvhName":"SUB_61","DowSubId":"55","BasArea":4289060000,"rmapshaperid":57}},{"type":"Feature","geometry":{"type":"Polygon","coordinates":[[[-122.6791,57.8083],[-122.7375,57.7375],[-122.8958,57.7542],[-122.9791,57.6792],[-122.8875,57.4667],[-122.9083,57.4208],[-123.0458,57.4125],[-123.1875,57.3833],[-123.2875,57.3958],[-123.2875,57.3083],[-123.425,57.2958],[-123.6541,57.3125],[-123.675,57.2708],[-123.7458,57.2542],[-123.8,57.2917],[-123.9375,57.275],[-124.075,57.3333],[-124.1291,57.375],[-124.125,57.4458],[-124.1791,57.4542],[-124.1791,57.5],[-124.2958,57.4958],[-124.4041,57.5542],[-124.4041,57.5792],[-124.325,57.6125],[-124.2333,57.6917],[-124.1208,57.7042],[-124.1083,57.725],[-123.9,57.7042],[-123.8208,57.7208],[-123.7458,57.7125],[-123.7375,57.7583],[-123.6458,57.8],[-123.4875,57.7917],[-123.4125,57.825],[-123.3458,57.825],[-123.1958,57.8458],[-123.1041,57.8917],[-122.9666,57.85],[-122.8708,57.8458],[-122.8291,57.8208],[-122.6791,57.8083]]]},"properties":{"Area":3991.8203,"BBasin":"Fort Nelson","Sub_B":"SUB_62","Downstream":"SUB_58","Gauged":0,"Reach":38.922,"Checked":1,"B":62,"SubId":62,"rvhName":"SUB_62","DowSubId":"58","BasArea":3991860000,"rmapshaperid":58}},{"type":"Feature","geometry":{"type":"Polygon","coordinates":[[[-121.8833,57.5042],[-121.9541,57.4208],[-121.9833,57.3625],[-122.2,57.3625],[-122.3041,57.3458],[-122.4833,57.2833],[-122.5083,57.175],[-122.55,57.1667],[-122.65,57.1917],[-122.7333,57.1875],[-122.6833,57.2458],[-122.7333,57.2875],[-122.7333,57.3542],[-122.8083,57.3625],[-122.9166,57.35],[-122.9125,57.3208],[-123.0291,57.2958],[-123.1125,57.3375],[-123.1666,57.3417],[-123.2875,57.3083],[-123.2875,57.3958],[-123.1875,57.3833],[-123.0458,57.4125],[-122.9083,57.4208],[-122.8875,57.4667],[-122.9791,57.6792],[-122.8958,57.7542],[-122.7375,57.7375],[-122.6791,57.8083],[-122.5333,57.8625],[-122.5291,57.9208],[-122.4416,57.9625],[-122.225,58],[-121.9958,57.9958],[-121.8958,58.0083],[-121.7791,57.9875],[-121.7125,58.0083],[-121.6,58],[-121.5666,57.975],[-121.5583,57.9125],[-121.6083,57.8625],[-121.7083,57.8167],[-121.9208,57.7708],[-121.8958,57.7083],[-121.825,57.6667],[-121.8291,57.6333],[-121.8916,57.6125],[-121.9166,57.5708],[-121.8833,57.5042]]]},"properties":{"Area":4518.9528,"BBasin":"Fort Nelson","Sub_B":"SUB_39","Downstream":"SUB_61","Gauged":0,"Reach":159.6992,"Checked":1,"B":39,"SubId":39,"rvhName":"SUB_39","DowSubId":"61","BasArea":4518920000,"rmapshaperid":59}},{"type":"Feature","geometry":{"type":"Polygon","coordinates":[[[-122.7333,57.1875],[-122.8291,57.1833],[-122.8875,57.1292],[-122.9375,57.1625],[-123.0083,57.1708],[-123.1125,57.15],[-123.1333,57.0708],[-123.2666,57.1],[-123.3708,57.1083],[-123.45,57.0667],[-123.525,57.05],[-123.5208,57.0167],[-123.6875,56.9833],[-123.7166,56.9458],[-123.7958,56.925],[-123.9,56.9458],[-123.9291,57.0958],[-124.0125,57.1333],[-124.1333,57.2167],[-124.1541,57.3042],[-124.075,57.3333],[-123.9375,57.275],[-123.8,57.2917],[-123.7458,57.2542],[-123.675,57.2708],[-123.6541,57.3125],[-123.425,57.2958],[-123.2875,57.3083],[-123.1666,57.3417],[-123.1125,57.3375],[-123.0291,57.2958],[-122.9125,57.3208],[-122.9166,57.35],[-122.8083,57.3625],[-122.7333,57.3542],[-122.7333,57.2875],[-122.6833,57.2458],[-122.7333,57.1875]]]},"properties":{"Area":2168.6325,"BBasin":"Fort Nelson","Sub_B":"SUB_7","Downstream":"SUB_39","Gauge":"10CB001","Gauged":1,"Reach":0,"Checked":1,"B":7,"SubId":7,"rvhName":"SUB_7","DowSubId":"39","BasArea":2168710000,"rmapshaperid":60}},{"type":"Feature","geometry":{"type":"Polygon","coordinates":[[[-121.1625,61.2625],[-121.3,61.2667],[-121.3083,61.3042],[-121.4291,61.3458],[-121.45,61.4125],[-121.3083,61.4375],[-121.2791,61.3792],[-121.1625,61.2625]]]},"properties":{"Area":148.4617,"BBasin":"Lower Liard","Sub_B":"SUB_64","Downstream":"SUB_63","Gauge":"10ED009","Gauged":1,"Reach":0,"Checked":0,"B":64,"SubId":64,"rvhName":"SUB_64","DowSubId":"63","BasArea":148460000,"rmapshaperid":61}},{"type":"Feature","geometry":{"type":"Polygon","coordinates":[[[-122.2333,60.8083],[-122.1791,60.7542],[-121.9916,60.7333],[-121.9916,60.7625],[-121.8791,60.8125],[-121.8125,60.8208],[-121.7166,60.8708],[-121.7083,60.925],[-121.6541,60.9292],[-121.5916,61.0167],[-121.6041,61.0458],[-121.4916,61.1125],[-121.4916,61.1458],[-121.6,61.1958],[-121.6625,61.2625],[-121.6916,61.325],[-121.6541,61.3417],[-121.5875,61.425],[-121.5875,61.4042],[-121.4291,61.3458],[-121.3083,61.3042],[-121.3,61.2667],[-121.1625,61.2625],[-121.0666,61.2375],[-121.075,61.1833],[-121.025,61.1417],[-121.0083,61],[-121.05,60.8875],[-121.1208,60.8458],[-121.2,60.8458],[-121.2625,60.775],[-121.3208,60.8125],[-121.4083,60.7417],[-121.5708,60.7208],[-121.6083,60.6875],[-121.7625,60.675],[-121.775,60.6417],[-121.9166,60.65],[-121.9541,60.625],[-122.0583,60.6125],[-122.0958,60.6667],[-122.2041,60.7125],[-122.2333,60.8083]]]},"properties":{"Area":2267.3663,"BBasin":"Lower Liard","Sub_B":"SUB_65","Downstream":"SUB_63","Gauge":"10ED005","Gauged":1,"Reach":0,"Checked":1,"B":65,"SubId":65,"rvhName":"SUB_65","DowSubId":"63","BasArea":2267370000,"rmapshaperid":62}},{"type":"Feature","geometry":{"type":"Polygon","coordinates":[[[-121.475,61.8167],[-121.5,61.7625],[-121.5083,61.6458],[-121.4583,61.5542],[-121.5875,61.4667],[-121.5875,61.425],[-121.6541,61.3417],[-121.6916,61.325],[-121.6625,61.2625],[-121.6,61.1958],[-121.4916,61.1458],[-121.4916,61.1125],[-121.6041,61.0458],[-121.5916,61.0167],[-121.6541,60.9292],[-121.7083,60.925],[-121.7166,60.8708],[-121.8125,60.8208],[-121.8791,60.8125],[-121.8291,60.8625],[-121.8541,60.9917],[-121.825,61],[-121.8958,61.1125],[-122.05,61.125],[-122.1583,61.1958],[-122.0708,61.3042],[-122.0708,61.3375],[-122.1708,61.4542],[-122.4166,61.5042],[-122.4958,61.5583],[-122.5,61.5542],[-122.5041,61.5542],[-122.6,61.5667],[-122.5041,61.7458],[-122.5041,61.8292],[-122.4625,61.85],[-122.2583,61.8583],[-122.0458,61.7917],[-121.9458,61.7875],[-121.8416,61.7333],[-121.6708,61.75],[-121.575,61.7333],[-121.475,61.8167]]]},"properties":{"Area":3269.3975,"BBasin":"Lower Liard","Sub_B":"SUB_9","Downstream":"SUB_63","Gauged":0,"Reach":30.6814,"Checked":1,"B":9,"SubId":9,"rvhName":"SUB_9","DowSubId":"63","BasArea":3269490000,"rmapshaperid":63}},{"type":"Feature","geometry":{"type":"Polygon","coordinates":[[[-121.4291,61.3458],[-121.5875,61.4042],[-121.5875,61.425],[-121.5875,61.4667],[-121.4583,61.5542],[-121.5083,61.6458],[-121.5,61.7625],[-121.475,61.8167],[-121.35,61.7917],[-121.3291,61.7583],[-121.2166,61.7667],[-121.1625,61.6667],[-121.1625,61.6042],[-121.25,61.575],[-121.25,61.5],[-121.3083,61.4375],[-121.45,61.4125],[-121.4291,61.3458]]]},"properties":{"Area":638.9462,"BBasin":"Lower Liard","Sub_B":"SUB_63","Downstream":"-1","Gauge":"10ED002","Gauged":1,"Reach":47.541,"Checked":1,"B":63,"SubId":63,"rvhName":"SUB_63","DowSubId":"-1","BasArea":638960000,"rmapshaperid":64}}]}