{"type":"FeatureCollection","name":"file49e43401341f","features":[{"type":"Feature","properties":{"UIDENT":1458601,"TYPE":17,"COUNTRY":"CAN","NAMEFR":"Dunedin River","NAMESP":"Dunedin River","EDIT_DATE":"20090827","EDIT":"EDT","Shape_Leng":100721.4971},"geometry":{"type":"LineString","coordinates":[[-124.0821,59.5095],[-124.1157,59.4933],[-124.1166,59.4929],[-124.1232,59.4916],[-124.1684,59.46],[-124.2381,59.4204],[-124.2298,59.3748],[-124.2055,59.3497],[-124.1495,59.3252],[-124.1152,59.3008],[-124.1113,59.2669],[-124.1318,59.2324],[-124.1546,59.224],[-124.1873,59.1977],[-124.2598,59.1589],[-124.2795,59.1222],[-124.3008,59.0991],[-124.3392,59.0773],[-124.3623,59.0455],[-124.3537,59.011],[-124.3224,58.9422],[-124.2909,58.9059],[-124.273,58.8796],[-124.2522,58.8309],[-124.2417,58.793],[-124.2299,58.769],[-124.1714,58.7195]]}},{"type":"Feature","properties":{"UIDENT":1433201,"TYPE":17,"COUNTRY":"CAN","NAMEFR":"Muskeg River","NAMESP":"Muskeg River","EDIT_DATE":"20060803","EDIT":"NEW","Shape_Leng":114449.559},"geometry":{"type":"LineString","coordinates":[[-123.3443,60.3127],[-123.2617,60.2862],[-123.168,60.272],[-123.1155,60.2804],[-123.0986,60.2997],[-123.0616,60.3146],[-123.0531,60.318],[-123.0337,60.3211],[-122.9813,60.3297],[-122.9143,60.3243],[-122.8311,60.3018],[-122.7053,60.2871],[-122.6585,60.2865],[-122.6031,60.2727],[-122.5651,60.2528],[-122.5328,60.2469],[-122.4048,60.2745],[-122.3708,60.271],[-122.3221,60.2478],[-122.3008,60.2413],[-122.2349,60.2488],[-122.1867,60.2465],[-122.1558,60.242],[-122.1134,60.2251],[-122.0627,60.1699],[-121.9871,60.1557],[-121.8936,60.1601],[-121.8251,60.1814],[-121.7514,60.2158],[-121.707,60.2362],[-121.6897,60.2599],[-121.7097,60.2819],[-121.7471,60.3019]]}},{"type":"Feature","properties":{"UIDENT":1407101,"TYPE":17,"COUNTRY":"CAN","NAMEEN":"Hyland River","NAMEFR":"Hyland River","NAMESP":"Hyland River","EDIT_DATE":"20090827","EDIT":"EDT","Shape_Leng":283536.8671},"geometry":{"type":"LineString","coordinates":[[-128.6749,62.0618],[-128.6667,62.065],[-128.6233,62.0705],[-128.5688,62.0552],[-128.5095,62.0067],[-128.486,61.9769],[-128.4832,61.9732],[-128.4775,61.97],[-128.4362,61.9466],[-128.3711,61.8978],[-128.2961,61.8352],[-128.2599,61.7909],[-128.2644,61.7544],[-128.2998,61.7172],[-128.3293,61.6865],[-128.3321,61.6547],[-128.3062,61.6156],[-128.2969,61.6017],[-128.2874,61.5471],[-128.2344,61.4897],[-128.2138,61.4554],[-128.2305,61.3529],[-128.2483,61.3019],[-128.2746,61.1823],[-128.2915,61.1515],[-128.3402,61.1058],[-128.3476,61.0776],[-128.368,61.0498],[-128.4014,61.0363],[-128.422,61.0224],[-128.4422,60.9465],[-128.4785,60.8841],[-128.4872,60.8193],[-128.5039,60.71],[-128.5016,60.682],[-128.4955,60.68],[-128.4592,60.6677],[-128.4315,60.6342],[-128.4309,60.6335],[-128.3423,60.6109],[-128.34,60.6103],[-128.292,60.6055],[-128.2612,60.6012],[-128.2288,60.5966],[-128.1897,60.6014],[-128.177,60.603],[-128.1505,60.6063],[-128.1429,60.5978],[-128.1615,60.5573],[-128.1635,60.5453],[-128.1646,60.5383],[-128.1615,60.5327],[-128.1452,60.5038],[-128.1793,60.4646],[-128.1746,60.4046],[-128.1891,60.3649],[-128.1913,60.3588],[-128.1845,60.3191],[-128.2214,60.2884],[-128.2555,60.2107],[-128.2543,60.1889],[-128.2289,60.1603],[-128.234,60.1508],[-128.2966,60.1286],[-128.3119,60.1142],[-128.3195,60.0899],[-128.3036,60.0625],[-128.1879,60.0041],[-128.1837,60.0005],[-128.1831,60],[-128.1619,59.9817],[-128.1589,59.9685],[-128.1674,59.9241],[-128.1632,59.8514]]}},{"type":"Feature","properties":{"UIDENT":1398901,"TYPE":17,"COUNTRY":"CAN","NAMEEN":"Liard River","NAMEFR":"Liard River","NAMESP":"Liard River","EDIT_DATE":"20060803","EDIT":"NEW","Shape_Leng":94630.237},"geometry":{"type":"LineString","coordinates":[[-123.3313,61.0383],[-123.2836,61.0596],[-123.2277,61.0767],[-123.2167,61.0822],[-123.1609,61.1105],[-123.1239,61.1133],[-123.0122,61.1007],[-122.9112,61.1092],[-122.8289,61.1373],[-122.8033,61.1627],[-122.7867,61.1937],[-122.7272,61.2266],[-122.6302,61.252],[-122.5461,61.2612],[-122.4695,61.281],[-122.3584,61.3143],[-122.2869,61.3345],[-122.2467,61.3384],[-122.2032,61.3385],[-122.1769,61.3443],[-122.1289,61.3606],[-122.073,61.3728],[-122.0329,61.3754],[-121.9686,61.3704],[-121.9154,61.3687],[-121.853,61.3752]]}},{"type":"Feature","properties":{"UIDENT":1352501,"TYPE":17,"COUNTRY":"CAN","NAMEFR":"Yusezyu River","NAMESP":"Yusezyu River","EDIT_DATE":"20060803","EDIT":"NEW","Shape_Leng":26412.5686},"geometry":{"type":"LineString","coordinates":[[-129.4662,61.9493],[-129.45,61.9658],[-129.4337,61.9808],[-129.3577,62.0131],[-129.2669,62.0325],[-129.1674,62.0277],[-129.1053,62.0299],[-129.0522,62.0461]]}},{"type":"Feature","properties":{"UIDENT":1446601,"TYPE":17,"COUNTRY":"CAN","NAMEFR":"Turnagain River","NAMESP":"Turnagain River","EDIT_DATE":"20060803","EDIT":"NEW","Shape_Leng":173572.1554},"geometry":{"type":"LineString","coordinates":[[-129.133,58.2897],[-129.1521,58.3098],[-129.1628,58.3426],[-129.1561,58.3569],[-129.1413,58.3676],[-129.0708,58.3897],[-128.9708,58.4029],[-128.9137,58.4168],[-128.8756,58.4306],[-128.8088,58.4682],[-128.7527,58.4955],[-128.736,58.5146],[-128.7603,58.5462],[-128.7566,58.5838],[-128.719,58.6072],[-128.7304,58.6302],[-128.7012,58.6536],[-128.6896,58.6628],[-128.6564,58.698],[-128.6187,58.7087],[-128.5808,58.7094],[-128.5701,58.699],[-128.5642,58.6931],[-128.5185,58.6814],[-128.4105,58.6641],[-128.3847,58.6705],[-128.34,58.6814],[-128.2612,58.6634],[-128.2586,58.6629],[-128.1682,58.6531],[-128.0769,58.652],[-128.0683,58.6586],[-128.0368,58.6827],[-128.008,58.7041],[-127.9803,58.7147],[-127.9768,58.716],[-127.95,58.72],[-127.8967,58.735],[-127.8188,58.7634],[-127.7867,58.8008],[-127.809,58.8442],[-127.8422,58.8613],[-127.8522,58.8665],[-127.8623,58.8885],[-127.8494,58.9044],[-127.842,58.9137],[-127.8169,58.9595],[-127.8177,58.9609],[-127.84,58.9972],[-127.8433,59.0374],[-127.8242,59.0708],[-127.7895,59.0831],[-127.7527,59.0918],[-127.6977,59.098],[-127.6438,59.1158],[-127.6066,59.1346],[-127.5668,59.1581]]}},{"type":"Feature","properties":{"UIDENT":1506901,"TYPE":17,"COUNTRY":"CAN","NAMEFR":"Kahntah River","NAMESP":"Kahntah River","EDIT_DATE":"20060803","EDIT":"NEW","Shape_Leng":113010.0671},"geometry":{"type":"LineString","coordinates":[[-120.9033,58.3467],[-120.8828,58.3307],[-120.8517,58.3189],[-120.7985,58.2935],[-120.7726,58.275],[-120.7655,58.2577],[-120.8112,58.2002],[-120.7913,58.1804],[-120.8479,58.1279],[-120.9177,58.0742],[-120.9485,58.0426],[-120.9585,58.0158],[-120.9478,57.9769],[-120.9339,57.9556],[-120.8957,57.9317],[-120.8505,57.9185],[-120.8133,57.912],[-120.7633,57.8897],[-120.7402,57.8612],[-120.7128,57.8186],[-120.6812,57.8014],[-120.6002,57.7882],[-120.5573,57.7698],[-120.5255,57.7302],[-120.4808,57.6522],[-120.4687,57.6194],[-120.4412,57.5937],[-120.3912,57.5659],[-120.3635,57.5572],[-120.3512,57.5507],[-120.3125,57.537]]}},{"type":"Feature","properties":{"UIDENT":1401801,"TYPE":17,"COUNTRY":"CAN","NAMEFR":"Little Rancheria River","NAMESP":"Little Rancheria River","EDIT_DATE":"20060803","EDIT":"NEW","Shape_Leng":114384.4005},"geometry":{"type":"LineString","coordinates":[[-130.3414,59.5748],[-130.4013,59.5807],[-130.432,59.5829],[-130.4656,59.5852],[-130.5192,59.5964],[-130.5654,59.6178],[-130.5662,59.6197],[-130.573,59.6348],[-130.5565,59.6656],[-130.5243,59.6769],[-130.4853,59.6811],[-130.4271,59.6924],[-130.2862,59.71],[-130.174,59.74],[-130.1053,59.7705],[-130.0128,59.8002],[-129.9572,59.8021],[-129.9503,59.8023],[-129.8933,59.8043],[-129.8093,59.8278],[-129.772,59.8586],[-129.753,59.8997],[-129.7645,59.9665],[-129.7748,59.9816],[-129.7834,60],[-129.7837,60.0006],[-129.7922,60.0189],[-129.7896,60.04],[-129.7809,60.0528],[-129.7545,60.0711],[-129.6862,60.1082],[-129.6524,60.1204],[-129.6295,60.1417],[-129.5979,60.1647],[-129.5616,60.1926],[-129.5402,60.2052]]}},{"type":"Feature","properties":{"UIDENT":1453601,"TYPE":17,"COUNTRY":"CAN","NAMEFR":"Petitot River","NAMESP":"Petitot River","EDIT_DATE":"20060803","EDIT":"NEW","Shape_Leng":82733.1914},"geometry":{"type":"LineString","coordinates":[[-118.8108,59.8297],[-118.8221,59.8427],[-118.8246,59.8459],[-118.8206,59.8505],[-118.8167,59.855],[-118.8041,59.8631],[-118.7956,59.8667],[-118.7761,59.8705],[-118.761,59.8753],[-118.7512,59.8772],[-118.7394,59.8814],[-118.7309,59.8849],[-118.7211,59.8868],[-118.7093,59.891],[-118.702,59.8962],[-118.6915,59.902],[-118.6854,59.9088],[-118.6827,59.915],[-118.6754,59.9201],[-118.6714,59.9247],[-118.6686,59.9309],[-118.6613,59.9361],[-118.654,59.9412],[-118.6447,59.9487],[-118.6329,59.9528],[-118.6263,59.9541],[-118.6079,59.9595],[-118.5825,59.9606],[-118.5694,59.9632],[-118.5628,59.9644],[-118.5354,59.9678],[-118.519,59.9709],[-118.5124,59.9722],[-118.5013,59.9724],[-118.4895,59.9766],[-118.4796,59.9785],[-118.4665,59.981],[-118.4579,59.9845],[-118.4382,59.9882],[-118.421,59.9953],[-118.4112,59.9972],[-118.4051,59.9996],[-118.4026,60.0007],[-118.4022,60.0008],[-118.3907,60.0048],[-118.3809,60.0067],[-118.3723,60.0102],[-118.3583,60.0166],[-118.3518,60.0179],[-118.3407,60.0181],[-118.3328,60.0177],[-118.3172,60.0169],[-118.3069,60.0132],[-118.2999,60.0089],[-118.2908,60.0068],[-118.285,60.0042],[-118.2741,60.0007],[-118.2707,59.9996],[-118.2702,59.9995],[-118.2632,59.9951],[-118.2484,59.9904],[-118.2266,59.9814],[-118.2216,59.9748],[-118.2187,59.966],[-118.2158,59.9571],[-118.2166,59.9532],[-118.2117,59.9466],[-118.2018,59.9334],[-118.1968,59.9269],[-118.1882,59.9153],[-118.1833,59.9088],[-118.1706,59.9018],[-118.157,59.8987],[-118.1455,59.8933],[-118.1431,59.89],[-118.1259,59.882],[-118.1132,59.875],[-118.1042,59.873],[-118.0907,59.8699],[-118.0718,59.8697],[-118.062,59.8715],[-118.0489,59.874],[-118.0292,59.8777],[-118.0161,59.8801],[-117.9964,59.8838],[-117.98,59.8869],[-117.9485,59.8947],[-117.9341,59.8955],[-117.9177,59.8985],[-117.9013,59.9016],[-117.8882,59.904],[-117.8738,59.9048],[-117.8537,59.9029],[-117.8406,59.9054],[-117.8128,59.903],[-117.8013,59.8976],[-117.7923,59.8956],[-117.7821,59.8918],[-117.7711,59.892],[-117.7576,59.8889],[-117.7519,59.8862],[-117.7429,59.8841],[-117.718,59.8756]]}},{"type":"Feature","properties":{"UIDENT":1430001,"TYPE":17,"COUNTRY":"CAN","NAMEFR":"Liard River","NAMESP":"Liard River","EDIT_DATE":"20090827","EDIT":"EDT","Shape_Leng":44318.6696},"geometry":{"type":"LineString","coordinates":[[-123.8446,59.92],[-123.8264,59.9396],[-123.806,59.9989],[-123.8065,60],[-123.8348,60.0561],[-123.8067,60.0933],[-123.7554,60.1258],[-123.703,60.1607],[-123.6299,60.1901],[-123.5333,60.2114],[-123.4917,60.2324]]}},{"type":"Feature","properties":{"UIDENT":1504701,"TYPE":17,"COUNTRY":"CAN","NAMEEN":"Sikanni Chief River","NAMEFR":"Sikanni Chief River","NAMESP":"Sikanni Chief River","EDIT_DATE":"20060803","EDIT":"NEW","Shape_Leng":266429.8199},"geometry":{"type":"LineString","coordinates":[[-124.139,57.2584],[-124.0993,57.2459],[-124.0248,57.225],[-123.9748,57.1909],[-123.911,57.1818],[-123.905,57.181],[-123.856,57.1733],[-123.7925,57.1731],[-123.7403,57.1729],[-123.6633,57.1642],[-123.6152,57.1506],[-123.5826,57.1413],[-123.5308,57.1502],[-123.4822,57.1897],[-123.423,57.2044],[-123.2911,57.2187],[-123.2126,57.2271],[-123.1268,57.2344],[-123.0575,57.2505],[-122.9425,57.2508],[-122.8878,57.2465],[-122.8189,57.241],[-122.7824,57.2275],[-122.7158,57.2254],[-122.6373,57.2443],[-122.4925,57.2977],[-122.388,57.3414],[-122.3488,57.3632],[-122.2977,57.3915],[-122.262,57.4156],[-122.2358,57.4221],[-122.1632,57.4354],[-122.1307,57.4414],[-122.0966,57.4476],[-122.0931,57.4644],[-122.1113,57.4762],[-122.1123,57.4778],[-122.1291,57.5054],[-122.1424,57.5271],[-122.1371,57.5588],[-122.1152,57.5815],[-122.1333,57.6065],[-122.1479,57.6222],[-122.1573,57.6321],[-122.1584,57.6415],[-122.1628,57.6769],[-122.1865,57.7047],[-122.2026,57.7234],[-122.2025,57.7357],[-122.2023,57.7632],[-122.1619,57.7874],[-122.0921,57.8089],[-122.0379,57.8514],[-121.9507,57.9],[-121.9491,57.9008],[-121.8741,57.9098],[-121.806,57.9073],[-121.7524,57.8922],[-121.7014,57.8766],[-121.6592,57.8832],[-121.6584,57.8834],[-121.5955,57.9167],[-121.5755,57.9478],[-121.582,57.9742],[-121.5832,57.9789],[-121.5786,57.9819],[-121.5396,58.0077],[-121.5265,58.0356],[-121.5391,58.0591],[-121.6279,58.1174],[-121.6806,58.1711],[-121.6857,58.1813],[-121.7004,58.1986],[-121.7334,58.2287],[-121.7964,58.2686]]}},{"type":"Feature","properties":{"UIDENT":1369001,"TYPE":16,"COUNTRY":"CAN","EDIT_DATE":"20060803","EDIT":"NEW","Shape_Leng":39768.9105},"geometry":{"type":"LineString","coordinates":[[-129.6781,61.5107],[-129.6989,61.4905],[-129.6907,61.4441],[-129.6565,61.3973],[-129.6164,61.3624],[-129.5657,61.3325],[-129.5005,61.3009],[-129.3321,61.2508],[-129.2828,61.2448]]}},{"type":"Feature","properties":{"UIDENT":1440601,"TYPE":17,"COUNTRY":"CAN","NAMEFR":"Liard River","NAMESP":"Liard River","EDIT_DATE":"20090827","EDIT":"EDT","Shape_Leng":29757.2132},"geometry":{"type":"LineString","coordinates":[[-124.3371,59.7145],[-124.3074,59.6953],[-124.2805,59.6772],[-124.2632,59.659],[-124.2225,59.6458],[-124.2045,59.6291],[-124.1967,59.6026],[-124.1794,59.5886],[-124.1381,59.5824],[-124.1199,59.5638],[-124.1407,59.545],[-124.136,59.5262],[-124.1192,59.5173],[-124.0821,59.5095]]}},{"type":"Feature","properties":{"UIDENT":1391701,"TYPE":17,"COUNTRY":"CAN","NAMEFR":"Rancheria River","NAMESP":"Rancheria River","EDIT_DATE":"20060803","EDIT":"NEW","Shape_Leng":126584.9265},"geometry":{"type":"LineString","coordinates":[[-131.2716,60.2229],[-131.2665,60.2416],[-131.2136,60.2591],[-131.1773,60.2815],[-131.151,60.2816],[-131.065,60.2631],[-130.9565,60.2337],[-130.9424,60.2233],[-130.9024,60.1938],[-130.8818,60.1552],[-130.9029,60.1204],[-130.9193,60.0809],[-130.9006,60.0649],[-130.846,60.0567],[-130.81,60.0624],[-130.7551,60.0709],[-130.6452,60.0833],[-130.5705,60.0723],[-130.5265,60.0575],[-130.5057,60.0505],[-130.4475,60.0578],[-130.4101,60.0625],[-130.2809,60.1005],[-130.1813,60.1491],[-130.0957,60.1914],[-130.0434,60.2096],[-129.9951,60.2198],[-129.9275,60.2275],[-129.894,60.2274],[-129.6595,60.2359],[-129.5955,60.2269],[-129.5402,60.2052]]}},{"type":"Feature","properties":{"UIDENT":1481701,"TYPE":17,"COUNTRY":"CAN","NAMEFR":"Fort Nelson River","NAMESP":"Fort Nelson River","EDIT_DATE":"20060803","EDIT":"NEW","Shape_Leng":90587.3083},"geometry":{"type":"LineString","coordinates":[[-122.5224,58.8262],[-122.5443,58.8056],[-122.6412,58.7458],[-122.665,58.7153],[-122.6658,58.6998],[-122.6334,58.6638],[-122.6101,58.6542],[-122.5379,58.647],[-122.5013,58.6349],[-122.4524,58.584],[-122.422,58.5703],[-122.3723,58.5595],[-122.318,58.5517],[-122.2709,58.5479],[-122.1657,58.5275],[-122.1242,58.5052],[-122.0847,58.4766],[-122.0451,58.4312],[-121.9804,58.3441],[-121.9482,58.3195],[-121.9185,58.3058],[-121.7964,58.2686]]}},{"type":"Feature","properties":{"UIDENT":1472201,"TYPE":17,"COUNTRY":"CAN","NAMEFR":"Gataga River","NAMESP":"Gataga River","EDIT_DATE":"20060803","EDIT":"NEW","Shape_Leng":138258.5968},"geometry":{"type":"LineString","coordinates":[[-126.9207,58.585],[-126.8775,58.5561],[-126.8103,58.5327],[-126.7706,58.5096],[-126.6609,58.5042],[-126.6034,58.4789],[-126.5113,58.4504],[-126.4542,58.438],[-126.4498,58.437],[-126.4464,58.4356],[-126.3523,58.3942],[-126.2811,58.3784],[-126.241,58.3711],[-126.2062,58.3647],[-126.1936,58.3587],[-126.16,58.3427],[-126.1093,58.3147],[-126.0168,58.2736],[-125.8711,58.2145],[-125.7442,58.1728],[-125.6402,58.1616],[-125.5147,58.1571],[-125.4579,58.1412],[-125.4389,58.1224],[-125.3946,58.1125],[-125.3697,58.1134],[-125.2913,58.1162],[-125.2103,58.1325],[-125.1565,58.1423],[-125.1304,58.1429],[-125.1121,58.1234],[-125.1081,58.1192],[-125.0433,58.0879],[-124.9918,58.075],[-124.9483,58.0843],[-124.9145,58.1036]]}},{"type":"Feature","properties":{"UIDENT":1483201,"TYPE":17,"COUNTRY":"CAN","NAMEFR":"Fontas River","NAMESP":"Fontas River","EDIT_DATE":"20060803","EDIT":"NEW","Shape_Leng":54312.9147},"geometry":{"type":"LineString","coordinates":[[-121.7964,58.2686],[-121.7814,58.2722],[-121.5167,58.261],[-121.4737,58.2654],[-121.4066,58.2793],[-121.297,58.2728],[-121.1963,58.2811],[-121.0173,58.3244],[-120.9033,58.3467]]}},{"type":"Feature","properties":{"UIDENT":1442001,"TYPE":17,"COUNTRY":"CAN","EDIT_DATE":"20060803","EDIT":"NEW","Shape_Leng":51284.3574},"geometry":{"type":"LineString","coordinates":[[-122.9402,59.9755],[-122.9453,59.9647],[-122.951,59.9423],[-122.9796,59.9201],[-123.03,59.8967],[-123.0798,59.8809],[-123.127,59.8581],[-123.1414,59.8412],[-123.147,59.815],[-123.1366,59.804],[-123.1185,59.793],[-123.0636,59.7871],[-123.0204,59.7897],[-122.9929,59.7848],[-122.9841,59.7755],[-122.9901,59.7563],[-122.98,59.7414],[-122.9561,59.7281],[-122.9031,59.6756],[-122.8577,59.6635],[-122.8192,59.6638]]}},{"type":"Feature","properties":{"UIDENT":1420301,"TYPE":17,"COUNTRY":"CAN","NAMEFR":"Coal River","NAMESP":"Coal River","EDIT_DATE":"20090827","EDIT":"EDT","Shape_Leng":60756.1726},"geometry":{"type":"LineString","coordinates":[[-127.1359,60.1019],[-127.1164,60.0737],[-127.1045,60.0453],[-127.0931,60.0003],[-127.0931,60],[-127.0928,59.9991],[-127.0955,59.9409],[-127.0819,59.911],[-127.0814,59.8865],[-127.091,59.8664],[-127.0904,59.8358],[-127.0915,59.8072],[-127.0699,59.7719],[-127.0413,59.7423],[-127.022,59.7319],[-126.9893,59.7272],[-126.941,59.7367],[-126.9054,59.7328],[-126.8829,59.7193],[-126.8909,59.7053],[-126.9169,59.6861],[-126.9366,59.6648],[-126.9483,59.6449]]}},{"type":"Feature","properties":{"UIDENT":1405301,"TYPE":17,"COUNTRY":"CAN","NAMEFR":"Rock River","NAMESP":"Rock River","EDIT_DATE":"20060803","EDIT":"NEW","Shape_Leng":117831.1497},"geometry":{"type":"LineString","coordinates":[[-127.2146,61.0102],[-127.1627,61.0023],[-127.1151,60.9964],[-127.0749,60.9936],[-127.0398,60.975],[-127.0265,60.9517],[-127.0265,60.9338],[-127.0476,60.9085],[-127.0426,60.8946],[-127.0284,60.864],[-127.0349,60.8484],[-127.119,60.8295],[-127.139,60.8043],[-127.1581,60.7178],[-127.157,60.6884],[-127.1407,60.6575],[-127.0985,60.5918],[-127.0933,60.5694],[-127.1159,60.5572],[-127.1349,60.5422],[-127.1161,60.5077],[-127.1344,60.467],[-127.1371,60.4444],[-127.1142,60.4084],[-127.086,60.3647],[-127.0656,60.3435],[-127.0548,60.3398],[-127.0267,60.3303],[-127.0011,60.3192],[-126.9886,60.3045],[-126.9853,60.2789],[-127.0135,60.2309],[-127.0382,60.1924],[-127.0878,60.1371],[-127.1359,60.1019]]}},{"type":"Feature","properties":{"UIDENT":1431801,"TYPE":17,"COUNTRY":"CAN","NAMEEN":"Kechika River","NAMEFR":"Kechika River","NAMESP":"Kechika River","EDIT_DATE":"20090827","EDIT":"EDT","Shape_Leng":74006.6182},"geometry":{"type":"LineString","coordinates":[[-127.5668,59.1581],[-127.5857,59.1963],[-127.6029,59.2926],[-127.6576,59.3523],[-127.6668,59.3815],[-127.6613,59.4093],[-127.6658,59.4189],[-127.6713,59.4621],[-127.6232,59.5156],[-127.5682,59.5512],[-127.507,59.5636],[-127.4624,59.5763],[-127.3812,59.5795],[-127.315,59.6081],[-127.2005,59.6242],[-127.1401,59.6211],[-127.1232,59.6258]]}},{"type":"Feature","properties":{"UIDENT":1464601,"TYPE":17,"COUNTRY":"CAN","NAMEFR":"Muskwa River","NAMESP":"Muskwa River","EDIT_DATE":"20060803","EDIT":"NEW","Shape_Leng":18090.6442},"geometry":{"type":"LineString","coordinates":[[-122.7633,58.7428],[-122.713,58.7684],[-122.6561,58.8032],[-122.6028,58.8257],[-122.5607,58.8321],[-122.5224,58.8262]]}},{"type":"Feature","properties":{"UIDENT":1441501,"TYPE":17,"COUNTRY":"CAN","NAMEFR":"Liard River","NAMESP":"Liard River","EDIT_DATE":"20060803","EDIT":"NEW","Shape_Leng":112702.8871},"geometry":{"type":"LineString","coordinates":[[-126.4659,59.5392],[-126.3928,59.5144],[-126.3647,59.4993],[-126.3346,59.4832],[-126.2803,59.4569],[-126.1736,59.4305],[-126.0829,59.3997],[-126.0232,59.3939],[-125.9639,59.4075],[-125.932,59.4149],[-125.8271,59.4536],[-125.7842,59.4447],[-125.7892,59.4305],[-125.8006,59.3984],[-125.7834,59.3833],[-125.7347,59.3804],[-125.7025,59.3785],[-125.6366,59.3751],[-125.578,59.3426],[-125.5741,59.3404],[-125.5348,59.3321],[-125.4813,59.3125],[-125.4279,59.2928],[-125.3873,59.2611],[-125.3456,59.2679],[-125.3068,59.2742],[-125.252,59.2685],[-125.2475,59.2681],[-125.2408,59.2709],[-125.1688,59.3016],[-125.0697,59.3081],[-124.9783,59.3314],[-124.8954,59.355],[-124.8744,59.3644]]}},{"type":"Feature","properties":{"UIDENT":1353301,"TYPE":16,"COUNTRY":"CAN","EDIT_DATE":"20060803","EDIT":"NEW","Shape_Leng":12413.3016},"geometry":{"type":"LineString","coordinates":[[-129.5903,61.8853],[-129.5721,61.8844],[-129.4735,61.9148],[-129.4465,61.9306],[-129.4402,61.9424],[-129.4662,61.9493]]}},{"type":"Feature","properties":{"UIDENT":1437201,"TYPE":17,"COUNTRY":"CAN","NAMEEN":"Dease River","NAMEFR":"Dease River","NAMESP":"Dease River","EDIT_DATE":"20060803","EDIT":"NEW","Shape_Leng":225609.0267},"geometry":{"type":"LineString","coordinates":[[-130.0437,58.4999],[-130.0416,58.5778],[-130.0254,58.6342],[-130.0241,58.6386],[-130.0399,58.6622],[-130.064,58.6797],[-130.084,58.708],[-130.0972,58.7409],[-130.106,58.763],[-130.0954,58.7882],[-130.0626,58.8381],[-130.0241,58.8878],[-130.0006,58.9143],[-129.9525,58.929],[-129.9401,58.9321],[-129.8975,58.9424],[-129.8375,58.9625],[-129.7747,59.0045],[-129.7592,59.0306],[-129.7252,59.055],[-129.7215,59.0571],[-129.6844,59.078],[-129.644,59.0923],[-129.544,59.0995],[-129.4519,59.0935],[-129.373,59.096],[-129.3255,59.1118],[-129.2868,59.1469],[-129.2102,59.1772],[-129.1409,59.1875],[-129.069,59.2035],[-129.0318,59.229],[-129.019,59.2651],[-129.024,59.32],[-129.0139,59.3452],[-129.0243,59.3742],[-129.0479,59.3912],[-129.0764,59.3986],[-129.1137,59.4135],[-129.1387,59.4381],[-129.1462,59.458],[-129.1467,59.5022],[-129.1894,59.5215],[-129.2075,59.5402],[-129.2122,59.5911],[-129.2086,59.6084],[-129.2005,59.625],[-129.1677,59.641],[-129.1366,59.6484],[-129.0715,59.6541],[-129.0304,59.6665],[-129.0004,59.6815],[-128.9434,59.6907],[-128.8791,59.724],[-128.8307,59.7725],[-128.7526,59.8202],[-128.7295,59.8311],[-128.7005,59.8336],[-128.6581,59.8282],[-128.6261,59.8316],[-128.5922,59.8537],[-128.5709,59.88],[-128.4895,59.906],[-128.4614,59.9264]]}},{"type":"Feature","properties":{"UIDENT":1441001,"TYPE":17,"COUNTRY":"CAN","NAMEFR":"Liard River","NAMESP":"Liard River","EDIT_DATE":"20090827","EDIT":"EDT","Shape_Leng":35664.4762},"geometry":{"type":"LineString","coordinates":[[-124.0059,59.5514],[-124.0005,59.5674],[-124.0005,59.5935],[-123.9607,59.6263],[-123.9478,59.6607],[-123.9265,59.6841],[-123.8543,59.7364],[-123.8442,59.7797],[-123.8481,59.8192],[-123.8259,59.8455]]}},{"type":"Feature","properties":{"UIDENT":1368901,"TYPE":16,"COUNTRY":"CAN","EDIT_DATE":"20060803","EDIT":"NEW","Shape_Leng":94715.0763},"geometry":{"type":"LineString","coordinates":[[-129.6781,61.5107],[-129.6311,61.4839],[-129.5327,61.3665],[-129.5084,61.3472],[-129.4711,61.3277],[-129.4159,61.3174],[-129.356,61.3167],[-129.3269,61.3271],[-129.3219,61.3366],[-129.3283,61.3551],[-129.4294,61.4655],[-129.4447,61.4975],[-129.4606,61.5435],[-129.4489,61.5509],[-129.4263,61.5433],[-129.365,61.4881],[-129.2746,61.3727],[-129.2439,61.3046],[-129.2568,61.2746],[-129.2828,61.2448]]}},{"type":"Feature","properties":{"UIDENT":1501101,"TYPE":17,"COUNTRY":"CAN","NAMEFR":"Fontas River","NAMESP":"Fontas River","EDIT_DATE":"20060803","EDIT":"NEW","Shape_Leng":112779.298},"geometry":{"type":"LineString","coordinates":[[-120.9033,58.3467],[-120.7748,58.3779],[-120.7235,58.3764],[-120.6811,58.3597],[-120.6555,58.3373],[-120.6335,58.3234],[-120.5763,58.297],[-120.5459,58.2906],[-120.5125,58.2888],[-120.4879,58.2849],[-120.4719,58.2829],[-120.4264,58.2574],[-120.4157,58.2486],[-120.3456,58.2324],[-120.329,58.2249],[-120.3341,58.205],[-120.3206,58.1836],[-120.3275,58.1746],[-120.346,58.1667],[-120.3547,58.1554],[-120.3419,58.1395],[-120.3222,58.1326],[-120.2884,58.1346],[-120.2626,58.1291],[-120.2538,58.118],[-120.2674,58.0905],[-120.2509,58.0699],[-120.2076,58.0647],[-120.1838,58.0568],[-120.1466,58.0501],[-120.108,58.0326],[-120.064,57.9993],[-120.0481,57.9747],[-120.0013,57.938],[-119.9998,57.9368],[-119.9555,57.9019],[-119.9289,57.8947],[-119.8734,57.8839],[-119.8318,57.8674],[-119.7907,57.8576],[-119.7489,57.8584],[-119.7044,57.8543],[-119.6626,57.8321],[-119.6415,57.8001]]}},{"type":"Feature","properties":{"UIDENT":1420201,"TYPE":17,"COUNTRY":"CAN","NAMEFR":"Liard River","NAMESP":"Liard River","EDIT_DATE":"20090827","EDIT":"EDT","Shape_Leng":3132.7151},"geometry":{"type":"LineString","coordinates":[[-127.1232,59.6258],[-127.0908,59.6205],[-127.0706,59.6155]]}},{"type":"Feature","properties":{"UIDENT":1456601,"TYPE":16,"COUNTRY":"CAN","EDIT_DATE":"20060803","EDIT":"NEW","Shape_Leng":78397.4855},"geometry":{"type":"LineString","coordinates":[[-119.1271,59.7343],[-119.0666,59.7311],[-119.0099,59.7388],[-118.9743,59.7404],[-118.9387,59.7327],[-118.9209,59.7257],[-118.87,59.6924],[-118.8446,59.6882],[-118.7271,59.6839],[-118.6896,59.6783],[-118.6328,59.6432],[-118.6024,59.6418],[-118.5407,59.6522],[-118.4785,59.6477],[-118.4478,59.6557],[-118.44,59.6739],[-118.4561,59.6949],[-118.4863,59.7056],[-118.5321,59.7171],[-118.5769,59.7323],[-118.6118,59.7533],[-118.6147,59.7713],[-118.6082,59.7881],[-118.5982,59.8117],[-118.612,59.8294],[-118.6427,59.8308],[-118.6984,59.8216],[-118.7488,59.8216],[-118.8108,59.8297]]}},{"type":"Feature","properties":{"UIDENT":1437301,"TYPE":17,"COUNTRY":"CAN","EDIT_DATE":"20060803","EDIT":"NEW","Shape_Leng":37035.4846},"geometry":{"type":"LineString","coordinates":[[-123.8259,59.8455],[-123.7645,59.8414],[-123.7047,59.8272],[-123.6464,59.8184],[-123.5448,59.8279],[-123.4835,59.8198],[-123.4321,59.7901],[-123.3864,59.7742],[-123.3465,59.7725],[-123.3078,59.7838],[-123.2751,59.7975],[-123.2544,59.8198]]}},{"type":"Feature","properties":{"UIDENT":1441101,"TYPE":17,"COUNTRY":"CAN","NAMEFR":"Liard River","NAMESP":"Liard River","EDIT_DATE":"20090827","EDIT":"EDT","Shape_Leng":6430.9121},"geometry":{"type":"LineString","coordinates":[[-124.0821,59.5095],[-124.0059,59.5514]]}},{"type":"Feature","properties":{"UIDENT":1393101,"TYPE":17,"COUNTRY":"CAN","NAMEFR":"Liard River","NAMESP":"Liard River","EDIT_DATE":"20060803","EDIT":"NEW","Shape_Leng":8684.7157},"geometry":{"type":"LineString","coordinates":[[-129.1966,60.2841],[-129.1812,60.2746],[-129.1489,60.2479],[-129.1358,60.2135]]}},{"type":"Feature","properties":{"UIDENT":1432301,"TYPE":17,"COUNTRY":"CAN","NAMEFR":"Petitot River","NAMESP":"Petitot River","EDIT_DATE":"20090827","EDIT":"EDT","Shape_Leng":41625.1288},"geometry":{"type":"LineString","coordinates":[[-123.4917,60.2324],[-123.4454,60.2123],[-123.3917,60.1919],[-123.335,60.1595],[-123.263,60.1209],[-123.2235,60.0996],[-123.093,60.0637],[-123.02,60.0274],[-122.9787,60.0005],[-122.978,60.0001],[-122.978,60.0001],[-122.9402,59.9755]]}},{"type":"Feature","properties":{"UIDENT":1353101,"TYPE":16,"COUNTRY":"CAN","EDIT_DATE":"20060803","EDIT":"NEW","Shape_Leng":11452.6176},"geometry":{"type":"LineString","coordinates":[[-129.5903,61.8853],[-129.6045,61.8995],[-129.5928,61.917],[-129.5109,61.9405],[-129.4662,61.9493]]}},{"type":"Feature","properties":{"UIDENT":1419301,"TYPE":17,"COUNTRY":"CAN","NAMEFR":"Liard River","NAMESP":"Liard River","EDIT_DATE":"20090827","EDIT":"EDT","Shape_Leng":101951.4184},"geometry":{"type":"LineString","coordinates":[[-128.1632,59.8514],[-128.1332,59.8461],[-128.0982,59.8363],[-128.0535,59.8353],[-128.0075,59.8507],[-127.9807,59.8863],[-127.9179,59.9044],[-127.9047,59.9242],[-127.8745,59.9289],[-127.8508,59.9536],[-127.8221,59.9738],[-127.7741,59.9875],[-127.7604,59.9895],[-127.6969,59.9896],[-127.6404,59.9818],[-127.5849,59.9678],[-127.5362,59.9459],[-127.5199,59.9367],[-127.5034,59.9307],[-127.4697,59.929],[-127.448,59.9181],[-127.4251,59.8937],[-127.4035,59.8762],[-127.4161,59.8609],[-127.4644,59.8389],[-127.4968,59.8111],[-127.4824,59.7934],[-127.4855,59.7649],[-127.4927,59.7448],[-127.4932,59.7282],[-127.4577,59.7085],[-127.4191,59.7002],[-127.4061,59.7007],[-127.3945,59.6961],[-127.3655,59.698],[-127.2773,59.6967],[-127.2376,59.7],[-127.1898,59.6817],[-127.1532,59.6701],[-127.1232,59.6258]]}},{"type":"Feature","properties":{"UIDENT":1393201,"TYPE":17,"COUNTRY":"CAN","NAMEFR":"Rancheria River","NAMESP":"Rancheria River","EDIT_DATE":"20060803","EDIT":"NEW","Shape_Leng":22559.3933},"geometry":{"type":"LineString","coordinates":[[-129.5402,60.2052],[-129.5015,60.1967],[-129.304,60.2116],[-129.1973,60.2072],[-129.1358,60.2135]]}},{"type":"Feature","properties":{"UIDENT":1391501,"TYPE":17,"COUNTRY":"CAN","NAMEFR":"Liard River","NAMESP":"Liard River","EDIT_DATE":"20060803","EDIT":"NEW","Shape_Leng":209042.3778},"geometry":{"type":"LineString","coordinates":[[-131.6092,61.2533],[-131.6452,61.2324],[-131.6362,61.2011],[-131.6027,61.1752],[-131.5854,61.1531],[-131.5853,61.1529],[-131.5938,61.1409],[-131.6219,61.1188],[-131.6635,61.0923],[-131.6845,61.0556],[-131.6818,61.0378],[-131.6154,60.9886],[-131.5617,60.9581],[-131.5303,60.9473],[-131.4728,60.9461],[-131.4493,60.9456],[-131.435,60.95],[-131.4151,60.956],[-131.3735,60.9622],[-131.3716,60.9623],[-131.3208,60.9636],[-131.2584,60.97],[-131.1786,61.0004],[-131.1086,61.0285],[-131.0519,61.0581],[-131.0298,61.0623],[-130.9991,61.0564],[-130.9527,61.0405],[-130.8941,61.0243],[-130.86,61.0056],[-130.8214,60.9707],[-130.7631,60.9486],[-130.6496,60.8895],[-130.5589,60.8351],[-130.5045,60.8027],[-130.4585,60.78],[-130.4142,60.765],[-130.2983,60.7494],[-130.1801,60.7386],[-130.1247,60.731],[-130.0791,60.7081],[-130.0251,60.6654],[-129.9538,60.6219],[-129.8518,60.5735],[-129.7739,60.5706],[-129.7405,60.5604],[-129.7213,60.5317],[-129.7208,60.5014],[-129.698,60.4798],[-129.6671,60.4648],[-129.5436,60.3845],[-129.497,60.3499],[-129.45,60.3215],[-129.4236,60.3132],[-129.1966,60.2841]]}},{"type":"Feature","properties":{"UIDENT":1352901,"TYPE":17,"COUNTRY":"CAN","NAMEFR":"Broken Skull River","NAMESP":"Broken Skull River","EDIT_DATE":"20060803","EDIT":"NEW","Shape_Leng":113238.1941},"geometry":{"type":"LineString","coordinates":[[-128.6023,62.9336],[-128.572,62.9373],[-128.5271,62.9643],[-128.5299,62.9794],[-128.5299,62.9795],[-128.5035,62.9844],[-128.4597,62.983],[-128.3705,62.9705],[-128.3446,62.9668],[-128.2762,62.9695],[-128.2571,62.9702],[-128.1777,62.9691],[-128.1486,62.9588],[-128.1144,62.918],[-128.0322,62.8633],[-128.0029,62.8145],[-128.0148,62.8011],[-128.0547,62.7565],[-128.0665,62.7534],[-128.1116,62.7417],[-128.1053,62.7258],[-128.0898,62.6816],[-128.0304,62.6387],[-128.016,62.6282],[-128.0096,62.6195],[-127.9669,62.5618],[-127.8401,62.4657],[-127.7194,62.3813],[-127.655,62.3135],[-127.6432,62.2688]]}},{"type":"Feature","properties":{"UIDENT":1419001,"TYPE":17,"COUNTRY":"CAN","NAMEFR":"Liard River","NAMESP":"Liard River","EDIT_DATE":"20060803","EDIT":"NEW","Shape_Leng":108511.3614},"geometry":{"type":"LineString","coordinates":[[-123.3313,61.0383],[-123.3074,61.0381],[-123.2883,61.0348],[-123.2621,61.0084],[-123.272,60.9945],[-123.3494,60.9726],[-123.361,60.9603],[-123.3583,60.9416],[-123.3765,60.9201],[-123.3943,60.9063],[-123.4328,60.8972],[-123.4964,60.8976],[-123.5444,60.8863],[-123.5575,60.8755],[-123.5642,60.8546],[-123.552,60.8383],[-123.5331,60.8274],[-123.5032,60.821],[-123.4114,60.8195],[-123.3665,60.8086],[-123.3497,60.7957],[-123.3441,60.7797],[-123.3541,60.7657],[-123.3752,60.7473],[-123.4104,60.7352],[-123.4515,60.737],[-123.4881,60.7303],[-123.5074,60.718],[-123.5305,60.6778],[-123.5315,60.6391],[-123.5277,60.6035],[-123.5135,60.5415],[-123.4791,60.4708],[-123.3802,60.3656],[-123.3443,60.3127]]}},{"type":"Feature","properties":{"UIDENT":1390001,"TYPE":17,"COUNTRY":"CAN","NAMEFR":"Caribou River","NAMESP":"Caribou River","EDIT_DATE":"20090827","EDIT":"EDT","Shape_Leng":133088.9807},"geometry":{"type":"LineString","coordinates":[[-127.0334,61.0652],[-127.0087,61.088],[-126.9748,61.106],[-126.9316,61.1085],[-126.8942,61.1139],[-126.8714,61.1199],[-126.8213,61.1148],[-126.812,61.1059],[-126.81,61.0803],[-126.7711,61.0254],[-126.758,60.9892],[-126.75,60.9672],[-126.6708,60.8888],[-126.6379,60.8469],[-126.5908,60.8358],[-126.5813,60.8374],[-126.5146,60.8483],[-126.4559,60.8856],[-126.4527,60.8876],[-126.3659,60.9526],[-126.3244,60.9994],[-126.292,61.0143],[-126.2492,61.034],[-126.2304,61.0386],[-126.1843,61.0498],[-126.162,61.0819],[-126.1654,61.0925],[-126.1743,61.1204],[-126.1488,61.1728],[-126.1335,61.1994],[-126.0727,61.2172],[-126.0414,61.2256],[-126.0109,61.2337],[-125.971,61.259],[-125.9877,61.2926],[-125.9752,61.3159],[-125.9278,61.3591],[-125.874,61.3806],[-125.8185,61.4247]]}},{"type":"Feature","properties":{"UIDENT":1454501,"TYPE":17,"COUNTRY":"CAN","NAMEEN":"Petitot River","NAMEFR":"Petitot River","NAMESP":"Petitot River","EDIT_DATE":"20060803","EDIT":"NEW","Shape_Leng":250305.7558},"geometry":{"type":"LineString","coordinates":[[-122.9402,59.9755],[-122.8833,59.9717],[-122.8159,59.9935],[-122.7877,60.0001],[-122.6644,59.9909],[-122.6167,60.0008],[-122.6162,60.0009],[-122.6161,60.001],[-122.5909,60.0062],[-122.4658,60.0029],[-122.4592,60.0011],[-122.4588,60.001],[-122.4583,60.0008],[-122.379,59.9792],[-122.3297,59.9792],[-122.2297,60.0006],[-122.2293,60.0007],[-122.2263,60.0013],[-122.2183,60.003],[-122.2026,60.0013],[-122.1961,60.0006],[-122.1953,60.0005],[-122.1845,59.9994],[-122.1699,59.9875],[-122.1728,59.9659],[-122.1831,59.952],[-122.1702,59.938],[-122.152,59.9307],[-122.0395,59.9071],[-121.9578,59.8839],[-121.9048,59.8713],[-121.8192,59.8434],[-121.7337,59.8154],[-121.6617,59.7937],[-121.6081,59.7717],[-121.5822,59.751],[-121.5667,59.7166],[-121.5267,59.701],[-121.4626,59.6795],[-121.3713,59.6224],[-121.3234,59.6105],[-121.2632,59.6013],[-121.1897,59.6026],[-120.9769,59.6499],[-120.932,59.6541],[-120.8132,59.6199],[-120.7374,59.6139],[-120.667,59.6142],[-120.5809,59.6179],[-120.5084,59.6206],[-120.4661,59.6214],[-120.3814,59.6135],[-120.2188,59.5633],[-120.1618,59.5591],[-120.0013,59.5717],[-119.9992,59.5719],[-119.9673,59.5743],[-119.9244,59.5853],[-119.862,59.5947],[-119.6757,59.6019],[-119.6068,59.6126],[-119.5497,59.6151],[-119.4907,59.6105],[-119.4101,59.6067],[-119.336,59.6107],[-119.2238,59.6226],[-119.1883,59.6335],[-119.1567,59.6493],[-119.1389,59.6734],[-119.1372,59.6819],[-119.1271,59.7343]]}},{"type":"Feature","properties":{"UIDENT":1464301,"TYPE":17,"COUNTRY":"CAN","NAMEFR":"Toad River","NAMESP":"Toad River","EDIT_DATE":"20060803","EDIT":"NEW","Shape_Leng":170025.844},"geometry":{"type":"LineString","coordinates":[[-124.8744,59.3644],[-124.8285,59.3478],[-124.7669,59.3238],[-124.7187,59.2808],[-124.7102,59.2677],[-124.679,59.2196],[-124.6902,59.1829],[-124.7115,59.1639],[-124.6832,59.1216],[-124.6806,59.11],[-124.6736,59.0788],[-124.7109,59.0556],[-124.7357,59.0518],[-124.7766,59.0455],[-124.8155,59.0136],[-124.8655,58.9869],[-124.9103,58.97],[-124.9475,58.9582],[-124.9801,58.9456],[-125.1017,58.9109],[-125.1216,58.8854],[-125.1907,58.8619],[-125.2646,58.8486],[-125.2937,58.8508],[-125.319,58.8527],[-125.3775,58.8476],[-125.4204,58.8399],[-125.4584,58.8148],[-125.5505,58.7827],[-125.5914,58.7724],[-125.6586,58.7754],[-125.701,58.7564],[-125.7176,58.7283],[-125.7131,58.695],[-125.7288,58.6437],[-125.7199,58.6091],[-125.6907,58.5589],[-125.6881,58.5065],[-125.6834,58.4823],[-125.6465,58.4697],[-125.6438,58.4687],[-125.6163,58.4571],[-125.5979,58.4392],[-125.5874,58.429],[-125.5574,58.4067],[-125.5124,58.3927],[-125.5043,58.3915],[-125.4582,58.3846],[-125.4283,58.3579],[-125.4272,58.3569],[-125.3811,58.3306],[-125.3586,58.318],[-125.3224,58.3212]]}},{"type":"Feature","properties":{"UIDENT":1484701,"TYPE":17,"COUNTRY":"CAN","NAMEEN":"Muskwa River","NAMEFR":"Muskwa River","NAMESP":"Muskwa River","EDIT_DATE":"20060803","EDIT":"NEW","Shape_Leng":263100.2537},"geometry":{"type":"LineString","coordinates":[[-124.8747,57.8432],[-124.8578,57.8391],[-124.849,57.8266],[-124.8366,57.8088],[-124.8187,57.7992],[-124.7992,57.7818],[-124.7891,57.7728],[-124.765,57.7606],[-124.7176,57.7587],[-124.7171,57.7587],[-124.6674,57.7606],[-124.6309,57.7719],[-124.5844,57.772],[-124.5476,57.7669],[-124.5414,57.7654],[-124.4844,57.7523],[-124.4374,57.7536],[-124.4301,57.7538],[-124.3775,57.7514],[-124.3547,57.7504],[-124.325,57.749],[-124.2771,57.7599],[-124.2224,57.7543],[-124.1832,57.7682],[-124.1259,57.7783],[-124.0553,57.7884],[-123.9956,57.8047],[-123.9764,57.8221],[-123.9629,57.8612],[-123.9622,57.8633],[-123.9245,57.8862],[-123.8796,57.8952],[-123.8235,57.8908],[-123.7669,57.8725],[-123.7439,57.8668],[-123.7102,57.8642],[-123.6307,57.8561],[-123.5568,57.8619],[-123.4312,57.898],[-123.4134,57.9142],[-123.3937,57.9442],[-123.3896,57.9873],[-123.4003,58.0229],[-123.4627,58.0913],[-123.4807,58.1147],[-123.5024,58.1239],[-123.5296,58.1345],[-123.5443,58.1566],[-123.5547,58.1853],[-123.5844,58.2095],[-123.6286,58.2453],[-123.6563,58.2647],[-123.6573,58.2909],[-123.6525,58.3133],[-123.6416,58.341],[-123.6425,58.3696],[-123.6624,58.399],[-123.7031,58.427],[-123.7672,58.4837],[-123.7724,58.5246],[-123.7717,58.5633],[-123.74,58.6013],[-123.727,58.6072],[-123.6571,58.6238],[-123.5851,58.6406],[-123.5461,58.653],[-123.518,58.6847],[-123.5075,58.7226],[-123.5127,58.7559],[-123.5238,58.7876],[-123.5085,58.8107],[-123.4904,58.8191],[-123.4695,58.8206],[-123.3727,58.8161],[-123.2911,58.8038],[-123.226,58.7893],[-123.1693,58.7919],[-123.1309,58.7823],[-123.028,58.7465],[-122.9674,58.7366],[-122.882,58.748],[-122.8186,58.7388],[-122.7963,58.7385],[-122.7633,58.7428]]}},{"type":"Feature","properties":{"UIDENT":1399001,"TYPE":17,"COUNTRY":"CAN","NAMEEN":"South Nahanni River","NAMEFR":"South Nahanni River","NAMESP":"South Nahanni River","EDIT_DATE":"20060803","EDIT":"NEW","Shape_Leng":149248.1671},"geometry":{"type":"LineString","coordinates":[[-125.3591,61.5417],[-125.2927,61.532],[-125.265,61.516],[-125.2534,61.5093],[-125.2237,61.5039],[-125.2052,61.5006],[-125.1654,61.4878],[-125.1564,61.4811],[-125.1207,61.4547],[-125.0865,61.4451],[-125.0479,61.4452],[-124.9933,61.4454],[-124.9851,61.4231],[-124.9836,61.419],[-124.9541,61.4097],[-124.9287,61.4017],[-124.9335,61.3957],[-124.9433,61.3838],[-124.9141,61.3622],[-124.8893,61.3655],[-124.8747,61.3674],[-124.8654,61.3593],[-124.8546,61.3498],[-124.8256,61.3462],[-124.7971,61.3523],[-124.7636,61.3594],[-124.7395,61.362],[-124.7178,61.3531],[-124.71,61.3451],[-124.684,61.3182],[-124.6525,61.315],[-124.625,61.2987],[-124.5977,61.3041],[-124.585,61.3067],[-124.549,61.3015],[-124.5085,61.2761],[-124.4822,61.2511],[-124.4735,61.2428],[-124.4061,61.2232],[-124.3623,61.2262],[-124.285,61.264],[-124.2287,61.2732],[-124.1758,61.2832],[-124.1454,61.2923],[-124.1085,61.2858],[-124.054,61.2528],[-124.0025,61.2347],[-123.8753,61.234],[-123.7803,61.2314],[-123.7339,61.2249],[-123.6987,61.214],[-123.5492,61.0854],[-123.5373,61.0458],[-123.5109,61.0193],[-123.476,61.0122],[-123.4104,61.014],[-123.3313,61.0383]]}},{"type":"Feature","properties":{"UIDENT":1379401,"TYPE":17,"COUNTRY":"CAN","NAMEEN":"Flat River","NAMEFR":"Flat River","NAMESP":"Flat River","EDIT_DATE":"20060803","EDIT":"NEW","Shape_Leng":181467.3249},"geometry":{"type":"LineString","coordinates":[[-128.1765,62.0347],[-128.2163,62.024],[-128.2327,62.0241],[-128.2529,62.0242],[-128.2791,62.0135],[-128.2379,61.9801],[-128.1789,61.9548],[-128.1711,61.9514],[-128.0968,61.9114],[-128.0332,61.8794],[-127.985,61.8465],[-127.9758,61.843],[-127.9289,61.8229],[-127.8501,61.7518],[-127.7593,61.7348],[-127.6624,61.7047],[-127.5579,61.6561],[-127.3245,61.603],[-127.2331,61.5714],[-127.1299,61.5355],[-127.0094,61.4869],[-126.924,61.4474],[-126.8792,61.4302],[-126.8007,61.388],[-126.7525,61.3807],[-126.6782,61.3693],[-126.6333,61.3718],[-126.6245,61.3987],[-126.6095,61.4254],[-126.6079,61.4539],[-126.6059,61.4676],[-126.6038,61.4828],[-126.5773,61.52],[-126.5333,61.5406],[-126.437,61.5521],[-126.3428,61.5491],[-126.2399,61.5223],[-126.1327,61.5004],[-125.9969,61.4793],[-125.9317,61.4682],[-125.8653,61.4489],[-125.8185,61.4247]]}},{"type":"Feature","properties":{"UIDENT":1452501,"TYPE":16,"COUNTRY":"CAN","EDIT_DATE":"20060803","EDIT":"NEW","Shape_Leng":21199.1246},"geometry":{"type":"LineString","coordinates":[[-119.1271,59.7343],[-119.0445,59.7772],[-118.9565,59.7995],[-118.8758,59.8177],[-118.8108,59.8297]]}},{"type":"Feature","properties":{"UIDENT":1463401,"TYPE":17,"COUNTRY":"CAN","NAMEEN":"Fort Nelson River","NAMEFR":"Fort Nelson River","NAMESP":"Fort Nelson River","EDIT_DATE":"20090827","EDIT":"EDT","Shape_Leng":144213.9995},"geometry":{"type":"LineString","coordinates":[[-124.0059,59.5514],[-123.9887,59.5327],[-124.0043,59.4822],[-123.9614,59.4087],[-123.9283,59.3824],[-123.8127,59.3055],[-123.7257,59.2618],[-123.6295,59.232],[-123.5575,59.2154],[-123.5018,59.2119],[-123.4142,59.2144],[-123.3057,59.2105],[-123.1816,59.2219],[-123.1185,59.2105],[-123.1051,59.208],[-123.0331,59.195],[-122.9459,59.1895],[-122.8748,59.1933],[-122.8255,59.1842],[-122.7494,59.1663],[-122.6257,59.1407],[-122.5842,59.1278],[-122.5047,59.0934],[-122.4804,59.0707],[-122.4643,59.0364],[-122.4623,59.0178],[-122.4771,58.9972],[-122.4974,58.9828],[-122.5356,58.9679],[-122.5513,58.9526],[-122.5515,58.924],[-122.5053,58.8646],[-122.5016,58.8521],[-122.5084,58.8352],[-122.5224,58.8262]]}},{"type":"Feature","properties":{"UIDENT":1361301,"TYPE":17,"COUNTRY":"CAN","NAMEFR":"Yusezyu River","NAMESP":"Yusezyu River","EDIT_DATE":"20060803","EDIT":"NEW","Shape_Leng":43033.9339},"geometry":{"type":"LineString","coordinates":[[-129.5903,61.8853],[-129.609,61.8697],[-129.6244,61.845],[-129.6351,61.7932],[-129.6569,61.7504],[-129.6856,61.6629],[-129.6968,61.615],[-129.6986,61.5799],[-129.6852,61.5228],[-129.6781,61.5107]]}},{"type":"Feature","properties":{"UIDENT":1407701,"TYPE":17,"COUNTRY":"CAN","NAMEFR":"Poplar River","NAMESP":"Poplar River","EDIT_DATE":"20060803","EDIT":"NEW","Shape_Leng":73574.6205},"geometry":{"type":"LineString","coordinates":[[-121.853,61.3752],[-121.7891,61.3315],[-121.7292,61.3087],[-121.7215,61.3042],[-121.6801,61.2803],[-121.6386,61.2662],[-121.5628,61.2627],[-121.5139,61.2694],[-121.47,61.2732],[-121.4364,61.2709],[-121.4053,61.2586],[-121.3756,61.2308],[-121.3546,61.2164],[-121.3358,61.209],[-121.2828,61.1938],[-121.2453,61.1658],[-121.2432,61.1549],[-121.2792,61.1472],[-121.3125,61.1363],[-121.3423,61.1091],[-121.436,61.08],[-121.4971,61.0302],[-121.567,60.9829],[-121.5855,60.9661]]}},{"type":"Feature","properties":{"UIDENT":1440901,"TYPE":17,"COUNTRY":"CAN","NAMEEN":"Liard River","NAMEFR":"Liard River","NAMESP":"Liard River","EDIT_DATE":"20090827","EDIT":"EDT","Shape_Leng":58628.0208},"geometry":{"type":"LineString","coordinates":[[-124.8744,59.3644],[-124.8428,59.3785],[-124.8248,59.3909],[-124.8128,59.4057],[-124.8117,59.4351],[-124.7926,59.4692],[-124.7524,59.5252],[-124.6901,59.5486],[-124.6744,59.5902],[-124.6602,59.6302],[-124.6442,59.6369],[-124.5813,59.6633],[-124.5618,59.7012],[-124.5343,59.7238],[-124.4915,59.7346],[-124.4318,59.7324],[-124.4072,59.727],[-124.3831,59.7222],[-124.3371,59.7145]]}},{"type":"Feature","properties":{"UIDENT":1403001,"TYPE":17,"COUNTRY":"CAN","NAMEFR":"Liard River","NAMESP":"Liard River","EDIT_DATE":"20060803","EDIT":"NEW","Shape_Leng":50108.9172},"geometry":{"type":"LineString","coordinates":[[-129.1358,60.2135],[-129.0774,60.1784],[-128.9877,60.1305],[-128.9018,60.0755],[-128.8356,60.0469],[-128.7769,60.028],[-128.6503,60.0192],[-128.6054,60.0083],[-128.589,60.0008],[-128.5871,60],[-128.5707,59.9924],[-128.521,59.957],[-128.4614,59.9264]]}},{"type":"Feature","properties":{"UIDENT":1395901,"TYPE":17,"COUNTRY":"CAN","NAMEEN":"Liard River","NAMEFR":"Liard River","NAMESP":"Liard River","EDIT_DATE":"20090827","EDIT":"EDT","Shape_Leng":75212.2621},"geometry":{"type":"LineString","coordinates":[[-121.853,61.3752],[-121.7423,61.4082],[-121.6823,61.4288],[-121.5766,61.4515],[-121.5618,61.4527],[-121.5039,61.467],[-121.4613,61.5065],[-121.4409,61.5316],[-121.4468,61.5721],[-121.4602,61.6034],[-121.4892,61.6428],[-121.4744,61.6611],[-121.4285,61.6803],[-121.3936,61.6858],[-121.3017,61.69],[-121.2665,61.6993],[-121.2367,61.7188],[-121.2221,61.7331],[-121.2221,61.7667]]}},{"type":"Feature","properties":{"UIDENT":1436201,"TYPE":16,"COUNTRY":"CAN","EDIT_DATE":"20060803","EDIT":"NEW","Shape_Leng":24391.2678},"geometry":{"type":"LineString","coordinates":[[-123.2544,59.8198],[-123.1974,59.868],[-123.1971,59.8757],[-123.2247,59.8806],[-123.252,59.8921],[-123.2754,59.8856],[-123.3305,59.8699],[-123.3448,59.853],[-123.3329,59.8405],[-123.2872,59.8247],[-123.2544,59.8198]]}},{"type":"Feature","properties":{"UIDENT":1431301,"TYPE":17,"COUNTRY":"CAN","NAMEFR":"Liard River","NAMESP":"Liard River","EDIT_DATE":"20090827","EDIT":"EDT","Shape_Leng":8368.967},"geometry":{"type":"LineString","coordinates":[[-123.8446,59.92],[-123.829,59.8524],[-123.8259,59.8455]]}},{"type":"Feature","properties":{"UIDENT":1353001,"TYPE":17,"COUNTRY":"CAN","NAMEFR":"South Nahanni River","NAMESP":"South Nahanni River","EDIT_DATE":"20060803","EDIT":"NEW","Shape_Leng":143659.0783},"geometry":{"type":"LineString","coordinates":[[-129.5669,62.9673],[-129.6027,62.9513],[-129.6195,62.9406],[-129.6205,62.918],[-129.6046,62.9062],[-129.5771,62.8955],[-129.5455,62.8719],[-129.5275,62.8383],[-129.5011,62.8051],[-129.4808,62.7864],[-129.43,62.7681],[-129.3701,62.7563],[-129.3105,62.7364],[-129.2303,62.6859],[-129.2291,62.6854],[-129.1558,62.6559],[-129.0476,62.6323],[-128.9374,62.6219],[-128.8833,62.6022],[-128.8247,62.5533],[-128.7604,62.517],[-128.6518,62.4919],[-128.4522,62.4213],[-128.4518,62.4211],[-128.3363,62.3846],[-128.3303,62.382],[-128.271,62.3556],[-128.2052,62.3352],[-128.1496,62.3285],[-128.089,62.3355],[-127.947,62.3662],[-127.8813,62.3919],[-127.878,62.3933],[-127.8372,62.3923],[-127.7796,62.3673],[-127.7764,62.3648],[-127.6981,62.3042],[-127.6432,62.2688]]}},{"type":"Feature","properties":{"UIDENT":1407201,"TYPE":17,"COUNTRY":"CAN","NAMEFR":"Liard River","NAMESP":"Liard River","EDIT_DATE":"20060803","EDIT":"NEW","Shape_Leng":20102.9566},"geometry":{"type":"LineString","coordinates":[[-128.4614,59.9264],[-128.4295,59.9197],[-128.3623,59.9133],[-128.3111,59.9002],[-128.2644,59.8598],[-128.2417,59.8505],[-128.1993,59.8448],[-128.1632,59.8514]]}},{"type":"Feature","properties":{"UIDENT":1391401,"TYPE":17,"COUNTRY":"CAN","NAMEEN":"Frances River","NAMEFR":"Frances River","NAMESP":"Frances River","EDIT_DATE":"20060803","EDIT":"NEW","Shape_Leng":116768.2257},"geometry":{"type":"LineString","coordinates":[[-129.2828,61.2448],[-129.2426,61.1858],[-129.2295,61.1552],[-129.1779,61.0833],[-129.1724,61.0688],[-129.1697,61.052],[-129.1833,60.993],[-129.1763,60.9516],[-129.1493,60.9292],[-129.1486,60.9286],[-129.0999,60.9085],[-129.0853,60.8744],[-129.0339,60.8106],[-129.0108,60.7611],[-129.0185,60.7225],[-129.0393,60.7041],[-129.1039,60.6825],[-129.1351,60.6648],[-129.1629,60.6434],[-129.1774,60.6149],[-129.1653,60.568],[-129.1352,60.5164],[-129.1299,60.4917],[-129.1332,60.4615],[-129.1649,60.4393],[-129.2136,60.4137],[-129.2301,60.3847],[-129.22,60.3639],[-129.1954,60.347],[-129.1931,60.3114],[-129.1966,60.2841]]}},{"type":"Feature","properties":{"UIDENT":1490501,"TYPE":17,"COUNTRY":"CAN","NAMEFR":"Prophet River","NAMESP":"Prophet River","EDIT_DATE":"20060803","EDIT":"NEW","Shape_Leng":209385.745},"geometry":{"type":"LineString","coordinates":[[-124.3697,57.5621],[-124.3458,57.5515],[-124.3235,57.5463],[-124.2873,57.548],[-124.2385,57.5637],[-124.1669,57.601],[-124.1327,57.6188],[-124.0896,57.6299],[-124.0547,57.6501],[-123.9773,57.6497],[-123.9128,57.6544],[-123.8975,57.6555],[-123.8618,57.6581],[-123.8533,57.6596],[-123.7869,57.6711],[-123.7132,57.6827],[-123.6606,57.6731],[-123.6196,57.6544],[-123.5513,57.6474],[-123.5219,57.641],[-123.5154,57.6396],[-123.4937,57.6385],[-123.4836,57.638],[-123.4488,57.6451],[-123.402,57.6543],[-123.3532,57.6489],[-123.3477,57.6483],[-123.3146,57.6481],[-123.2916,57.6532],[-123.2525,57.6809],[-123.2083,57.721],[-123.1763,57.7767],[-123.1425,57.8127],[-123.0914,57.8494],[-123.0451,57.8685],[-122.9925,57.9143],[-122.9571,57.927],[-122.8588,57.9537],[-122.7818,57.9844],[-122.752,58.0038],[-122.7409,58.0347],[-122.7492,58.0649],[-122.7643,58.0986],[-122.7944,58.1555],[-122.8389,58.2206],[-122.8536,58.2388],[-122.8677,58.2563],[-122.8731,58.2629],[-122.8966,58.3058],[-122.907,58.366],[-122.9077,58.4044],[-122.8907,58.4421],[-122.8585,58.4711],[-122.8301,58.5125],[-122.824,58.5503],[-122.829,58.6045],[-122.8176,58.6608],[-122.8076,58.6822],[-122.7641,58.7273],[-122.7633,58.7428]]}},{"type":"Feature","properties":{"UIDENT":1405401,"TYPE":17,"COUNTRY":"CAN","NAMEEN":"Coal River","NAMEFR":"Coal River","NAMESP":"Coal River","EDIT_DATE":"20060803","EDIT":"NEW","Shape_Leng":191447.6762},"geometry":{"type":"LineString","coordinates":[[-127.6832,61.4636],[-127.6106,61.4514],[-127.5424,61.436],[-127.4502,61.4073],[-127.3489,61.3492],[-127.3135,61.3011],[-127.298,61.2417],[-127.2917,61.1937],[-127.28,61.1731],[-127.2759,61.1484],[-127.2942,61.1216],[-127.3651,61.0765],[-127.4546,60.9945],[-127.503,60.9692],[-127.5359,60.9483],[-127.5431,60.9264],[-127.5567,60.9028],[-127.5801,60.8843],[-127.6389,60.8681],[-127.6646,60.855],[-127.6802,60.8368],[-127.7005,60.7772],[-127.7204,60.7418],[-127.7201,60.71],[-127.6971,60.6727],[-127.6943,60.6177],[-127.6635,60.5911],[-127.6567,60.5882],[-127.6224,60.5811],[-127.5701,60.5774],[-127.5324,60.5743],[-127.5069,60.5586],[-127.4958,60.5459],[-127.4883,60.5188],[-127.4949,60.497],[-127.4923,60.4701],[-127.5051,60.4368],[-127.5127,60.4078],[-127.506,60.352],[-127.5064,60.2783],[-127.4909,60.2647],[-127.4662,60.2537],[-127.4488,60.2348],[-127.4347,60.1553],[-127.419,60.1379],[-127.3834,60.1241],[-127.3683,60.1226],[-127.3148,60.1254],[-127.2468,60.1292],[-127.1902,60.1275],[-127.1605,60.1195],[-127.1359,60.1019]]}},{"type":"Feature","properties":{"UIDENT":1433301,"TYPE":17,"COUNTRY":"CAN","NAMEFR":"Beaver River","NAMESP":"Beaver River","EDIT_DATE":"20090827","EDIT":"EDT","Shape_Leng":205769.458},"geometry":{"type":"LineString","coordinates":[[-126.8457,60.4885],[-126.8257,60.4742],[-126.8018,60.4708],[-126.7758,60.4799],[-126.7562,60.5089],[-126.7349,60.5186],[-126.6616,60.5428],[-126.6472,60.5463],[-126.5907,60.5597],[-126.5565,60.5678],[-126.4903,60.5743],[-126.394,60.5722],[-126.2736,60.5617],[-126.2016,60.5509],[-126.1506,60.5376],[-126.1199,60.5157],[-126.102,60.5029],[-126.0501,60.4814],[-125.9531,60.4778],[-125.8784,60.4561],[-125.8118,60.4529],[-125.8103,60.4528],[-125.8098,60.4524],[-125.787,60.4346],[-125.7527,60.4309],[-125.6923,60.3842],[-125.6623,60.3503],[-125.6405,60.3444],[-125.5785,60.3624],[-125.5126,60.3828],[-125.4436,60.3811],[-125.379,60.3647],[-125.3138,60.2801],[-125.2518,60.2354],[-125.1808,60.2059],[-125.1662,60.2031],[-125.1067,60.192],[-125.092,60.1892],[-125.0203,60.1584],[-124.9674,60.1481],[-124.9113,60.148],[-124.8874,60.1424],[-124.8501,60.1084],[-124.8494,60.082],[-124.8381,60.0673],[-124.7994,60.0642],[-124.7671,60.0475],[-124.7092,60.0337],[-124.6668,60.0257],[-124.6183,60.0242],[-124.5583,60.0355],[-124.518,60.0263],[-124.4823,60.0063],[-124.4762,60.0009],[-124.4752,60],[-124.4465,59.9746],[-124.4156,59.9591],[-124.391,59.9383],[-124.3847,59.9166],[-124.3645,59.8927],[-124.3045,59.871],[-124.2921,59.8625],[-124.283,59.8454],[-124.2876,59.8347],[-124.3183,59.823],[-124.3306,59.8044],[-124.3153,59.7735],[-124.3076,59.7464],[-124.3244,59.7248],[-124.3371,59.7145]]}},{"type":"Feature","properties":{"UIDENT":1379701,"TYPE":17,"COUNTRY":"CAN","NAMEFR":"Flat River","NAMESP":"Flat River","EDIT_DATE":"20060803","EDIT":"NEW","Shape_Leng":30136.4935},"geometry":{"type":"LineString","coordinates":[[-125.8185,61.4247],[-125.7597,61.435],[-125.6702,61.4505],[-125.598,61.4587],[-125.5192,61.5029],[-125.5042,61.5113],[-125.458,61.5192],[-125.4314,61.5134],[-125.415,61.5098],[-125.3796,61.5228],[-125.3591,61.5417]]}},{"type":"Feature","properties":{"UIDENT":1420401,"TYPE":17,"COUNTRY":"CAN","NAMEFR":"Liard River","NAMESP":"Liard River","EDIT_DATE":"20090827","EDIT":"EDT","Shape_Leng":7720.2329},"geometry":{"type":"LineString","coordinates":[[-127.0706,59.6155],[-127.0091,59.6256],[-126.9483,59.6449]]}},{"type":"Feature","properties":{"UIDENT":1449901,"TYPE":17,"COUNTRY":"CAN","NAMEEN":"Kechika River","NAMEFR":"Kechika River","NAMESP":"Kechika River","EDIT_DATE":"20060803","EDIT":"NEW","Shape_Leng":73681.5523},"geometry":{"type":"LineString","coordinates":[[-127.5668,59.1581],[-127.5452,59.1386],[-127.503,59.1071],[-127.4616,59.0834],[-127.4388,59.0662],[-127.363,58.9792],[-127.3164,58.947],[-127.2236,58.8472],[-127.1681,58.7743],[-127.1179,58.7274],[-127.0708,58.6976],[-127.0034,58.638],[-126.9207,58.585]]}},{"type":"Feature","properties":{"UIDENT":1379001,"TYPE":17,"COUNTRY":"CAN","NAMEEN":"South Nahanni River","NAMEFR":"South Nahanni River","NAMESP":"South Nahanni River","EDIT_DATE":"20060803","EDIT":"NEW","Shape_Leng":153074.5709},"geometry":{"type":"LineString","coordinates":[[-127.6432,62.2688],[-127.5777,62.2155],[-127.4751,62.1676],[-127.3952,62.0787],[-127.3254,62.0164],[-127.228,61.976],[-127.1065,61.9287],[-126.9641,61.8909],[-126.8425,61.869],[-126.6955,61.8685],[-126.6507,61.8696],[-126.5757,61.8715],[-126.4667,61.8598],[-126.3353,61.8562],[-126.2335,61.8318],[-126.1934,61.8161],[-126.1294,61.7909],[-126.0255,61.719],[-125.9173,61.6619],[-125.8228,61.6066],[-125.6986,61.5817],[-125.6184,61.5843],[-125.5711,61.577],[-125.4965,61.5688],[-125.4451,61.5565],[-125.3984,61.5463],[-125.3591,61.5417]]}},{"type":"Feature","properties":{"UIDENT":1420801,"TYPE":17,"COUNTRY":"CAN","NAMEFR":"Liard River","NAMESP":"Liard River","EDIT_DATE":"20090827","EDIT":"EDT","Shape_Leng":12807.6538},"geometry":{"type":"LineString","coordinates":[[-123.4917,60.2324],[-123.4032,60.2806],[-123.3536,60.2917],[-123.3443,60.3127]]}},{"type":"Feature","properties":{"UIDENT":1430101,"TYPE":17,"COUNTRY":"CAN","NAMEFR":"La Biche River","NAMESP":"La Biche River","EDIT_DATE":"20090827","EDIT":"EDT","Shape_Leng":139419.5506},"geometry":{"type":"LineString","coordinates":[[-124.7355,60.882],[-124.744,60.8659],[-124.7505,60.8295],[-124.7477,60.8175],[-124.721,60.7871],[-124.7036,60.765],[-124.7271,60.7331],[-124.7199,60.6911],[-124.7259,60.6259],[-124.7421,60.5167],[-124.7253,60.4393],[-124.6936,60.4007],[-124.654,60.3737],[-124.5953,60.3443],[-124.5311,60.3313],[-124.4848,60.3239],[-124.4437,60.3253],[-124.3733,60.3177],[-124.3648,60.3181],[-124.3029,60.3211],[-124.2777,60.31],[-124.2699,60.3018],[-124.2514,60.2825],[-124.2224,60.2439],[-124.2189,60.2392],[-124.2105,60.2182],[-124.1996,60.191],[-124.1855,60.1684],[-124.1471,60.1581],[-124.1325,60.1575],[-124.0867,60.1557],[-124.0414,60.1285],[-124.0282,60.0918],[-124.0754,60.021],[-124.0732,60.0002],[-124.0732,60],[-124.0726,59.9947],[-124.062,59.9799],[-124.0158,59.945],[-123.9652,59.9287],[-123.8446,59.92]]}},{"type":"Feature","properties":{"UIDENT":1426001,"TYPE":17,"COUNTRY":"CAN","NAMEFR":"Smith River","NAMESP":"Smith River","EDIT_DATE":"20060803","EDIT":"NEW","Shape_Leng":105252.3337},"geometry":{"type":"LineString","coordinates":[[-126.2514,60.4317],[-126.2314,60.4267],[-126.2008,60.4146],[-126.1952,60.4077],[-126.2262,60.3839],[-126.2536,60.3642],[-126.2648,60.3304],[-126.2875,60.2911],[-126.2877,60.2485],[-126.306,60.2179],[-126.3207,60.1806],[-126.3167,60.0932],[-126.3266,60.0767],[-126.3822,60.0262],[-126.3942,60.0008],[-126.3945,60],[-126.4119,59.963],[-126.4049,59.9019],[-126.4202,59.8667],[-126.4561,59.8274],[-126.4678,59.7729],[-126.4697,59.6785],[-126.4687,59.6749],[-126.452,59.6599],[-126.4502,59.6353],[-126.4519,59.618],[-126.4591,59.5962],[-126.4636,59.5516],[-126.4659,59.5392]]}},{"type":"Feature","properties":{"UIDENT":1448401,"TYPE":17,"COUNTRY":"CAN","NAMEFR":"Rabbit River","NAMESP":"Rabbit River","EDIT_DATE":"20090827","EDIT":"EDT","Shape_Leng":136664.4286},"geometry":{"type":"LineString","coordinates":[[-127.0706,59.6155],[-127.1016,59.5942],[-127.1511,59.5748],[-127.2077,59.5425],[-127.2459,59.5196],[-127.2408,59.4931],[-127.2394,59.4745],[-127.2444,59.4002],[-127.208,59.3595],[-127.1546,59.3318],[-127.1275,59.3089],[-127.0859,59.265],[-127.0561,59.2454],[-126.9818,59.1955],[-126.9123,59.1397],[-126.8898,59.0949],[-126.8832,59.0462],[-126.8826,59.0416],[-126.8779,59.0357],[-126.8731,59.0298],[-126.8465,58.9966],[-126.8088,58.9632],[-126.7685,58.9471],[-126.7557,58.9452],[-126.7032,58.9372],[-126.638,58.9343],[-126.6347,58.9348],[-126.5539,58.9489],[-126.4992,58.9523],[-126.4708,58.9481],[-126.4411,58.9362],[-126.426,58.9109],[-126.4403,58.8774],[-126.445,58.8659],[-126.4343,58.8535],[-126.4095,58.8409],[-126.3724,58.8329],[-126.3321,58.8331],[-126.2699,58.8399],[-126.2513,58.8404],[-126.2253,58.841],[-126.1797,58.8262],[-126.1523,58.8048],[-126.1451,58.7833]]}},{"type":"Feature","properties":{"UIDENT":1470201,"TYPE":17,"COUNTRY":"CAN","NAMEFR":"Kechika River","NAMESP":"Kechika River","EDIT_DATE":"20060803","EDIT":"NEW","Shape_Leng":92149.6774},"geometry":{"type":"LineString","coordinates":[[-126.9207,58.585],[-126.9239,58.5525],[-126.9106,58.5326],[-126.7976,58.4863],[-126.7861,58.4674],[-126.7949,58.4545],[-126.7578,58.407],[-126.6791,58.3579],[-126.5808,58.2909],[-126.5768,58.2882],[-126.5742,58.2856],[-126.522,58.2344],[-126.4809,58.1809],[-126.4635,58.1675],[-126.4227,58.1362],[-126.3329,58.0529],[-126.3035,58.0302],[-126.2751,58.0081],[-126.2254,57.9633],[-126.2312,57.9426],[-126.2581,57.9291],[-126.2758,57.9281],[-126.3119,57.9261],[-126.3444,57.9108]]}},{"type":"Feature","properties":{"UIDENT":1426101,"TYPE":17,"COUNTRY":"CAN","NAMEEN":"Liard River","NAMEFR":"Liard River","NAMESP":"Liard River","EDIT_DATE":"20090827","EDIT":"EDT","Shape_Leng":29977.213},"geometry":{"type":"LineString","coordinates":[[-126.9483,59.6449],[-126.8963,59.6282],[-126.8496,59.6241],[-126.8235,59.613],[-126.7674,59.5955],[-126.6572,59.5868],[-126.6409,59.5854],[-126.5703,59.5793],[-126.5163,59.5642],[-126.4659,59.5392]]}}]}